{
"type": "FeatureCollection",
"crs": { "type": "name", "properties": { "name": "urn:ogc:def:crs:OGC:1.3:CRS84" } },
"features": [
	{ "type": "Feature", "properties": { "osm_id": "268096667", "amenity": "bench", "other_tags": "\"tourism\"=>\"viewpoint\"" }, "geometry": { "type": "Point", "coordinates": [ -1.7617121, 53.8588696 ] } },
	{ "type": "Feature", "properties": { "osm_id": "302429274", "amenity": "bench" }, "geometry": { "type": "Point", "coordinates": [ -1.7576215, 53.7726678 ] } },
	{ "type": "Feature", "properties": { "osm_id": "366919958", "amenity": "bench" }, "geometry": { "type": "Point", "coordinates": [ -1.8419555, 53.8595966 ] } },
	{ "type": "Feature", "properties": { "osm_id": "367520503", "amenity": "bench" }, "geometry": { "type": "Point", "coordinates": [ -1.8301655, 53.8522926 ] } },
	{ "type": "Feature", "properties": { "osm_id": "747706098", "amenity": "bench" }, "geometry": { "type": "Point", "coordinates": [ -1.7443727, 53.890368 ] } },
	{ "type": "Feature", "properties": { "osm_id": "768936197", "amenity": "bench", "other_tags": "\"seats\"=>\"2\",\"backrest\"=>\"yes\",\"material\"=>\"wood\"" }, "geometry": { "type": "Point", "coordinates": [ -1.8433649, 53.8648591 ] } },
	{ "type": "Feature", "properties": { "osm_id": "806722616", "amenity": "bench" }, "geometry": { "type": "Point", "coordinates": [ -1.8669772, 53.8314595 ] } },
	{ "type": "Feature", "properties": { "osm_id": "899038866", "amenity": "bench" }, "geometry": { "type": "Point", "coordinates": [ -1.8242431, 53.7852178 ] } },
	{ "type": "Feature", "properties": { "osm_id": "1227379071", "amenity": "bench" }, "geometry": { "type": "Point", "coordinates": [ -1.738447, 53.7771188 ] } },
	{ "type": "Feature", "properties": { "osm_id": "1227379073", "amenity": "bench" }, "geometry": { "type": "Point", "coordinates": [ -1.7398712, 53.7783693 ] } },
	{ "type": "Feature", "properties": { "osm_id": "1227379098", "amenity": "bench" }, "geometry": { "type": "Point", "coordinates": [ -1.7398015, 53.7782726 ] } },
	{ "type": "Feature", "properties": { "osm_id": "1227379100", "amenity": "bench" }, "geometry": { "type": "Point", "coordinates": [ -1.7397398, 53.7781854 ] } },
	{ "type": "Feature", "properties": { "osm_id": "1227379114", "amenity": "bench" }, "geometry": { "type": "Point", "coordinates": [ -1.7362717, 53.7760283 ] } },
	{ "type": "Feature", "properties": { "osm_id": "1227379132", "amenity": "bench" }, "geometry": { "type": "Point", "coordinates": [ -1.739066, 53.7778086 ] } },
	{ "type": "Feature", "properties": { "osm_id": "1227379147", "amenity": "bench" }, "geometry": { "type": "Point", "coordinates": [ -1.7395172, 53.7779715 ] } },
	{ "type": "Feature", "properties": { "osm_id": "1227379151", "amenity": "bench" }, "geometry": { "type": "Point", "coordinates": [ -1.7404077, 53.775995 ] } },
	{ "type": "Feature", "properties": { "osm_id": "1227379153", "amenity": "bench" }, "geometry": { "type": "Point", "coordinates": [ -1.7409897, 53.7764673 ] } },
	{ "type": "Feature", "properties": { "osm_id": "1227379158", "amenity": "bench" }, "geometry": { "type": "Point", "coordinates": [ -1.7377603, 53.774746 ] } },
	{ "type": "Feature", "properties": { "osm_id": "1227379164", "amenity": "bench" }, "geometry": { "type": "Point", "coordinates": [ -1.736835, 53.7747127 ] } },
	{ "type": "Feature", "properties": { "osm_id": "1227379165", "amenity": "bench" }, "geometry": { "type": "Point", "coordinates": [ -1.7420599, 53.7801507 ] } },
	{ "type": "Feature", "properties": { "osm_id": "1227379166", "amenity": "bench" }, "geometry": { "type": "Point", "coordinates": [ -1.7385462, 53.7771933 ] } },
	{ "type": "Feature", "properties": { "osm_id": "1227379167", "amenity": "bench" }, "geometry": { "type": "Point", "coordinates": [ -1.7357889, 53.7752136 ] } },
	{ "type": "Feature", "properties": { "osm_id": "1227379168", "amenity": "bench" }, "geometry": { "type": "Point", "coordinates": [ -1.7387125, 53.7772662 ] } },
	{ "type": "Feature", "properties": { "osm_id": "1227379169", "amenity": "bench" }, "geometry": { "type": "Point", "coordinates": [ -1.7361237, 53.7753122 ] } },
	{ "type": "Feature", "properties": { "osm_id": "1227379170", "amenity": "bench" }, "geometry": { "type": "Point", "coordinates": [ -1.7391014, 53.7772218 ] } },
	{ "type": "Feature", "properties": { "osm_id": "1227379171", "amenity": "bench" }, "geometry": { "type": "Point", "coordinates": [ -1.7391578, 53.7770712 ] } },
	{ "type": "Feature", "properties": { "osm_id": "1227379173", "amenity": "bench" }, "geometry": { "type": "Point", "coordinates": [ -1.7354268, 53.7742688 ] } },
	{ "type": "Feature", "properties": { "osm_id": "1273076839", "amenity": "bench" }, "geometry": { "type": "Point", "coordinates": [ -1.9910199, 53.8292801 ] } },
	{ "type": "Feature", "properties": { "osm_id": "1396565615", "amenity": "bench" }, "geometry": { "type": "Point", "coordinates": [ -1.9965049, 53.8273183 ] } },
	{ "type": "Feature", "properties": { "osm_id": "1417324497", "amenity": "bench" }, "geometry": { "type": "Point", "coordinates": [ -1.971372, 53.830017 ] } },
	{ "type": "Feature", "properties": { "osm_id": "1417324498", "amenity": "bench" }, "geometry": { "type": "Point", "coordinates": [ -1.969818, 53.830498 ] } },
	{ "type": "Feature", "properties": { "osm_id": "1420248478", "amenity": "bench" }, "geometry": { "type": "Point", "coordinates": [ -1.9571063, 53.8326356 ] } },
	{ "type": "Feature", "properties": { "osm_id": "1567905322", "amenity": "bench" }, "geometry": { "type": "Point", "coordinates": [ -1.8051793, 53.9266878 ] } },
	{ "type": "Feature", "properties": { "osm_id": "1580847743", "amenity": "bench" }, "geometry": { "type": "Point", "coordinates": [ -2.0036493, 53.8342938 ] } },
	{ "type": "Feature", "properties": { "osm_id": "1596866169", "name": "Tom Stell's Seat", "amenity": "bench" }, "geometry": { "type": "Point", "coordinates": [ -1.9740917, 53.8223101 ] } },
	{ "type": "Feature", "properties": { "osm_id": "1876756547", "amenity": "bench", "other_tags": "\"backrest\"=>\"yes\"" }, "geometry": { "type": "Point", "coordinates": [ -1.9172817, 53.8813089 ] } },
	{ "type": "Feature", "properties": { "osm_id": "1910871898", "amenity": "bench" }, "geometry": { "type": "Point", "coordinates": [ -2.0117106, 53.8360407 ] } },
	{ "type": "Feature", "properties": { "osm_id": "2109064237", "amenity": "bench" }, "geometry": { "type": "Point", "coordinates": [ -1.8011704, 53.9120856 ] } },
	{ "type": "Feature", "properties": { "osm_id": "2351444815", "amenity": "bench" }, "geometry": { "type": "Point", "coordinates": [ -1.7279059, 53.8863489 ] } },
	{ "type": "Feature", "properties": { "osm_id": "2351444816", "amenity": "bench" }, "geometry": { "type": "Point", "coordinates": [ -1.7274068, 53.8866967 ] } },
	{ "type": "Feature", "properties": { "osm_id": "2358368290", "amenity": "bench" }, "geometry": { "type": "Point", "coordinates": [ -1.814603, 53.8399072 ] } },
	{ "type": "Feature", "properties": { "osm_id": "2358415294", "amenity": "bench" }, "geometry": { "type": "Point", "coordinates": [ -1.8017098, 53.8400874 ] } },
	{ "type": "Feature", "properties": { "osm_id": "2358415296", "amenity": "bench" }, "geometry": { "type": "Point", "coordinates": [ -1.8017419, 53.8400747 ] } },
	{ "type": "Feature", "properties": { "osm_id": "2358440129", "amenity": "bench" }, "geometry": { "type": "Point", "coordinates": [ -1.7981936, 53.8381535 ] } },
	{ "type": "Feature", "properties": { "osm_id": "2358440134", "amenity": "bench" }, "geometry": { "type": "Point", "coordinates": [ -1.7990922, 53.838318 ] } },
	{ "type": "Feature", "properties": { "osm_id": "2358478164", "amenity": "bench" }, "geometry": { "type": "Point", "coordinates": [ -1.7863862, 53.8372243 ] } },
	{ "type": "Feature", "properties": { "osm_id": "2358538859", "amenity": "bench" }, "geometry": { "type": "Point", "coordinates": [ -1.7791927, 53.8347995 ] } },
	{ "type": "Feature", "properties": { "osm_id": "2358548412", "amenity": "bench" }, "geometry": { "type": "Point", "coordinates": [ -1.7794851, 53.8348233 ] } },
	{ "type": "Feature", "properties": { "osm_id": "2358584639", "amenity": "bench" }, "geometry": { "type": "Point", "coordinates": [ -1.7772506, 53.8339179 ] } },
	{ "type": "Feature", "properties": { "osm_id": "2358605875", "amenity": "bench" }, "geometry": { "type": "Point", "coordinates": [ -1.7775215, 53.8330981 ] } },
	{ "type": "Feature", "properties": { "osm_id": "2358605903", "amenity": "bench" }, "geometry": { "type": "Point", "coordinates": [ -1.7775405, 53.8332643 ] } },
	{ "type": "Feature", "properties": { "osm_id": "2650397827", "amenity": "bench" }, "geometry": { "type": "Point", "coordinates": [ -1.8956479, 53.9199243 ] } },
	{ "type": "Feature", "properties": { "osm_id": "2820311945", "name": "Stanza Stones Poetry Seat", "amenity": "bench" }, "geometry": { "type": "Point", "coordinates": [ -1.8121917, 53.9097205 ] } },
	{ "type": "Feature", "properties": { "osm_id": "3362921693", "amenity": "bench" }, "geometry": { "type": "Point", "coordinates": [ -1.7245024, 53.858587 ] } },
	{ "type": "Feature", "properties": { "osm_id": "3627169426", "amenity": "bench" }, "geometry": { "type": "Point", "coordinates": [ -1.7502597, 53.9136318 ] } },
	{ "type": "Feature", "properties": { "osm_id": "3632249976", "amenity": "bench" }, "geometry": { "type": "Point", "coordinates": [ -1.7355183, 53.8884924 ] } },
	{ "type": "Feature", "properties": { "osm_id": "3660954877", "amenity": "bench" }, "geometry": { "type": "Point", "coordinates": [ -1.9002359, 53.8254296 ] } },
	{ "type": "Feature", "properties": { "osm_id": "3789889592", "amenity": "bench" }, "geometry": { "type": "Point", "coordinates": [ -1.7393691, 53.8891847 ] } },
	{ "type": "Feature", "properties": { "osm_id": "3940962882", "amenity": "bench" }, "geometry": { "type": "Point", "coordinates": [ -1.8019788, 53.9170487 ] } },
	{ "type": "Feature", "properties": { "osm_id": "4147852621", "amenity": "bench" }, "geometry": { "type": "Point", "coordinates": [ -1.8218645, 53.9169558 ] } },
	{ "type": "Feature", "properties": { "osm_id": "4147852622", "amenity": "bench" }, "geometry": { "type": "Point", "coordinates": [ -1.8217384, 53.9169786 ] } },
	{ "type": "Feature", "properties": { "osm_id": "4147852623", "amenity": "bench" }, "geometry": { "type": "Point", "coordinates": [ -1.8215881, 53.9170108 ] } },
	{ "type": "Feature", "properties": { "osm_id": "4408761671", "amenity": "bench" }, "geometry": { "type": "Point", "coordinates": [ -1.8328296, 53.9104976 ] } },
	{ "type": "Feature", "properties": { "osm_id": "4408761673", "amenity": "bench" }, "geometry": { "type": "Point", "coordinates": [ -1.8332468, 53.9176051 ] } },
	{ "type": "Feature", "properties": { "osm_id": "4408761674", "amenity": "bench" }, "geometry": { "type": "Point", "coordinates": [ -1.8332703, 53.9176147 ] } },
	{ "type": "Feature", "properties": { "osm_id": "4408761679", "amenity": "bench" }, "geometry": { "type": "Point", "coordinates": [ -1.8339718, 53.9178521 ] } },
	{ "type": "Feature", "properties": { "osm_id": "4408761680", "amenity": "bench" }, "geometry": { "type": "Point", "coordinates": [ -1.8311166, 53.9179073 ] } },
	{ "type": "Feature", "properties": { "osm_id": "4408761682", "amenity": "bench" }, "geometry": { "type": "Point", "coordinates": [ -1.8373906, 53.9180563 ] } },
	{ "type": "Feature", "properties": { "osm_id": "4408761683", "amenity": "bench" }, "geometry": { "type": "Point", "coordinates": [ -1.8439778, 53.9184322 ] } },
	{ "type": "Feature", "properties": { "osm_id": "4408761684", "amenity": "bench" }, "geometry": { "type": "Point", "coordinates": [ -1.8417052, 53.9184712 ] } },
	{ "type": "Feature", "properties": { "osm_id": "4525205459", "amenity": "bench" }, "geometry": { "type": "Point", "coordinates": [ -1.7942745, 53.8355832 ] } },
	{ "type": "Feature", "properties": { "osm_id": "4525205463", "amenity": "bench" }, "geometry": { "type": "Point", "coordinates": [ -1.7943764, 53.8355864 ] } },
	{ "type": "Feature", "properties": { "osm_id": "4525205476", "amenity": "bench" }, "geometry": { "type": "Point", "coordinates": [ -1.7908923, 53.8347618 ] } }
]
}
