{
"type": "FeatureCollection",
"crs": { "type": "name", "properties": { "name": "urn:ogc:def:crs:OGC:1.3:CRS84" } },
"features": [
	{ "type": "Feature", "properties": { "osm_id": "27485695", "name": "Queens Hall", "amenity": "parking", "other_tags": "\"description\"=>\"Small free council car park\"" }, "geometry": { "type": "Point", "coordinates": [ -1.7479318, 53.9139372 ] } },
	{ "type": "Feature", "properties": { "osm_id": "28141953", "amenity": "parking" }, "geometry": { "type": "Point", "coordinates": [ -1.8228056, 53.9256484 ] } },
	{ "type": "Feature", "properties": { "osm_id": "33115369", "amenity": "parking", "other_tags": "\"description\"=>\"Free muncipal open-air parking, 12 hours maximum\"" }, "geometry": { "type": "Point", "coordinates": [ -1.88214, 53.9442746 ] } },
	{ "type": "Feature", "properties": { "osm_id": "33189070", "amenity": "parking" }, "geometry": { "type": "Point", "coordinates": [ -1.826303, 53.9189271 ] } },
	{ "type": "Feature", "properties": { "osm_id": "249561731", "amenity": "parking" }, "geometry": { "type": "Point", "coordinates": [ -1.7466724, 53.7973304 ] } },
	{ "type": "Feature", "properties": { "osm_id": "249561732", "amenity": "parking" }, "geometry": { "type": "Point", "coordinates": [ -1.7464496, 53.797598 ] } },
	{ "type": "Feature", "properties": { "osm_id": "268096670", "amenity": "parking" }, "geometry": { "type": "Point", "coordinates": [ -1.7688475, 53.858508 ] } },
	{ "type": "Feature", "properties": { "osm_id": "268096674", "amenity": "parking" }, "geometry": { "type": "Point", "coordinates": [ -1.770304, 53.8611185 ] } },
	{ "type": "Feature", "properties": { "osm_id": "269058802", "amenity": "parking" }, "geometry": { "type": "Point", "coordinates": [ -1.7977512, 53.8054369 ] } },
	{ "type": "Feature", "properties": { "osm_id": "300897388", "name": "Leisure Exchange Bradford", "amenity": "parking", "other_tags": "\"parking\"=>\"multi-storey\"" }, "geometry": { "type": "Point", "coordinates": [ -1.7462705, 53.791928 ] } },
	{ "type": "Feature", "properties": { "osm_id": "301733965", "name": "Great Victoria Hotel", "amenity": "parking", "other_tags": "\"access\"=>\"customers\",\"parking\"=>\"surface\"" }, "geometry": { "type": "Point", "coordinates": [ -1.7495605, 53.7917286 ] } },
	{ "type": "Feature", "properties": { "osm_id": "308920062", "amenity": "parking" }, "geometry": { "type": "Point", "coordinates": [ -1.7642059, 53.7910764 ] } },
	{ "type": "Feature", "properties": { "osm_id": "308920070", "amenity": "parking" }, "geometry": { "type": "Point", "coordinates": [ -1.7657454, 53.7898048 ] } },
	{ "type": "Feature", "properties": { "osm_id": "316086436", "amenity": "parking", "other_tags": "\"access\"=>\"private\"" }, "geometry": { "type": "Point", "coordinates": [ -1.7589988, 53.7893991 ] } },
	{ "type": "Feature", "properties": { "osm_id": "336673917", "amenity": "parking" }, "geometry": { "type": "Point", "coordinates": [ -1.8352694, 53.8408426 ] } },
	{ "type": "Feature", "properties": { "osm_id": "338643728", "amenity": "parking", "other_tags": "\"parking\"=>\"surface\",\"capacity\"=>\"40\",\"capacity:disabled\"=>\"4\"" }, "geometry": { "type": "Point", "coordinates": [ -1.7742505, 53.8123711 ] } },
	{ "type": "Feature", "properties": { "osm_id": "343517487", "amenity": "parking" }, "geometry": { "type": "Point", "coordinates": [ -1.7675692, 53.8598337 ] } },
	{ "type": "Feature", "properties": { "osm_id": "349290116", "amenity": "parking", "other_tags": "\"parking\"=>\"surface\"" }, "geometry": { "type": "Point", "coordinates": [ -1.8489571, 53.8466387 ] } },
	{ "type": "Feature", "properties": { "osm_id": "358988512", "amenity": "parking", "other_tags": "\"fee\"=>\"yes\",\"access\"=>\"designated\",\"parking\"=>\"surface\"" }, "geometry": { "type": "Point", "coordinates": [ -1.7611409, 53.7870463 ] } },
	{ "type": "Feature", "properties": { "osm_id": "362524299", "amenity": "parking", "other_tags": "\"access\"=>\"designated\",\"parking\"=>\"surface\"" }, "geometry": { "type": "Point", "coordinates": [ -1.7725533, 53.8092628 ] } },
	{ "type": "Feature", "properties": { "osm_id": "389504574", "amenity": "parking" }, "geometry": { "type": "Point", "coordinates": [ -1.8763038, 53.8675036 ] } },
	{ "type": "Feature", "properties": { "osm_id": "389678550", "amenity": "parking" }, "geometry": { "type": "Point", "coordinates": [ -1.9214618, 53.8861111 ] } },
	{ "type": "Feature", "properties": { "osm_id": "389678557", "amenity": "parking" }, "geometry": { "type": "Point", "coordinates": [ -1.9342199, 53.896138 ] } },
	{ "type": "Feature", "properties": { "osm_id": "389678561", "amenity": "parking" }, "geometry": { "type": "Point", "coordinates": [ -1.9481946, 53.9018636 ] } },
	{ "type": "Feature", "properties": { "osm_id": "389678566", "amenity": "parking" }, "geometry": { "type": "Point", "coordinates": [ -1.9632059, 53.9029018 ] } },
	{ "type": "Feature", "properties": { "osm_id": "391089679", "amenity": "parking" }, "geometry": { "type": "Point", "coordinates": [ -1.9613665, 53.9031519 ] } },
	{ "type": "Feature", "properties": { "osm_id": "391089681", "amenity": "parking" }, "geometry": { "type": "Point", "coordinates": [ -1.950549, 53.9024554 ] } },
	{ "type": "Feature", "properties": { "osm_id": "391089682", "amenity": "parking" }, "geometry": { "type": "Point", "coordinates": [ -1.9361034, 53.8977549 ] } },
	{ "type": "Feature", "properties": { "osm_id": "391089684", "amenity": "parking" }, "geometry": { "type": "Point", "coordinates": [ -1.9296405, 53.8925804 ] } },
	{ "type": "Feature", "properties": { "osm_id": "391092694", "amenity": "parking" }, "geometry": { "type": "Point", "coordinates": [ -1.9094879, 53.8822012 ] } },
	{ "type": "Feature", "properties": { "osm_id": "415510946", "amenity": "parking", "other_tags": "\"parking\"=>\"surface\",\"capacity:disabled\"=>\"yes\"" }, "geometry": { "type": "Point", "coordinates": [ -1.9086666, 53.8676097 ] } },
	{ "type": "Feature", "properties": { "osm_id": "455680109", "amenity": "parking", "other_tags": "\"parking\"=>\"layby\"" }, "geometry": { "type": "Point", "coordinates": [ -1.8791852, 53.8696525 ] } },
	{ "type": "Feature", "properties": { "osm_id": "455680113", "amenity": "parking", "other_tags": "\"parking\"=>\"layby\"" }, "geometry": { "type": "Point", "coordinates": [ -1.8617485, 53.8638137 ] } },
	{ "type": "Feature", "properties": { "osm_id": "457646700", "amenity": "parking" }, "geometry": { "type": "Point", "coordinates": [ -1.7297555, 53.8353836 ] } },
	{ "type": "Feature", "properties": { "osm_id": "521935133", "amenity": "parking" }, "geometry": { "type": "Point", "coordinates": [ -1.7333123, 53.7718717 ] } },
	{ "type": "Feature", "properties": { "osm_id": "529722938", "amenity": "parking", "other_tags": "\"fee\"=>\"no\"" }, "geometry": { "type": "Point", "coordinates": [ -1.7817667, 53.8326584 ] } },
	{ "type": "Feature", "properties": { "osm_id": "530261778", "amenity": "parking" }, "geometry": { "type": "Point", "coordinates": [ -1.7779045, 53.8345871 ] } },
	{ "type": "Feature", "properties": { "osm_id": "530965945", "amenity": "parking", "other_tags": "\"fee\"=>\"yes\"" }, "geometry": { "type": "Point", "coordinates": [ -1.7794765, 53.8312555 ] } },
	{ "type": "Feature", "properties": { "osm_id": "538083023", "amenity": "parking" }, "geometry": { "type": "Point", "coordinates": [ -1.7764327, 53.8351857 ] } },
	{ "type": "Feature", "properties": { "osm_id": "798294773", "amenity": "parking" }, "geometry": { "type": "Point", "coordinates": [ -1.8156347, 53.8159259 ] } },
	{ "type": "Feature", "properties": { "osm_id": "798352503", "amenity": "parking" }, "geometry": { "type": "Point", "coordinates": [ -1.8024177, 53.8270289 ] } },
	{ "type": "Feature", "properties": { "osm_id": "798464794", "amenity": "parking" }, "geometry": { "type": "Point", "coordinates": [ -1.9628796, 53.8252072 ] } },
	{ "type": "Feature", "properties": { "osm_id": "798527583", "amenity": "parking" }, "geometry": { "type": "Point", "coordinates": [ -1.9481444, 53.8306643 ] } },
	{ "type": "Feature", "properties": { "osm_id": "858578143", "name": "Co-operative Clayton Car Park", "amenity": "parking" }, "geometry": { "type": "Point", "coordinates": [ -1.8189974, 53.7849222 ] } },
	{ "type": "Feature", "properties": { "osm_id": "862884344", "amenity": "parking" }, "geometry": { "type": "Point", "coordinates": [ -1.8175957, 53.7807091 ] } },
	{ "type": "Feature", "properties": { "osm_id": "863854365", "name": "Clayton Golf Club", "amenity": "parking" }, "geometry": { "type": "Point", "coordinates": [ -1.8132908, 53.778295 ] } },
	{ "type": "Feature", "properties": { "osm_id": "863906380", "name": "Mayfield Medical Centre", "amenity": "parking" }, "geometry": { "type": "Point", "coordinates": [ -1.8151673, 53.7797758 ] } },
	{ "type": "Feature", "properties": { "osm_id": "864681365", "name": "School Car Park", "amenity": "parking" }, "geometry": { "type": "Point", "coordinates": [ -1.8113057, 53.7766218 ] } },
	{ "type": "Feature", "properties": { "osm_id": "864692087", "name": "Hare And Hounds Car Park", "amenity": "parking" }, "geometry": { "type": "Point", "coordinates": [ -1.8095462, 53.7728303 ] } },
	{ "type": "Feature", "properties": { "osm_id": "864695131", "amenity": "parking" }, "geometry": { "type": "Point", "coordinates": [ -1.8076257, 53.7738701 ] } },
	{ "type": "Feature", "properties": { "osm_id": "874276574", "name": "The Nags Head", "amenity": "parking" }, "geometry": { "type": "Point", "coordinates": [ -1.819365, 53.772462 ] } },
	{ "type": "Feature", "properties": { "osm_id": "876405847", "amenity": "parking" }, "geometry": { "type": "Point", "coordinates": [ -1.8010282, 53.782883 ] } },
	{ "type": "Feature", "properties": { "osm_id": "892997554", "amenity": "parking" }, "geometry": { "type": "Point", "coordinates": [ -1.7872081, 53.7815055 ] } },
	{ "type": "Feature", "properties": { "osm_id": "917384980", "amenity": "parking", "other_tags": "\"access\"=>\"permissive\"" }, "geometry": { "type": "Point", "coordinates": [ -1.9307863, 53.9233976 ] } },
	{ "type": "Feature", "properties": { "osm_id": "920328503", "amenity": "parking", "other_tags": "\"fee\"=>\"no\",\"parking\"=>\"surface\",\"capacity\"=>\"12\",\"capacity:women\"=>\"no\",\"capacity:parent\"=>\"no\",\"capacity:disabled\"=>\"no\"" }, "geometry": { "type": "Point", "coordinates": [ -1.7171033, 53.8093012 ] } },
	{ "type": "Feature", "properties": { "osm_id": "920328603", "amenity": "parking", "other_tags": "\"fee\"=>\"no\",\"parking\"=>\"surface\",\"capacity\"=>\"12\",\"capacity:women\"=>\"no\",\"capacity:parent\"=>\"no\",\"capacity:disabled\"=>\"no\"" }, "geometry": { "type": "Point", "coordinates": [ -1.7167993, 53.8089934 ] } },
	{ "type": "Feature", "properties": { "osm_id": "1054417538", "amenity": "parking" }, "geometry": { "type": "Point", "coordinates": [ -1.9034404, 53.9536297 ] } },
	{ "type": "Feature", "properties": { "osm_id": "1110794395", "amenity": "parking" }, "geometry": { "type": "Point", "coordinates": [ -1.7388708, 53.7794629 ] } },
	{ "type": "Feature", "properties": { "osm_id": "1122549995", "amenity": "parking", "other_tags": "\"capacity\"=>\"10\"" }, "geometry": { "type": "Point", "coordinates": [ -1.7104976, 53.7679843 ] } },
	{ "type": "Feature", "properties": { "osm_id": "1273056315", "amenity": "parking" }, "geometry": { "type": "Point", "coordinates": [ -1.9981086, 53.8255018 ] } },
	{ "type": "Feature", "properties": { "osm_id": "1273076829", "amenity": "parking" }, "geometry": { "type": "Point", "coordinates": [ -1.9924897, 53.8291296 ] } },
	{ "type": "Feature", "properties": { "osm_id": "1273492159", "amenity": "parking", "other_tags": "\"description\"=>\"Layby\"" }, "geometry": { "type": "Point", "coordinates": [ -1.9776931, 53.7989342 ] } },
	{ "type": "Feature", "properties": { "osm_id": "1277053685", "amenity": "parking", "other_tags": "\"parking\"=>\"surface\"" }, "geometry": { "type": "Point", "coordinates": [ -1.9529015, 53.8142683 ] } },
	{ "type": "Feature", "properties": { "osm_id": "1277058446", "amenity": "parking", "other_tags": "\"access\"=>\"customers\",\"parking\"=>\"surface\"" }, "geometry": { "type": "Point", "coordinates": [ -1.9283463, 53.8045578 ] } },
	{ "type": "Feature", "properties": { "osm_id": "1291420259", "amenity": "parking", "other_tags": "\"fee\"=>\"no\",\"parking\"=>\"surface\"" }, "geometry": { "type": "Point", "coordinates": [ -1.9468314, 53.834654 ] } },
	{ "type": "Feature", "properties": { "osm_id": "1298783016", "amenity": "parking", "other_tags": "\"parking\"=>\"surface\"" }, "geometry": { "type": "Point", "coordinates": [ -1.8643883, 53.8460058 ] } },
	{ "type": "Feature", "properties": { "osm_id": "1349165519", "amenity": "parking" }, "geometry": { "type": "Point", "coordinates": [ -1.9740558, 53.822875 ] } },
	{ "type": "Feature", "properties": { "osm_id": "1379322922", "amenity": "parking", "other_tags": "\"parking\"=>\"layby\"" }, "geometry": { "type": "Point", "coordinates": [ -1.7597272, 53.9195667 ] } },
	{ "type": "Feature", "properties": { "osm_id": "1379363064", "amenity": "parking", "other_tags": "\"fee\"=>\"no\",\"parking\"=>\"layby\",\"park_ride\"=>\"no\",\"supervised\"=>\"no\"" }, "geometry": { "type": "Point", "coordinates": [ -1.8433072, 53.9275659 ] } },
	{ "type": "Feature", "properties": { "osm_id": "1379408520", "amenity": "parking", "other_tags": "\"parking\"=>\"layby\"" }, "geometry": { "type": "Point", "coordinates": [ -1.8653114, 53.9361132 ] } },
	{ "type": "Feature", "properties": { "osm_id": "1400442104", "amenity": "parking", "other_tags": "\"parking\"=>\"layby\"" }, "geometry": { "type": "Point", "coordinates": [ -1.8500343, 53.8614341 ] } },
	{ "type": "Feature", "properties": { "osm_id": "1539629115", "amenity": "parking" }, "geometry": { "type": "Point", "coordinates": [ -1.7207228, 53.8116668 ] } },
	{ "type": "Feature", "properties": { "osm_id": "1539629180", "amenity": "parking" }, "geometry": { "type": "Point", "coordinates": [ -1.7276751, 53.8050353 ] } },
	{ "type": "Feature", "properties": { "osm_id": "1574645784", "amenity": "parking" }, "geometry": { "type": "Point", "coordinates": [ -1.832278, 53.8471812 ] } },
	{ "type": "Feature", "properties": { "osm_id": "1574645809", "amenity": "parking" }, "geometry": { "type": "Point", "coordinates": [ -1.8337506, 53.8468695 ] } },
	{ "type": "Feature", "properties": { "osm_id": "1574645923", "amenity": "parking" }, "geometry": { "type": "Point", "coordinates": [ -1.8333831, 53.8472097 ] } },
	{ "type": "Feature", "properties": { "osm_id": "1574646020", "amenity": "parking" }, "geometry": { "type": "Point", "coordinates": [ -1.8341019, 53.8472571 ] } },
	{ "type": "Feature", "properties": { "osm_id": "1574646036", "amenity": "parking" }, "geometry": { "type": "Point", "coordinates": [ -1.8328359, 53.8472192 ] } },
	{ "type": "Feature", "properties": { "osm_id": "1639500679", "amenity": "parking" }, "geometry": { "type": "Point", "coordinates": [ -1.9676732, 53.8232646 ] } },
	{ "type": "Feature", "properties": { "osm_id": "1658023316", "amenity": "parking" }, "geometry": { "type": "Point", "coordinates": [ -1.9547069, 53.8107378 ] } },
	{ "type": "Feature", "properties": { "osm_id": "1658827071", "amenity": "parking" }, "geometry": { "type": "Point", "coordinates": [ -1.7854212, 53.832797 ] } },
	{ "type": "Feature", "properties": { "osm_id": "1667444379", "name": "Manorlands Hospice Car Park", "amenity": "parking" }, "geometry": { "type": "Point", "coordinates": [ -1.9489504, 53.8132105 ] } },
	{ "type": "Feature", "properties": { "osm_id": "1670941444", "amenity": "parking" }, "geometry": { "type": "Point", "coordinates": [ -1.9697646, 53.8014643 ] } },
	{ "type": "Feature", "properties": { "osm_id": "1781350088", "amenity": "parking" }, "geometry": { "type": "Point", "coordinates": [ -1.7762154, 53.8326645 ] } },
	{ "type": "Feature", "properties": { "osm_id": "1871602266", "amenity": "parking" }, "geometry": { "type": "Point", "coordinates": [ -1.9767594, 53.8250123 ] } },
	{ "type": "Feature", "properties": { "osm_id": "1871602285", "amenity": "parking" }, "geometry": { "type": "Point", "coordinates": [ -1.9740033, 53.8271849 ] } },
	{ "type": "Feature", "properties": { "osm_id": "1915080824", "amenity": "parking", "other_tags": "\"description\"=>\"Layby\"" }, "geometry": { "type": "Point", "coordinates": [ -1.9704073, 53.8507547 ] } },
	{ "type": "Feature", "properties": { "osm_id": "1915082774", "amenity": "parking", "other_tags": "\"description\"=>\"Patch of gravel by side of road\"" }, "geometry": { "type": "Point", "coordinates": [ -1.9981275, 53.8595158 ] } },
	{ "type": "Feature", "properties": { "osm_id": "1915082788", "amenity": "parking", "other_tags": "\"description\"=>\"Layby\"" }, "geometry": { "type": "Point", "coordinates": [ -2.0016946, 53.8694771 ] } },
	{ "type": "Feature", "properties": { "osm_id": "2280546488", "amenity": "parking", "other_tags": "\"parking\"=>\"surface\"" }, "geometry": { "type": "Point", "coordinates": [ -1.8009317, 53.8467688 ] } },
	{ "type": "Feature", "properties": { "osm_id": "2280546491", "amenity": "parking", "other_tags": "\"parking\"=>\"surface\"" }, "geometry": { "type": "Point", "coordinates": [ -1.8002933, 53.8465661 ] } },
	{ "type": "Feature", "properties": { "osm_id": "2280546494", "amenity": "parking" }, "geometry": { "type": "Point", "coordinates": [ -1.799022, 53.8461785 ] } },
	{ "type": "Feature", "properties": { "osm_id": "2311682067", "amenity": "parking" }, "geometry": { "type": "Point", "coordinates": [ -1.8019737, 53.8470968 ] } },
	{ "type": "Feature", "properties": { "osm_id": "2645669463", "amenity": "parking" }, "geometry": { "type": "Point", "coordinates": [ -2.0334668, 53.8374223 ] } },
	{ "type": "Feature", "properties": { "osm_id": "3812756758", "amenity": "parking", "other_tags": "\"fee\"=>\"no\",\"access\"=>\"yes\",\"parking\"=>\"surface\",\"surface\"=>\"asphalt\",\"capacity\"=>\"10\",\"smoothness\"=>\"intermediate\",\"supervised\"=>\"no\"" }, "geometry": { "type": "Point", "coordinates": [ -1.9810993, 53.7938921 ] } },
	{ "type": "Feature", "properties": { "osm_id": "4469261674", "amenity": "parking", "other_tags": "\"access\"=>\"customers\"" }, "geometry": { "type": "Point", "coordinates": [ -1.7930208, 53.8397068 ] } }
]
}
