{
"type": "FeatureCollection",
"crs": { "type": "name", "properties": { "name": "urn:ogc:def:crs:OGC:1.3:CRS84" } },
"features": [
	{ "type": "Feature", "properties": { "osm_id": "388483802", "amenity": "bench" }, "geometry": { "type": "Point", "coordinates": [ -1.5382701, 53.7781225 ] } },
	{ "type": "Feature", "properties": { "osm_id": "388505835", "amenity": "bench" }, "geometry": { "type": "Point", "coordinates": [ -1.536886, 53.7753251 ] } },
	{ "type": "Feature", "properties": { "osm_id": "388505836", "amenity": "bench" }, "geometry": { "type": "Point", "coordinates": [ -1.5372832, 53.7752082 ] } },
	{ "type": "Feature", "properties": { "osm_id": "389498909", "amenity": "bench" }, "geometry": { "type": "Point", "coordinates": [ -1.5525422, 53.78666 ] } },
	{ "type": "Feature", "properties": { "osm_id": "389996293", "amenity": "bench", "other_tags": "\"backrest\"=>\"yes\"" }, "geometry": { "type": "Point", "coordinates": [ -1.5428588, 53.7810041 ] } },
	{ "type": "Feature", "properties": { "osm_id": "389996294", "amenity": "bench", "other_tags": "\"backrest\"=>\"yes\"" }, "geometry": { "type": "Point", "coordinates": [ -1.5423795, 53.7808834 ] } },
	{ "type": "Feature", "properties": { "osm_id": "389996295", "amenity": "bench", "other_tags": "\"backrest\"=>\"yes\"" }, "geometry": { "type": "Point", "coordinates": [ -1.5420795, 53.7808081 ] } },
	{ "type": "Feature", "properties": { "osm_id": "389996296", "amenity": "bench", "other_tags": "\"backrest\"=>\"yes\"" }, "geometry": { "type": "Point", "coordinates": [ -1.5418855, 53.7807615 ] } },
	{ "type": "Feature", "properties": { "osm_id": "389996298", "amenity": "bench", "other_tags": "\"backrest\"=>\"yes\"" }, "geometry": { "type": "Point", "coordinates": [ -1.5394411, 53.7786705 ] } },
	{ "type": "Feature", "properties": { "osm_id": "390232641", "amenity": "bench", "other_tags": "\"backrest\"=>\"yes\"" }, "geometry": { "type": "Point", "coordinates": [ -1.5398955, 53.778914 ] } },
	{ "type": "Feature", "properties": { "osm_id": "390942290", "amenity": "bench", "other_tags": "\"backrest\"=>\"yes\"" }, "geometry": { "type": "Point", "coordinates": [ -1.5504117, 53.773818 ] } },
	{ "type": "Feature", "properties": { "osm_id": "390942291", "amenity": "bench", "other_tags": "\"backrest\"=>\"yes\"" }, "geometry": { "type": "Point", "coordinates": [ -1.5501523, 53.7737201 ] } },
	{ "type": "Feature", "properties": { "osm_id": "390942292", "amenity": "bench", "other_tags": "\"backrest\"=>\"yes\"" }, "geometry": { "type": "Point", "coordinates": [ -1.5500382, 53.7735912 ] } },
	{ "type": "Feature", "properties": { "osm_id": "390942293", "amenity": "bench", "other_tags": "\"backrest\"=>\"yes\"" }, "geometry": { "type": "Point", "coordinates": [ -1.549893, 53.7734631 ] } },
	{ "type": "Feature", "properties": { "osm_id": "390942294", "amenity": "bench", "other_tags": "\"backrest\"=>\"yes\"" }, "geometry": { "type": "Point", "coordinates": [ -1.5498611, 53.7736565 ] } },
	{ "type": "Feature", "properties": { "osm_id": "392071026", "amenity": "bench" }, "geometry": { "type": "Point", "coordinates": [ -1.5523934, 53.7704623 ] } },
	{ "type": "Feature", "properties": { "osm_id": "392071027", "amenity": "bench" }, "geometry": { "type": "Point", "coordinates": [ -1.5527724, 53.7709534 ] } },
	{ "type": "Feature", "properties": { "osm_id": "392071030", "amenity": "bench" }, "geometry": { "type": "Point", "coordinates": [ -1.5555851, 53.7733624 ] } },
	{ "type": "Feature", "properties": { "osm_id": "392071032", "amenity": "bench", "other_tags": "\"backrest\"=>\"no\"" }, "geometry": { "type": "Point", "coordinates": [ -1.5547638, 53.7737634 ] } },
	{ "type": "Feature", "properties": { "osm_id": "392071034", "amenity": "bench", "other_tags": "\"backrest\"=>\"no\"" }, "geometry": { "type": "Point", "coordinates": [ -1.5550733, 53.7737243 ] } },
	{ "type": "Feature", "properties": { "osm_id": "392071035", "amenity": "bench", "other_tags": "\"backrest\"=>\"no\"" }, "geometry": { "type": "Point", "coordinates": [ -1.5553248, 53.7736747 ] } },
	{ "type": "Feature", "properties": { "osm_id": "392071037", "amenity": "bench", "other_tags": "\"backrest\"=>\"no\"" }, "geometry": { "type": "Point", "coordinates": [ -1.5555589, 53.773644 ] } },
	{ "type": "Feature", "properties": { "osm_id": "392071041", "amenity": "bench" }, "geometry": { "type": "Point", "coordinates": [ -1.5543399, 53.7724678 ] } },
	{ "type": "Feature", "properties": { "osm_id": "392071042", "amenity": "bench" }, "geometry": { "type": "Point", "coordinates": [ -1.5561587, 53.7736597 ] } },
	{ "type": "Feature", "properties": { "osm_id": "392071043", "amenity": "bench" }, "geometry": { "type": "Point", "coordinates": [ -1.5564054, 53.7738311 ] } },
	{ "type": "Feature", "properties": { "osm_id": "392071045", "amenity": "bench" }, "geometry": { "type": "Point", "coordinates": [ -1.5567154, 53.7740461 ] } },
	{ "type": "Feature", "properties": { "osm_id": "392071052", "amenity": "bench" }, "geometry": { "type": "Point", "coordinates": [ -1.5568906, 53.7752107 ] } },
	{ "type": "Feature", "properties": { "osm_id": "392071053", "amenity": "bench", "other_tags": "\"leisure\"=>\"picnic_table\"" }, "geometry": { "type": "Point", "coordinates": [ -1.5575933, 53.7753289 ] } },
	{ "type": "Feature", "properties": { "osm_id": "392071080", "amenity": "bench", "other_tags": "\"backrest\"=>\"yes\"" }, "geometry": { "type": "Point", "coordinates": [ -1.5588628, 53.7767768 ] } },
	{ "type": "Feature", "properties": { "osm_id": "392071082", "amenity": "bench", "other_tags": "\"backrest\"=>\"yes\"" }, "geometry": { "type": "Point", "coordinates": [ -1.5582249, 53.776944 ] } },
	{ "type": "Feature", "properties": { "osm_id": "392100150", "amenity": "bench", "other_tags": "\"backrest\"=>\"yes\"" }, "geometry": { "type": "Point", "coordinates": [ -1.5560498, 53.7718649 ] } },
	{ "type": "Feature", "properties": { "osm_id": "405435125", "amenity": "bench", "other_tags": "\"backrest\"=>\"yes\"" }, "geometry": { "type": "Point", "coordinates": [ -1.5534018, 53.778513 ] } },
	{ "type": "Feature", "properties": { "osm_id": "405435127", "amenity": "bench", "other_tags": "\"backrest\"=>\"yes\"" }, "geometry": { "type": "Point", "coordinates": [ -1.5540796, 53.778071 ] } },
	{ "type": "Feature", "properties": { "osm_id": "433857916", "amenity": "bench", "other_tags": "\"backrest\"=>\"yes\"" }, "geometry": { "type": "Point", "coordinates": [ -1.5555892, 53.7842483 ] } },
	{ "type": "Feature", "properties": { "osm_id": "433857919", "amenity": "bench", "other_tags": "\"backrest\"=>\"yes\"" }, "geometry": { "type": "Point", "coordinates": [ -1.5589923, 53.7842928 ] } },
	{ "type": "Feature", "properties": { "osm_id": "433857921", "amenity": "bench", "other_tags": "\"backrest\"=>\"yes\"" }, "geometry": { "type": "Point", "coordinates": [ -1.5588254, 53.7844811 ] } },
	{ "type": "Feature", "properties": { "osm_id": "433857923", "amenity": "bench", "other_tags": "\"backrest\"=>\"yes\"" }, "geometry": { "type": "Point", "coordinates": [ -1.5585286, 53.7846708 ] } },
	{ "type": "Feature", "properties": { "osm_id": "435174966", "amenity": "bench", "other_tags": "\"backrest\"=>\"yes\"" }, "geometry": { "type": "Point", "coordinates": [ -1.5663701, 53.7862342 ] } },
	{ "type": "Feature", "properties": { "osm_id": "519907206", "amenity": "bench" }, "geometry": { "type": "Point", "coordinates": [ -1.5482939, 53.7798442 ] } },
	{ "type": "Feature", "properties": { "osm_id": "519907209", "amenity": "bench" }, "geometry": { "type": "Point", "coordinates": [ -1.5483087, 53.7798397 ] } },
	{ "type": "Feature", "properties": { "osm_id": "522949219", "amenity": "bench", "other_tags": "\"backrest\"=>\"no\"" }, "geometry": { "type": "Point", "coordinates": [ -1.5632756, 53.7807614 ] } },
	{ "type": "Feature", "properties": { "osm_id": "522949220", "amenity": "bench", "other_tags": "\"backrest\"=>\"no\"" }, "geometry": { "type": "Point", "coordinates": [ -1.5631593, 53.7807079 ] } },
	{ "type": "Feature", "properties": { "osm_id": "522949236", "amenity": "bench", "other_tags": "\"backrest\"=>\"yes\"" }, "geometry": { "type": "Point", "coordinates": [ -1.5588859, 53.7845818 ] } },
	{ "type": "Feature", "properties": { "osm_id": "522977036", "amenity": "bench" }, "geometry": { "type": "Point", "coordinates": [ -1.5553044, 53.7791241 ] } },
	{ "type": "Feature", "properties": { "osm_id": "539498821", "amenity": "bench" }, "geometry": { "type": "Point", "coordinates": [ -1.6906203, 53.9110939 ] } },
	{ "type": "Feature", "properties": { "osm_id": "539499641", "amenity": "bench" }, "geometry": { "type": "Point", "coordinates": [ -1.6902513, 53.9116096 ] } },
	{ "type": "Feature", "properties": { "osm_id": "539499876", "amenity": "bench" }, "geometry": { "type": "Point", "coordinates": [ -1.6903028, 53.9117309 ] } },
	{ "type": "Feature", "properties": { "osm_id": "539499879", "amenity": "bench" }, "geometry": { "type": "Point", "coordinates": [ -1.6899508, 53.9117865 ] } },
	{ "type": "Feature", "properties": { "osm_id": "886838294", "amenity": "bench" }, "geometry": { "type": "Point", "coordinates": [ -1.5073401, 53.8288679 ] } },
	{ "type": "Feature", "properties": { "osm_id": "921219462", "amenity": "bench", "other_tags": "\"backrest\"=>\"yes\"" }, "geometry": { "type": "Point", "coordinates": [ -1.5285129, 53.7815182 ] } },
	{ "type": "Feature", "properties": { "osm_id": "988159042", "amenity": "bench", "other_tags": "\"backrest\"=>\"no\"" }, "geometry": { "type": "Point", "coordinates": [ -1.4987703, 53.8407052 ] } },
	{ "type": "Feature", "properties": { "osm_id": "988159045", "amenity": "bench" }, "geometry": { "type": "Point", "coordinates": [ -1.4961954, 53.8409293 ] } },
	{ "type": "Feature", "properties": { "osm_id": "988159046", "amenity": "bench", "other_tags": "\"backrest\"=>\"no\"" }, "geometry": { "type": "Point", "coordinates": [ -1.4980692, 53.8404638 ] } },
	{ "type": "Feature", "properties": { "osm_id": "988159059", "amenity": "bench", "other_tags": "\"backrest\"=>\"no\"" }, "geometry": { "type": "Point", "coordinates": [ -1.4983096, 53.8414498 ] } },
	{ "type": "Feature", "properties": { "osm_id": "988159060", "amenity": "bench" }, "geometry": { "type": "Point", "coordinates": [ -1.5042888, 53.8376673 ] } },
	{ "type": "Feature", "properties": { "osm_id": "988159067", "amenity": "bench" }, "geometry": { "type": "Point", "coordinates": [ -1.5041558, 53.8378096 ] } },
	{ "type": "Feature", "properties": { "osm_id": "988159070", "amenity": "bench", "other_tags": "\"backrest\"=>\"no\"" }, "geometry": { "type": "Point", "coordinates": [ -1.497395, 53.8400628 ] } },
	{ "type": "Feature", "properties": { "osm_id": "988159077", "amenity": "bench" }, "geometry": { "type": "Point", "coordinates": [ -1.502332, 53.8384764 ] } },
	{ "type": "Feature", "properties": { "osm_id": "988159099", "amenity": "bench" }, "geometry": { "type": "Point", "coordinates": [ -1.4965013, 53.8412483 ] } },
	{ "type": "Feature", "properties": { "osm_id": "988159136", "amenity": "bench", "other_tags": "\"backrest\"=>\"no\"" }, "geometry": { "type": "Point", "coordinates": [ -1.4973398, 53.8412859 ] } },
	{ "type": "Feature", "properties": { "osm_id": "988159151", "amenity": "bench", "other_tags": "\"backrest\"=>\"no\"" }, "geometry": { "type": "Point", "coordinates": [ -1.4961414, 53.8402626 ] } },
	{ "type": "Feature", "properties": { "osm_id": "988159177", "amenity": "bench" }, "geometry": { "type": "Point", "coordinates": [ -1.4992752, 53.8391065 ] } },
	{ "type": "Feature", "properties": { "osm_id": "988159181", "amenity": "bench" }, "geometry": { "type": "Point", "coordinates": [ -1.5033385, 53.8383588 ] } },
	{ "type": "Feature", "properties": { "osm_id": "988159203", "amenity": "bench", "other_tags": "\"backrest\"=>\"no\"" }, "geometry": { "type": "Point", "coordinates": [ -1.4962837, 53.8397811 ] } },
	{ "type": "Feature", "properties": { "osm_id": "988159207", "amenity": "bench" }, "geometry": { "type": "Point", "coordinates": [ -1.5039881, 53.8379238 ] } },
	{ "type": "Feature", "properties": { "osm_id": "988159222", "amenity": "bench" }, "geometry": { "type": "Point", "coordinates": [ -1.5033582, 53.8382596 ] } },
	{ "type": "Feature", "properties": { "osm_id": "988714569", "amenity": "bench", "other_tags": "\"backrest\"=>\"yes\"" }, "geometry": { "type": "Point", "coordinates": [ -1.4975082, 53.839552 ] } },
	{ "type": "Feature", "properties": { "osm_id": "988714573", "amenity": "bench" }, "geometry": { "type": "Point", "coordinates": [ -1.4980064, 53.8397261 ] } },
	{ "type": "Feature", "properties": { "osm_id": "988923246", "amenity": "bench", "other_tags": "\"backrest\"=>\"yes\"" }, "geometry": { "type": "Point", "coordinates": [ -1.5059173, 53.8399786 ] } },
	{ "type": "Feature", "properties": { "osm_id": "1506537412", "amenity": "bench" }, "geometry": { "type": "Point", "coordinates": [ -1.3542544, 53.8773845 ] } },
	{ "type": "Feature", "properties": { "osm_id": "1624704393", "amenity": "bench", "other_tags": "\"seats\"=>\"3\",\"colour\"=>\"green\",\"backrest\"=>\"yes\",\"material\"=>\"wood\"" }, "geometry": { "type": "Point", "coordinates": [ -1.5350881, 53.8465911 ] } },
	{ "type": "Feature", "properties": { "osm_id": "1626522733", "amenity": "bench", "other_tags": "\"seats\"=>\"3\",\"colour\"=>\"brown\",\"backrest\"=>\"yes\",\"material\"=>\"stone\"" }, "geometry": { "type": "Point", "coordinates": [ -1.5083922, 53.8439979 ] } },
	{ "type": "Feature", "properties": { "osm_id": "1702684937", "amenity": "bench" }, "geometry": { "type": "Point", "coordinates": [ -1.5679984, 53.8202069 ] } },
	{ "type": "Feature", "properties": { "osm_id": "1866522619", "amenity": "bench" }, "geometry": { "type": "Point", "coordinates": [ -1.4499611, 53.9022439 ] } },
	{ "type": "Feature", "properties": { "osm_id": "1866522631", "amenity": "bench" }, "geometry": { "type": "Point", "coordinates": [ -1.449945, 53.9022764 ] } },
	{ "type": "Feature", "properties": { "osm_id": "1929209364", "amenity": "bench", "other_tags": "\"backrest\"=>\"yes\"" }, "geometry": { "type": "Point", "coordinates": [ -1.5895392, 53.7881047 ] } },
	{ "type": "Feature", "properties": { "osm_id": "2019666383", "amenity": "bench", "other_tags": "\"backrest\"=>\"yes\"" }, "geometry": { "type": "Point", "coordinates": [ -1.6608414, 53.7513086 ] } },
	{ "type": "Feature", "properties": { "osm_id": "2019666394", "amenity": "bench", "other_tags": "\"backrest\"=>\"yes\"" }, "geometry": { "type": "Point", "coordinates": [ -1.6611177, 53.7516652 ] } },
	{ "type": "Feature", "properties": { "osm_id": "2030523177", "amenity": "bench" }, "geometry": { "type": "Point", "coordinates": [ -1.533687, 53.7984541 ] } },
	{ "type": "Feature", "properties": { "osm_id": "2030523185", "amenity": "bench" }, "geometry": { "type": "Point", "coordinates": [ -1.5337658, 53.7984594 ] } },
	{ "type": "Feature", "properties": { "osm_id": "2030523187", "amenity": "bench" }, "geometry": { "type": "Point", "coordinates": [ -1.534106, 53.7984869 ] } },
	{ "type": "Feature", "properties": { "osm_id": "2030523190", "amenity": "bench" }, "geometry": { "type": "Point", "coordinates": [ -1.5341848, 53.7984911 ] } },
	{ "type": "Feature", "properties": { "osm_id": "2030523193", "amenity": "bench" }, "geometry": { "type": "Point", "coordinates": [ -1.5342618, 53.7984974 ] } },
	{ "type": "Feature", "properties": { "osm_id": "2046167977", "amenity": "bench", "other_tags": "\"backrest\"=>\"yes\"" }, "geometry": { "type": "Point", "coordinates": [ -1.6617795, 53.7569043 ] } },
	{ "type": "Feature", "properties": { "osm_id": "2046167979", "amenity": "bench", "other_tags": "\"backrest\"=>\"yes\"" }, "geometry": { "type": "Point", "coordinates": [ -1.6617409, 53.7569163 ] } },
	{ "type": "Feature", "properties": { "osm_id": "2065424212", "amenity": "bench", "other_tags": "\"backrest\"=>\"yes\"" }, "geometry": { "type": "Point", "coordinates": [ -1.6349903, 53.7599834 ] } },
	{ "type": "Feature", "properties": { "osm_id": "2066265704", "amenity": "bench", "other_tags": "\"backrest\"=>\"yes\"" }, "geometry": { "type": "Point", "coordinates": [ -1.6338338, 53.7510903 ] } },
	{ "type": "Feature", "properties": { "osm_id": "2068675237", "amenity": "bench", "other_tags": "\"backrest\"=>\"yes\"" }, "geometry": { "type": "Point", "coordinates": [ -1.6202012, 53.7567361 ] } },
	{ "type": "Feature", "properties": { "osm_id": "2068675283", "amenity": "bench", "other_tags": "\"backrest\"=>\"yes\"" }, "geometry": { "type": "Point", "coordinates": [ -1.6239714, 53.7576073 ] } },
	{ "type": "Feature", "properties": { "osm_id": "2085088778", "amenity": "bench", "other_tags": "\"backrest\"=>\"yes\"" }, "geometry": { "type": "Point", "coordinates": [ -1.4901022, 53.7407067 ] } },
	{ "type": "Feature", "properties": { "osm_id": "2085088798", "amenity": "bench" }, "geometry": { "type": "Point", "coordinates": [ -1.4901804, 53.7409231 ] } },
	{ "type": "Feature", "properties": { "osm_id": "2121087119", "amenity": "bench" }, "geometry": { "type": "Point", "coordinates": [ -1.5212522, 53.8289997 ] } },
	{ "type": "Feature", "properties": { "osm_id": "2181404701", "amenity": "bench" }, "geometry": { "type": "Point", "coordinates": [ -1.4072855, 53.787179 ] } },
	{ "type": "Feature", "properties": { "osm_id": "2184259324", "amenity": "bench", "other_tags": "\"backrest\"=>\"yes\"" }, "geometry": { "type": "Point", "coordinates": [ -1.6056679, 53.7555008 ] } },
	{ "type": "Feature", "properties": { "osm_id": "2345884407", "amenity": "bench", "other_tags": "\"backrest\"=>\"yes\"" }, "geometry": { "type": "Point", "coordinates": [ -1.5679208, 53.8211747 ] } },
	{ "type": "Feature", "properties": { "osm_id": "2345884412", "amenity": "bench", "other_tags": "\"backrest\"=>\"yes\"" }, "geometry": { "type": "Point", "coordinates": [ -1.5678848, 53.8211683 ] } },
	{ "type": "Feature", "properties": { "osm_id": "2351313822", "amenity": "bench" }, "geometry": { "type": "Point", "coordinates": [ -1.6920127, 53.9049718 ] } },
	{ "type": "Feature", "properties": { "osm_id": "2351355907", "amenity": "bench" }, "geometry": { "type": "Point", "coordinates": [ -1.7202348, 53.8977249 ] } },
	{ "type": "Feature", "properties": { "osm_id": "2351456711", "amenity": "bench" }, "geometry": { "type": "Point", "coordinates": [ -1.7187544, 53.8847093 ] } },
	{ "type": "Feature", "properties": { "osm_id": "2351604878", "amenity": "bench" }, "geometry": { "type": "Point", "coordinates": [ -1.7130574, 53.8862902 ] } },
	{ "type": "Feature", "properties": { "osm_id": "2353417489", "amenity": "bench" }, "geometry": { "type": "Point", "coordinates": [ -1.6906904, 53.9058788 ] } },
	{ "type": "Feature", "properties": { "osm_id": "2353417490", "amenity": "bench" }, "geometry": { "type": "Point", "coordinates": [ -1.6906528, 53.9058819 ] } },
	{ "type": "Feature", "properties": { "osm_id": "2353440299", "amenity": "bench" }, "geometry": { "type": "Point", "coordinates": [ -1.6924982, 53.9055913 ] } },
	{ "type": "Feature", "properties": { "osm_id": "2353485529", "amenity": "bench" }, "geometry": { "type": "Point", "coordinates": [ -1.6935657, 53.9055408 ] } },
	{ "type": "Feature", "properties": { "osm_id": "2353485537", "amenity": "bench" }, "geometry": { "type": "Point", "coordinates": [ -1.693563, 53.9056025 ] } },
	{ "type": "Feature", "properties": { "osm_id": "2353488094", "amenity": "bench" }, "geometry": { "type": "Point", "coordinates": [ -1.6933963, 53.9052296 ] } },
	{ "type": "Feature", "properties": { "osm_id": "2353491457", "amenity": "bench" }, "geometry": { "type": "Point", "coordinates": [ -1.6936245, 53.9057778 ] } },
	{ "type": "Feature", "properties": { "osm_id": "2353501510", "amenity": "bench" }, "geometry": { "type": "Point", "coordinates": [ -1.6936274, 53.9049467 ] } },
	{ "type": "Feature", "properties": { "osm_id": "2353501516", "amenity": "bench" }, "geometry": { "type": "Point", "coordinates": [ -1.693555, 53.9051062 ] } },
	{ "type": "Feature", "properties": { "osm_id": "2353573424", "amenity": "bench" }, "geometry": { "type": "Point", "coordinates": [ -1.6941209, 53.9040176 ] } },
	{ "type": "Feature", "properties": { "osm_id": "2430329043", "amenity": "bench" }, "geometry": { "type": "Point", "coordinates": [ -1.6387036, 53.8325283 ] } },
	{ "type": "Feature", "properties": { "osm_id": "2430329050", "amenity": "bench" }, "geometry": { "type": "Point", "coordinates": [ -1.6386661, 53.8325631 ] } },
	{ "type": "Feature", "properties": { "osm_id": "2430329058", "amenity": "bench" }, "geometry": { "type": "Point", "coordinates": [ -1.6386098, 53.8325457 ] } },
	{ "type": "Feature", "properties": { "osm_id": "2430337632", "amenity": "bench" }, "geometry": { "type": "Point", "coordinates": [ -1.6336396, 53.8462102 ] } },
	{ "type": "Feature", "properties": { "osm_id": "2430337633", "amenity": "bench" }, "geometry": { "type": "Point", "coordinates": [ -1.6342995, 53.8465124 ] } },
	{ "type": "Feature", "properties": { "osm_id": "2430337634", "amenity": "bench" }, "geometry": { "type": "Point", "coordinates": [ -1.6336074, 53.8462529 ] } },
	{ "type": "Feature", "properties": { "osm_id": "2430346519", "amenity": "bench" }, "geometry": { "type": "Point", "coordinates": [ -1.6304022, 53.8385903 ] } },
	{ "type": "Feature", "properties": { "osm_id": "2594995718", "amenity": "bench", "other_tags": "\"backrest\"=>\"yes\"" }, "geometry": { "type": "Point", "coordinates": [ -1.5668428, 53.8281267 ] } },
	{ "type": "Feature", "properties": { "osm_id": "2594995721", "amenity": "bench", "other_tags": "\"backrest\"=>\"yes\"" }, "geometry": { "type": "Point", "coordinates": [ -1.5668186, 53.828158 ] } },
	{ "type": "Feature", "properties": { "osm_id": "2594995728", "amenity": "bench", "other_tags": "\"backrest\"=>\"yes\"" }, "geometry": { "type": "Point", "coordinates": [ -1.5669192, 53.8281881 ] } },
	{ "type": "Feature", "properties": { "osm_id": "2594995732", "amenity": "bench", "other_tags": "\"backrest\"=>\"no\"" }, "geometry": { "type": "Point", "coordinates": [ -1.5669715, 53.8282569 ] } },
	{ "type": "Feature", "properties": { "osm_id": "2594995791", "amenity": "bench", "other_tags": "\"backrest\"=>\"no\"" }, "geometry": { "type": "Point", "coordinates": [ -1.5670258, 53.8282943 ] } },
	{ "type": "Feature", "properties": { "osm_id": "2594995794", "amenity": "bench", "other_tags": "\"backrest\"=>\"no\"" }, "geometry": { "type": "Point", "coordinates": [ -1.5669997, 53.828307 ] } },
	{ "type": "Feature", "properties": { "osm_id": "2594995796", "amenity": "bench", "other_tags": "\"backrest\"=>\"no\"" }, "geometry": { "type": "Point", "coordinates": [ -1.5669749, 53.8283196 ] } },
	{ "type": "Feature", "properties": { "osm_id": "2594995799", "amenity": "bench", "other_tags": "\"backrest\"=>\"no\"" }, "geometry": { "type": "Point", "coordinates": [ -1.567052, 53.8283137 ] } },
	{ "type": "Feature", "properties": { "osm_id": "2594995802", "amenity": "bench", "other_tags": "\"backrest\"=>\"no\"" }, "geometry": { "type": "Point", "coordinates": [ -1.5670842, 53.8283355 ] } },
	{ "type": "Feature", "properties": { "osm_id": "2801129851", "amenity": "bench", "other_tags": "\"backrest\"=>\"no\"" }, "geometry": { "type": "Point", "coordinates": [ -1.5676898, 53.8407372 ] } },
	{ "type": "Feature", "properties": { "osm_id": "2801129852", "amenity": "bench" }, "geometry": { "type": "Point", "coordinates": [ -1.5662084, 53.8407865 ] } },
	{ "type": "Feature", "properties": { "osm_id": "2801129853", "amenity": "bench" }, "geometry": { "type": "Point", "coordinates": [ -1.5631009, 53.8410395 ] } },
	{ "type": "Feature", "properties": { "osm_id": "2801129860", "amenity": "bench" }, "geometry": { "type": "Point", "coordinates": [ -1.5637525, 53.8354252 ] } },
	{ "type": "Feature", "properties": { "osm_id": "2801129861", "amenity": "bench" }, "geometry": { "type": "Point", "coordinates": [ -1.5735372, 53.8334862 ] } },
	{ "type": "Feature", "properties": { "osm_id": "2801129862", "amenity": "bench" }, "geometry": { "type": "Point", "coordinates": [ -1.573515, 53.8330162 ] } },
	{ "type": "Feature", "properties": { "osm_id": "2801129863", "amenity": "bench" }, "geometry": { "type": "Point", "coordinates": [ -1.5735651, 53.8325035 ] } },
	{ "type": "Feature", "properties": { "osm_id": "2801129864", "amenity": "bench", "other_tags": "\"backrest\"=>\"yes\"" }, "geometry": { "type": "Point", "coordinates": [ -1.5669864, 53.8291279 ] } },
	{ "type": "Feature", "properties": { "osm_id": "2801129865", "amenity": "bench", "other_tags": "\"backrest\"=>\"yes\"" }, "geometry": { "type": "Point", "coordinates": [ -1.5669724, 53.8291235 ] } },
	{ "type": "Feature", "properties": { "osm_id": "2801129866", "amenity": "bench", "other_tags": "\"backrest\"=>\"yes\"" }, "geometry": { "type": "Point", "coordinates": [ -1.5670185, 53.8291032 ] } },
	{ "type": "Feature", "properties": { "osm_id": "2801129867", "amenity": "bench", "other_tags": "\"backrest\"=>\"yes\"" }, "geometry": { "type": "Point", "coordinates": [ -1.5670035, 53.8290969 ] } },
	{ "type": "Feature", "properties": { "osm_id": "2881781620", "amenity": "bench" }, "geometry": { "type": "Point", "coordinates": [ -1.6401159, 53.7923462 ] } },
	{ "type": "Feature", "properties": { "osm_id": "2893930781", "amenity": "bench" }, "geometry": { "type": "Point", "coordinates": [ -1.6367161, 53.7952765 ] } },
	{ "type": "Feature", "properties": { "osm_id": "2939679152", "amenity": "bench" }, "geometry": { "type": "Point", "coordinates": [ -1.6036041, 53.8187019 ] } },
	{ "type": "Feature", "properties": { "osm_id": "2939679154", "amenity": "bench" }, "geometry": { "type": "Point", "coordinates": [ -1.6060519, 53.8197241 ] } },
	{ "type": "Feature", "properties": { "osm_id": "2939679155", "amenity": "bench" }, "geometry": { "type": "Point", "coordinates": [ -1.6067227, 53.8197381 ] } },
	{ "type": "Feature", "properties": { "osm_id": "2939679156", "amenity": "bench" }, "geometry": { "type": "Point", "coordinates": [ -1.6044706, 53.8197813 ] } },
	{ "type": "Feature", "properties": { "osm_id": "2939679157", "amenity": "bench" }, "geometry": { "type": "Point", "coordinates": [ -1.6053335, 53.8199222 ] } },
	{ "type": "Feature", "properties": { "osm_id": "2939679158", "amenity": "bench" }, "geometry": { "type": "Point", "coordinates": [ -1.6057417, 53.8200159 ] } },
	{ "type": "Feature", "properties": { "osm_id": "2939679159", "amenity": "bench" }, "geometry": { "type": "Point", "coordinates": [ -1.6059267, 53.8200188 ] } },
	{ "type": "Feature", "properties": { "osm_id": "2939679160", "amenity": "bench" }, "geometry": { "type": "Point", "coordinates": [ -1.6069735, 53.8202146 ] } },
	{ "type": "Feature", "properties": { "osm_id": "2939679161", "amenity": "bench" }, "geometry": { "type": "Point", "coordinates": [ -1.6055543, 53.8202788 ] } },
	{ "type": "Feature", "properties": { "osm_id": "2939679166", "amenity": "bench" }, "geometry": { "type": "Point", "coordinates": [ -1.6058133, 53.8207797 ] } },
	{ "type": "Feature", "properties": { "osm_id": "2939679167", "amenity": "bench" }, "geometry": { "type": "Point", "coordinates": [ -1.6082745, 53.8208107 ] } },
	{ "type": "Feature", "properties": { "osm_id": "2939679171", "amenity": "bench" }, "geometry": { "type": "Point", "coordinates": [ -1.6093952, 53.821039 ] } },
	{ "type": "Feature", "properties": { "osm_id": "2939679176", "amenity": "bench" }, "geometry": { "type": "Point", "coordinates": [ -1.6071155, 53.8213328 ] } },
	{ "type": "Feature", "properties": { "osm_id": "2939679182", "amenity": "bench" }, "geometry": { "type": "Point", "coordinates": [ -1.6096554, 53.8214547 ] } },
	{ "type": "Feature", "properties": { "osm_id": "2939679185", "amenity": "bench" }, "geometry": { "type": "Point", "coordinates": [ -1.6070594, 53.821485 ] } },
	{ "type": "Feature", "properties": { "osm_id": "2939679192", "amenity": "bench" }, "geometry": { "type": "Point", "coordinates": [ -1.6075297, 53.8215907 ] } },
	{ "type": "Feature", "properties": { "osm_id": "2939679196", "amenity": "bench" }, "geometry": { "type": "Point", "coordinates": [ -1.6065461, 53.8218078 ] } },
	{ "type": "Feature", "properties": { "osm_id": "2939679199", "amenity": "bench" }, "geometry": { "type": "Point", "coordinates": [ -1.6091601, 53.8218788 ] } },
	{ "type": "Feature", "properties": { "osm_id": "2939686202", "amenity": "bench" }, "geometry": { "type": "Point", "coordinates": [ -1.6071643, 53.8220643 ] } },
	{ "type": "Feature", "properties": { "osm_id": "2939686203", "amenity": "bench" }, "geometry": { "type": "Point", "coordinates": [ -1.6074377, 53.8224906 ] } },
	{ "type": "Feature", "properties": { "osm_id": "3010332814", "amenity": "bench" }, "geometry": { "type": "Point", "coordinates": [ -1.3745149, 53.7592538 ] } },
	{ "type": "Feature", "properties": { "osm_id": "3018840370", "amenity": "bench" }, "geometry": { "type": "Point", "coordinates": [ -1.5570788, 53.8073326 ] } },
	{ "type": "Feature", "properties": { "osm_id": "3025399731", "amenity": "bench" }, "geometry": { "type": "Point", "coordinates": [ -1.5631632, 53.8280812 ] } },
	{ "type": "Feature", "properties": { "osm_id": "3063961318", "amenity": "bench" }, "geometry": { "type": "Point", "coordinates": [ -1.6286236, 53.8214929 ] } },
	{ "type": "Feature", "properties": { "osm_id": "3063961644", "amenity": "bench" }, "geometry": { "type": "Point", "coordinates": [ -1.6274752, 53.8233497 ] } },
	{ "type": "Feature", "properties": { "osm_id": "3063961679", "amenity": "bench" }, "geometry": { "type": "Point", "coordinates": [ -1.6312909, 53.8253359 ] } },
	{ "type": "Feature", "properties": { "osm_id": "3063961682", "amenity": "bench" }, "geometry": { "type": "Point", "coordinates": [ -1.6322314, 53.8254306 ] } },
	{ "type": "Feature", "properties": { "osm_id": "3063961699", "amenity": "bench" }, "geometry": { "type": "Point", "coordinates": [ -1.6334073, 53.8260946 ] } },
	{ "type": "Feature", "properties": { "osm_id": "3222499761", "amenity": "bench", "other_tags": "\"backrest\"=>\"yes\",\"material\"=>\"metal\"" }, "geometry": { "type": "Point", "coordinates": [ -1.5622617, 53.8135939 ] } },
	{ "type": "Feature", "properties": { "osm_id": "3228320021", "amenity": "bench", "other_tags": "\"backrest\"=>\"no\"" }, "geometry": { "type": "Point", "coordinates": [ -1.5389201, 53.7989766 ] } },
	{ "type": "Feature", "properties": { "osm_id": "3228320022", "amenity": "bench", "other_tags": "\"backrest\"=>\"no\"" }, "geometry": { "type": "Point", "coordinates": [ -1.5389041, 53.7990432 ] } },
	{ "type": "Feature", "properties": { "osm_id": "3287879404", "amenity": "bench", "other_tags": "\"backrest\"=>\"yes\"" }, "geometry": { "type": "Point", "coordinates": [ -1.5581504, 53.7832708 ] } },
	{ "type": "Feature", "properties": { "osm_id": "3542769927", "amenity": "bench" }, "geometry": { "type": "Point", "coordinates": [ -1.638006, 53.7928272 ] } },
	{ "type": "Feature", "properties": { "osm_id": "3542769937", "amenity": "bench", "other_tags": "\"inscription\"=>\"WWI 100 Years Lest We Forget\"" }, "geometry": { "type": "Point", "coordinates": [ -1.6370381, 53.7948892 ] } },
	{ "type": "Feature", "properties": { "osm_id": "3557372486", "amenity": "bench" }, "geometry": { "type": "Point", "coordinates": [ -1.3467429, 53.9051694 ] } },
	{ "type": "Feature", "properties": { "osm_id": "3557372489", "amenity": "bench" }, "geometry": { "type": "Point", "coordinates": [ -1.3465686, 53.9051079 ] } },
	{ "type": "Feature", "properties": { "osm_id": "3557381798", "amenity": "bench" }, "geometry": { "type": "Point", "coordinates": [ -1.3466035, 53.9050573 ] } },
	{ "type": "Feature", "properties": { "osm_id": "3557381810", "amenity": "bench" }, "geometry": { "type": "Point", "coordinates": [ -1.3465123, 53.9050793 ] } },
	{ "type": "Feature", "properties": { "osm_id": "3558882671", "amenity": "bench" }, "geometry": { "type": "Point", "coordinates": [ -1.3867774, 53.9283249 ] } },
	{ "type": "Feature", "properties": { "osm_id": "3558882682", "amenity": "bench" }, "geometry": { "type": "Point", "coordinates": [ -1.3862356, 53.9284243 ] } },
	{ "type": "Feature", "properties": { "osm_id": "3558882690", "amenity": "bench" }, "geometry": { "type": "Point", "coordinates": [ -1.3862276, 53.9283801 ] } },
	{ "type": "Feature", "properties": { "osm_id": "3558882692", "amenity": "bench" }, "geometry": { "type": "Point", "coordinates": [ -1.3867882, 53.9283928 ] } },
	{ "type": "Feature", "properties": { "osm_id": "3559056777", "amenity": "bench" }, "geometry": { "type": "Point", "coordinates": [ -1.38733, 53.928647 ] } },
	{ "type": "Feature", "properties": { "osm_id": "3559056778", "amenity": "bench" }, "geometry": { "type": "Point", "coordinates": [ -1.3874426, 53.9287053 ] } },
	{ "type": "Feature", "properties": { "osm_id": "3559056789", "amenity": "bench" }, "geometry": { "type": "Point", "coordinates": [ -1.3875445, 53.928778 ] } },
	{ "type": "Feature", "properties": { "osm_id": "3620307919", "amenity": "bench" }, "geometry": { "type": "Point", "coordinates": [ -1.5576689, 53.8474161 ] } },
	{ "type": "Feature", "properties": { "osm_id": "3632290919", "amenity": "bench" }, "geometry": { "type": "Point", "coordinates": [ -1.6282287, 53.7581295 ] } },
	{ "type": "Feature", "properties": { "osm_id": "3632290922", "amenity": "bench" }, "geometry": { "type": "Point", "coordinates": [ -1.6293284, 53.758564 ] } },
	{ "type": "Feature", "properties": { "osm_id": "3634785843", "amenity": "bench" }, "geometry": { "type": "Point", "coordinates": [ -1.5878238, 53.7620426 ] } },
	{ "type": "Feature", "properties": { "osm_id": "3635703206", "amenity": "bench" }, "geometry": { "type": "Point", "coordinates": [ -1.4176787, 53.7683632 ] } },
	{ "type": "Feature", "properties": { "osm_id": "3715223359", "amenity": "bench" }, "geometry": { "type": "Point", "coordinates": [ -1.6835093, 53.8551889 ] } },
	{ "type": "Feature", "properties": { "osm_id": "3715223370", "amenity": "bench" }, "geometry": { "type": "Point", "coordinates": [ -1.6840967, 53.8547189 ] } },
	{ "type": "Feature", "properties": { "osm_id": "3716898242", "amenity": "bench", "other_tags": "\"backrest\"=>\"yes\"" }, "geometry": { "type": "Point", "coordinates": [ -1.6810893, 53.8661593 ] } },
	{ "type": "Feature", "properties": { "osm_id": "3736656495", "amenity": "bench" }, "geometry": { "type": "Point", "coordinates": [ -1.6349078, 53.8265546 ] } },
	{ "type": "Feature", "properties": { "osm_id": "3755662840", "amenity": "bench" }, "geometry": { "type": "Point", "coordinates": [ -1.6941933, 53.904283 ] } },
	{ "type": "Feature", "properties": { "osm_id": "3755662841", "amenity": "bench" }, "geometry": { "type": "Point", "coordinates": [ -1.6943038, 53.9042277 ] } },
	{ "type": "Feature", "properties": { "osm_id": "3755662843", "amenity": "bench" }, "geometry": { "type": "Point", "coordinates": [ -1.6941611, 53.9042213 ] } },
	{ "type": "Feature", "properties": { "osm_id": "3755662855", "amenity": "bench" }, "geometry": { "type": "Point", "coordinates": [ -1.6942148, 53.9043445 ] } },
	{ "type": "Feature", "properties": { "osm_id": "3772637865", "amenity": "bench" }, "geometry": { "type": "Point", "coordinates": [ -1.6224161, 53.8216394 ] } },
	{ "type": "Feature", "properties": { "osm_id": "3778839608", "amenity": "bench" }, "geometry": { "type": "Point", "coordinates": [ -1.667479, 53.7931777 ] } },
	{ "type": "Feature", "properties": { "osm_id": "3812729064", "amenity": "bench" }, "geometry": { "type": "Point", "coordinates": [ -1.6774752, 53.9100888 ] } },
	{ "type": "Feature", "properties": { "osm_id": "3822771469", "amenity": "bench" }, "geometry": { "type": "Point", "coordinates": [ -1.3295453, 53.7960479 ] } },
	{ "type": "Feature", "properties": { "osm_id": "3874017923", "amenity": "bench" }, "geometry": { "type": "Point", "coordinates": [ -1.6048773, 53.8163393 ] } },
	{ "type": "Feature", "properties": { "osm_id": "3887608952", "amenity": "bench", "other_tags": "\"backrest\"=>\"yes\"" }, "geometry": { "type": "Point", "coordinates": [ -1.5450614, 53.8033636 ] } },
	{ "type": "Feature", "properties": { "osm_id": "3887608953", "amenity": "bench", "other_tags": "\"backrest\"=>\"yes\"" }, "geometry": { "type": "Point", "coordinates": [ -1.5455097, 53.8036284 ] } },
	{ "type": "Feature", "properties": { "osm_id": "3887608954", "amenity": "bench", "other_tags": "\"backrest\"=>\"yes\"" }, "geometry": { "type": "Point", "coordinates": [ -1.545138, 53.8036353 ] } },
	{ "type": "Feature", "properties": { "osm_id": "3887608955", "amenity": "bench", "other_tags": "\"backrest\"=>\"yes\"" }, "geometry": { "type": "Point", "coordinates": [ -1.5451115, 53.8036221 ] } },
	{ "type": "Feature", "properties": { "osm_id": "3887608956", "amenity": "bench", "other_tags": "\"backrest\"=>\"yes\"" }, "geometry": { "type": "Point", "coordinates": [ -1.5450861, 53.8036083 ] } },
	{ "type": "Feature", "properties": { "osm_id": "3887609257", "amenity": "bench", "other_tags": "\"backrest\"=>\"yes\"" }, "geometry": { "type": "Point", "coordinates": [ -1.5450597, 53.8035927 ] } },
	{ "type": "Feature", "properties": { "osm_id": "3887609258", "amenity": "bench", "other_tags": "\"backrest\"=>\"yes\"" }, "geometry": { "type": "Point", "coordinates": [ -1.5455097, 53.8033821 ] } },
	{ "type": "Feature", "properties": { "osm_id": "3887609259", "amenity": "bench", "other_tags": "\"backrest\"=>\"yes\"" }, "geometry": { "type": "Point", "coordinates": [ -1.5454815, 53.8033655 ] } },
	{ "type": "Feature", "properties": { "osm_id": "3887609260", "amenity": "bench", "other_tags": "\"backrest\"=>\"yes\"" }, "geometry": { "type": "Point", "coordinates": [ -1.5454493, 53.8033481 ] } },
	{ "type": "Feature", "properties": { "osm_id": "3887609261", "amenity": "bench", "other_tags": "\"backrest\"=>\"yes\"" }, "geometry": { "type": "Point", "coordinates": [ -1.5455405, 53.8033996 ] } },
	{ "type": "Feature", "properties": { "osm_id": "3904386520", "amenity": "bench" }, "geometry": { "type": "Point", "coordinates": [ -1.6423294, 53.8320668 ] } },
	{ "type": "Feature", "properties": { "osm_id": "3904761978", "amenity": "bench" }, "geometry": { "type": "Point", "coordinates": [ -1.6416045, 53.8320492 ] } },
	{ "type": "Feature", "properties": { "osm_id": "3922113253", "amenity": "bench" }, "geometry": { "type": "Point", "coordinates": [ -1.5495408, 53.8649944 ] } },
	{ "type": "Feature", "properties": { "osm_id": "3942727565", "amenity": "bench" }, "geometry": { "type": "Point", "coordinates": [ -1.7009161, 53.9035521 ] } },
	{ "type": "Feature", "properties": { "osm_id": "3942727566", "amenity": "bench" }, "geometry": { "type": "Point", "coordinates": [ -1.7010225, 53.9036329 ] } },
	{ "type": "Feature", "properties": { "osm_id": "3948084937", "amenity": "bench" }, "geometry": { "type": "Point", "coordinates": [ -1.6921083, 53.8962752 ] } },
	{ "type": "Feature", "properties": { "osm_id": "3948084938", "amenity": "bench" }, "geometry": { "type": "Point", "coordinates": [ -1.6920106, 53.8962397 ] } },
	{ "type": "Feature", "properties": { "osm_id": "3948084939", "amenity": "bench" }, "geometry": { "type": "Point", "coordinates": [ -1.6923982, 53.8962483 ] } },
	{ "type": "Feature", "properties": { "osm_id": "3955874243", "amenity": "bench" }, "geometry": { "type": "Point", "coordinates": [ -1.5768455, 53.7916029 ] } },
	{ "type": "Feature", "properties": { "osm_id": "3957505867", "amenity": "bench" }, "geometry": { "type": "Point", "coordinates": [ -1.5314779, 53.8171724 ] } },
	{ "type": "Feature", "properties": { "osm_id": "4032312987", "amenity": "bench" }, "geometry": { "type": "Point", "coordinates": [ -1.5803103, 53.8208827 ] } },
	{ "type": "Feature", "properties": { "osm_id": "4032327805", "amenity": "bench" }, "geometry": { "type": "Point", "coordinates": [ -1.5565532, 53.8071309 ] } },
	{ "type": "Feature", "properties": { "osm_id": "4032327806", "amenity": "bench" }, "geometry": { "type": "Point", "coordinates": [ -1.5559712, 53.8069631 ] } },
	{ "type": "Feature", "properties": { "osm_id": "4032327809", "amenity": "bench" }, "geometry": { "type": "Point", "coordinates": [ -1.5557244, 53.807066 ] } },
	{ "type": "Feature", "properties": { "osm_id": "4032327811", "amenity": "bench" }, "geometry": { "type": "Point", "coordinates": [ -1.5566202, 53.8071452 ] } },
	{ "type": "Feature", "properties": { "osm_id": "4032327813", "amenity": "bench" }, "geometry": { "type": "Point", "coordinates": [ -1.5557995, 53.8070723 ] } },
	{ "type": "Feature", "properties": { "osm_id": "4032327814", "amenity": "bench" }, "geometry": { "type": "Point", "coordinates": [ -1.5566149, 53.8070487 ] } },
	{ "type": "Feature", "properties": { "osm_id": "4032327820", "amenity": "bench" }, "geometry": { "type": "Point", "coordinates": [ -1.5558665, 53.8070788 ] } },
	{ "type": "Feature", "properties": { "osm_id": "4032327822", "amenity": "bench" }, "geometry": { "type": "Point", "coordinates": [ -1.5569205, 53.8070961 ] } },
	{ "type": "Feature", "properties": { "osm_id": "4032327825", "amenity": "bench" }, "geometry": { "type": "Point", "coordinates": [ -1.5561777, 53.8070772 ] } },
	{ "type": "Feature", "properties": { "osm_id": "4032327828", "amenity": "bench" }, "geometry": { "type": "Point", "coordinates": [ -1.5566764, 53.807055 ] } },
	{ "type": "Feature", "properties": { "osm_id": "4032327830", "amenity": "bench" }, "geometry": { "type": "Point", "coordinates": [ -1.5562367, 53.8070866 ] } },
	{ "type": "Feature", "properties": { "osm_id": "4032327831", "amenity": "bench" }, "geometry": { "type": "Point", "coordinates": [ -1.5565586, 53.8070392 ] } },
	{ "type": "Feature", "properties": { "osm_id": "4032327834", "amenity": "bench" }, "geometry": { "type": "Point", "coordinates": [ -1.5560275, 53.8069711 ] } },
	{ "type": "Feature", "properties": { "osm_id": "4032327839", "amenity": "bench" }, "geometry": { "type": "Point", "coordinates": [ -1.5556439, 53.8070645 ] } },
	{ "type": "Feature", "properties": { "osm_id": "4102969451", "amenity": "bench", "other_tags": "\"backrest\"=>\"yes\"" }, "geometry": { "type": "Point", "coordinates": [ -1.5737145, 53.7964182 ] } },
	{ "type": "Feature", "properties": { "osm_id": "4119744082", "amenity": "bench" }, "geometry": { "type": "Point", "coordinates": [ -1.6883144, 53.8934867 ] } },
	{ "type": "Feature", "properties": { "osm_id": "4197524638", "amenity": "bench" }, "geometry": { "type": "Point", "coordinates": [ -1.7125064, 53.8957287 ] } },
	{ "type": "Feature", "properties": { "osm_id": "4202206067", "amenity": "bench" }, "geometry": { "type": "Point", "coordinates": [ -1.3882768, 53.7933127 ] } },
	{ "type": "Feature", "properties": { "osm_id": "4203189937", "amenity": "bench" }, "geometry": { "type": "Point", "coordinates": [ -1.5672858, 53.8366473 ] } },
	{ "type": "Feature", "properties": { "osm_id": "4203189940", "amenity": "bench" }, "geometry": { "type": "Point", "coordinates": [ -1.570364, 53.8375677 ] } },
	{ "type": "Feature", "properties": { "osm_id": "4209816014", "amenity": "bench" }, "geometry": { "type": "Point", "coordinates": [ -1.5724196, 53.8364428 ] } },
	{ "type": "Feature", "properties": { "osm_id": "4209816015", "amenity": "bench" }, "geometry": { "type": "Point", "coordinates": [ -1.5743971, 53.833696 ] } },
	{ "type": "Feature", "properties": { "osm_id": "4209816016", "amenity": "bench" }, "geometry": { "type": "Point", "coordinates": [ -1.5752594, 53.8331024 ] } },
	{ "type": "Feature", "properties": { "osm_id": "4209816018", "amenity": "bench" }, "geometry": { "type": "Point", "coordinates": [ -1.5744393, 53.8312805 ] } },
	{ "type": "Feature", "properties": { "osm_id": "4209816020", "amenity": "bench" }, "geometry": { "type": "Point", "coordinates": [ -1.5741872, 53.8310921 ] } },
	{ "type": "Feature", "properties": { "osm_id": "4209816021", "amenity": "bench" }, "geometry": { "type": "Point", "coordinates": [ -1.5739492, 53.8310427 ] } },
	{ "type": "Feature", "properties": { "osm_id": "4209816022", "amenity": "bench" }, "geometry": { "type": "Point", "coordinates": [ -1.5737641, 53.830875 ] } },
	{ "type": "Feature", "properties": { "osm_id": "4209816023", "amenity": "bench" }, "geometry": { "type": "Point", "coordinates": [ -1.5739062, 53.8307428 ] } },
	{ "type": "Feature", "properties": { "osm_id": "4214304890", "amenity": "bench" }, "geometry": { "type": "Point", "coordinates": [ -1.5715169, 53.83706 ] } },
	{ "type": "Feature", "properties": { "osm_id": "4214304891", "amenity": "bench" }, "geometry": { "type": "Point", "coordinates": [ -1.5757816, 53.8335525 ] } },
	{ "type": "Feature", "properties": { "osm_id": "4214304892", "amenity": "bench" }, "geometry": { "type": "Point", "coordinates": [ -1.5759479, 53.833729 ] } },
	{ "type": "Feature", "properties": { "osm_id": "4214304894", "amenity": "bench" }, "geometry": { "type": "Point", "coordinates": [ -1.5752545, 53.8340891 ] } },
	{ "type": "Feature", "properties": { "osm_id": "4214304895", "amenity": "bench" }, "geometry": { "type": "Point", "coordinates": [ -1.5756877, 53.8341738 ] } },
	{ "type": "Feature", "properties": { "osm_id": "4214304899", "amenity": "bench" }, "geometry": { "type": "Point", "coordinates": [ -1.5760158, 53.8321408 ] } },
	{ "type": "Feature", "properties": { "osm_id": "4214304901", "amenity": "bench" }, "geometry": { "type": "Point", "coordinates": [ -1.5748839, 53.8314855 ] } },
	{ "type": "Feature", "properties": { "osm_id": "4214393625", "amenity": "bench" }, "geometry": { "type": "Point", "coordinates": [ -1.5713457, 53.8361998 ] } },
	{ "type": "Feature", "properties": { "osm_id": "4214393626", "amenity": "bench" }, "geometry": { "type": "Point", "coordinates": [ -1.5712565, 53.8361832 ] } },
	{ "type": "Feature", "properties": { "osm_id": "4214393627", "amenity": "bench" }, "geometry": { "type": "Point", "coordinates": [ -1.5710701, 53.8361658 ] } },
	{ "type": "Feature", "properties": { "osm_id": "4214420528", "amenity": "bench" }, "geometry": { "type": "Point", "coordinates": [ -1.568204, 53.829727 ] } },
	{ "type": "Feature", "properties": { "osm_id": "4214420534", "amenity": "bench" }, "geometry": { "type": "Point", "coordinates": [ -1.5756574, 53.8316452 ] } },
	{ "type": "Feature", "properties": { "osm_id": "4214420535", "amenity": "bench" }, "geometry": { "type": "Point", "coordinates": [ -1.5744021, 53.8317932 ] } },
	{ "type": "Feature", "properties": { "osm_id": "4214420538", "amenity": "bench" }, "geometry": { "type": "Point", "coordinates": [ -1.5743713, 53.8322784 ] } },
	{ "type": "Feature", "properties": { "osm_id": "4282022440", "amenity": "bench" }, "geometry": { "type": "Point", "coordinates": [ -1.6919386, 53.9050043 ] } },
	{ "type": "Feature", "properties": { "osm_id": "4347354403", "amenity": "bench" }, "geometry": { "type": "Point", "coordinates": [ -1.6982572, 53.8970349 ] } },
	{ "type": "Feature", "properties": { "osm_id": "4347354404", "amenity": "bench" }, "geometry": { "type": "Point", "coordinates": [ -1.6984457, 53.8970392 ] } },
	{ "type": "Feature", "properties": { "osm_id": "4361248193", "amenity": "bench", "other_tags": "\"backrest\"=>\"no\"" }, "geometry": { "type": "Point", "coordinates": [ -1.5322796, 53.7984062 ] } },
	{ "type": "Feature", "properties": { "osm_id": "4362565011", "amenity": "bench", "other_tags": "\"backrest\"=>\"yes\"" }, "geometry": { "type": "Point", "coordinates": [ -1.5488131, 53.8016749 ] } },
	{ "type": "Feature", "properties": { "osm_id": "4362565012", "amenity": "bench", "other_tags": "\"backrest\"=>\"yes\"" }, "geometry": { "type": "Point", "coordinates": [ -1.5488154, 53.8016349 ] } },
	{ "type": "Feature", "properties": { "osm_id": "4362565013", "amenity": "bench", "other_tags": "\"backrest\"=>\"yes\"" }, "geometry": { "type": "Point", "coordinates": [ -1.5488108, 53.8015963 ] } },
	{ "type": "Feature", "properties": { "osm_id": "4362565014", "amenity": "bench", "other_tags": "\"backrest\"=>\"yes\"" }, "geometry": { "type": "Point", "coordinates": [ -1.5488131, 53.8015563 ] } },
	{ "type": "Feature", "properties": { "osm_id": "4362565015", "amenity": "bench", "other_tags": "\"backrest\"=>\"yes\"" }, "geometry": { "type": "Point", "coordinates": [ -1.5488037, 53.8015177 ] } },
	{ "type": "Feature", "properties": { "osm_id": "4362565017", "amenity": "bench", "other_tags": "\"backrest\"=>\"yes\"" }, "geometry": { "type": "Point", "coordinates": [ -1.5488271, 53.8014501 ] } },
	{ "type": "Feature", "properties": { "osm_id": "4362565018", "amenity": "bench", "other_tags": "\"backrest\"=>\"yes\"" }, "geometry": { "type": "Point", "coordinates": [ -1.5488224, 53.8014212 ] } },
	{ "type": "Feature", "properties": { "osm_id": "4416513421", "amenity": "bench" }, "geometry": { "type": "Point", "coordinates": [ -1.6416018, 53.8219508 ] } },
	{ "type": "Feature", "properties": { "osm_id": "4598588892", "amenity": "bench" }, "geometry": { "type": "Point", "coordinates": [ -1.6595715, 53.8235488 ] } },
	{ "type": "Feature", "properties": { "osm_id": "4598588894", "amenity": "bench" }, "geometry": { "type": "Point", "coordinates": [ -1.6628298, 53.8238054 ] } },
	{ "type": "Feature", "properties": { "osm_id": "4621501518", "amenity": "bench", "other_tags": "\"backrest\"=>\"yes\"" }, "geometry": { "type": "Point", "coordinates": [ -1.5499989, 53.7983531 ] } },
	{ "type": "Feature", "properties": { "osm_id": "4621501519", "amenity": "bench", "other_tags": "\"backrest\"=>\"yes\"" }, "geometry": { "type": "Point", "coordinates": [ -1.5499472, 53.7983467 ] } },
	{ "type": "Feature", "properties": { "osm_id": "4621501520", "amenity": "bench", "other_tags": "\"backrest\"=>\"yes\"" }, "geometry": { "type": "Point", "coordinates": [ -1.5498977, 53.7983405 ] } },
	{ "type": "Feature", "properties": { "osm_id": "4621501521", "amenity": "bench", "other_tags": "\"backrest\"=>\"yes\"" }, "geometry": { "type": "Point", "coordinates": [ -1.549852, 53.7983349 ] } },
	{ "type": "Feature", "properties": { "osm_id": "4713193171", "amenity": "bench" }, "geometry": { "type": "Point", "coordinates": [ -1.630461, 53.8075664 ] } },
	{ "type": "Feature", "properties": { "osm_id": "4737752197", "amenity": "bench", "other_tags": "\"ele:msl\"=>\"105.8\",\"ele:source\"=>\"GPS\",\"material\"=>\"stone\"" }, "geometry": { "type": "Point", "coordinates": [ -1.6184566, 53.78708 ] } },
	{ "type": "Feature", "properties": { "osm_id": "4737752198", "amenity": "bench", "other_tags": "\"backrest\"=>\"yes\",\"ele:msl\"=>\"105.5\",\"ele:source\"=>\"GPS\",\"material\"=>\"metal\"" }, "geometry": { "type": "Point", "coordinates": [ -1.618465, 53.7870083 ] } },
	{ "type": "Feature", "properties": { "osm_id": "4737752199", "amenity": "bench", "other_tags": "\"backrest\"=>\"yes\",\"ele:msl\"=>\"105.4\",\"ele:source\"=>\"GPS\",\"material\"=>\"metal\"" }, "geometry": { "type": "Point", "coordinates": [ -1.6182366, 53.7872166 ] } },
	{ "type": "Feature", "properties": { "osm_id": "4737752200", "amenity": "bench", "other_tags": "\"backrest\"=>\"yes\",\"ele:msl\"=>\"106.5\",\"ele:source\"=>\"GPS\",\"material\"=>\"metal\"" }, "geometry": { "type": "Point", "coordinates": [ -1.6187833, 53.7869166 ] } },
	{ "type": "Feature", "properties": { "osm_id": "4737752201", "amenity": "bench", "other_tags": "\"backrest\"=>\"yes\",\"bench\"=>\"yes\",\"ele:msl\"=>\"105.9\",\"ele:source\"=>\"GPS\",\"material\"=>\"metal\",\"shelter\"=>\"yes\"" }, "geometry": { "type": "Point", "coordinates": [ -1.6183033, 53.7868899 ] } },
	{ "type": "Feature", "properties": { "osm_id": "4740732701", "amenity": "bench", "other_tags": "\"backrest\"=>\"yes\"" }, "geometry": { "type": "Point", "coordinates": [ -1.5576839, 53.7990226 ] } },
	{ "type": "Feature", "properties": { "osm_id": "4740732702", "amenity": "bench", "other_tags": "\"backrest\"=>\"yes\"" }, "geometry": { "type": "Point", "coordinates": [ -1.5574481, 53.7988861 ] } },
	{ "type": "Feature", "properties": { "osm_id": "4846648955", "amenity": "bench" }, "geometry": { "type": "Point", "coordinates": [ -1.599711, 53.7435574 ] } },
	{ "type": "Feature", "properties": { "osm_id": "4897461856", "name": "WW1 Memorial Bench", "amenity": "bench", "other_tags": "\"backrest\"=>\"yes\"" }, "geometry": { "type": "Point", "coordinates": [ -1.4870762, 53.7410763 ] } },
	{ "type": "Feature", "properties": { "osm_id": "4897461857", "amenity": "bench", "other_tags": "\"backrest\"=>\"yes\"" }, "geometry": { "type": "Point", "coordinates": [ -1.4893015, 53.740839 ] } },
	{ "type": "Feature", "properties": { "osm_id": "4897464857", "amenity": "bench", "other_tags": "\"backrest\"=>\"yes\"" }, "geometry": { "type": "Point", "coordinates": [ -1.4916097, 53.7390754 ] } },
	{ "type": "Feature", "properties": { "osm_id": "4902096975", "amenity": "bench", "other_tags": "\"backrest\"=>\"yes\"" }, "geometry": { "type": "Point", "coordinates": [ -1.4755126, 53.7489569 ] } },
	{ "type": "Feature", "properties": { "osm_id": "4902096990", "amenity": "bench", "other_tags": "\"backrest\"=>\"yes\"" }, "geometry": { "type": "Point", "coordinates": [ -1.4750143, 53.7490164 ] } },
	{ "type": "Feature", "properties": { "osm_id": "4902106501", "amenity": "bench", "other_tags": "\"backrest\"=>\"yes\"" }, "geometry": { "type": "Point", "coordinates": [ -1.473916, 53.7500577 ] } },
	{ "type": "Feature", "properties": { "osm_id": "4902106502", "amenity": "bench", "other_tags": "\"backrest\"=>\"yes\"" }, "geometry": { "type": "Point", "coordinates": [ -1.4742943, 53.7500947 ] } },
	{ "type": "Feature", "properties": { "osm_id": "4902106503", "amenity": "bench", "other_tags": "\"backrest\"=>\"yes\"" }, "geometry": { "type": "Point", "coordinates": [ -1.4746517, 53.7499589 ] } },
	{ "type": "Feature", "properties": { "osm_id": "4917242332", "amenity": "bench", "other_tags": "\"backrest\"=>\"yes\"" }, "geometry": { "type": "Point", "coordinates": [ -1.5594212, 53.7941456 ] } },
	{ "type": "Feature", "properties": { "osm_id": "4917242333", "amenity": "bench", "other_tags": "\"backrest\"=>\"yes\"" }, "geometry": { "type": "Point", "coordinates": [ -1.5594374, 53.7941023 ] } },
	{ "type": "Feature", "properties": { "osm_id": "4917242334", "amenity": "bench", "other_tags": "\"backrest\"=>\"yes\"" }, "geometry": { "type": "Point", "coordinates": [ -1.5594517, 53.7940615 ] } },
	{ "type": "Feature", "properties": { "osm_id": "4917242335", "amenity": "bench", "other_tags": "\"backrest\"=>\"yes\"" }, "geometry": { "type": "Point", "coordinates": [ -1.5591467, 53.7937697 ] } },
	{ "type": "Feature", "properties": { "osm_id": "4917242336", "amenity": "bench", "other_tags": "\"backrest\"=>\"yes\"" }, "geometry": { "type": "Point", "coordinates": [ -1.5591163, 53.7937421 ] } },
	{ "type": "Feature", "properties": { "osm_id": "5119467461", "amenity": "bench" }, "geometry": { "type": "Point", "coordinates": [ -1.4272064, 53.8578889 ] } },
	{ "type": "Feature", "properties": { "osm_id": "5133542427", "amenity": "bench" }, "geometry": { "type": "Point", "coordinates": [ -1.3427462, 53.8334908 ] } },
	{ "type": "Feature", "properties": { "osm_id": "5133542429", "amenity": "bench" }, "geometry": { "type": "Point", "coordinates": [ -1.3427515, 53.8334576 ] } },
	{ "type": "Feature", "properties": { "osm_id": "5143220768", "amenity": "bench" }, "geometry": { "type": "Point", "coordinates": [ -1.3111232, 53.7623025 ] } },
	{ "type": "Feature", "properties": { "osm_id": "5143244361", "amenity": "bench" }, "geometry": { "type": "Point", "coordinates": [ -1.4075409, 53.9154697 ] } },
	{ "type": "Feature", "properties": { "osm_id": "5143328161", "amenity": "bench" }, "geometry": { "type": "Point", "coordinates": [ -1.6187456, 53.8844279 ] } },
	{ "type": "Feature", "properties": { "osm_id": "5153851709", "amenity": "bench" }, "geometry": { "type": "Point", "coordinates": [ -1.6846362, 53.8964404 ] } },
	{ "type": "Feature", "properties": { "osm_id": "5153851710", "amenity": "bench" }, "geometry": { "type": "Point", "coordinates": [ -1.6855948, 53.895862 ] } },
	{ "type": "Feature", "properties": { "osm_id": "5153851711", "amenity": "bench" }, "geometry": { "type": "Point", "coordinates": [ -1.6818701, 53.8958697 ] } },
	{ "type": "Feature", "properties": { "osm_id": "5186446979", "amenity": "bench" }, "geometry": { "type": "Point", "coordinates": [ -1.7137321, 53.8742689 ] } },
	{ "type": "Feature", "properties": { "osm_id": "5195044657", "amenity": "bench" }, "geometry": { "type": "Point", "coordinates": [ -1.5323423, 53.7914828 ] } },
	{ "type": "Feature", "properties": { "osm_id": "5195044658", "amenity": "bench" }, "geometry": { "type": "Point", "coordinates": [ -1.5323584, 53.7915278 ] } },
	{ "type": "Feature", "properties": { "osm_id": "5195044659", "amenity": "bench" }, "geometry": { "type": "Point", "coordinates": [ -1.5322836, 53.7915381 ] } },
	{ "type": "Feature", "properties": { "osm_id": "5218896694", "amenity": "bench" }, "geometry": { "type": "Point", "coordinates": [ -1.6018662, 53.7455497 ] } },
	{ "type": "Feature", "properties": { "osm_id": "5242004031", "amenity": "bench" }, "geometry": { "type": "Point", "coordinates": [ -1.4888083, 53.8736285 ] } },
	{ "type": "Feature", "properties": { "osm_id": "5265713167", "amenity": "bench", "other_tags": "\"backrest\"=>\"yes\"" }, "geometry": { "type": "Point", "coordinates": [ -1.5935659, 53.8270112 ] } },
	{ "type": "Feature", "properties": { "osm_id": "5265713168", "amenity": "bench", "other_tags": "\"backrest\"=>\"yes\"" }, "geometry": { "type": "Point", "coordinates": [ -1.59312, 53.8270154 ] } },
	{ "type": "Feature", "properties": { "osm_id": "5265713169", "amenity": "bench", "other_tags": "\"backrest\"=>\"yes\"" }, "geometry": { "type": "Point", "coordinates": [ -1.5927519, 53.8270196 ] } },
	{ "type": "Feature", "properties": { "osm_id": "5265713170", "amenity": "bench", "other_tags": "\"backrest\"=>\"yes\"" }, "geometry": { "type": "Point", "coordinates": [ -1.592398, 53.8270227 ] } },
	{ "type": "Feature", "properties": { "osm_id": "5284237784", "name": "Old Stone Bench", "amenity": "bench", "other_tags": "\"backrest\"=>\"yes\"" }, "geometry": { "type": "Point", "coordinates": [ -1.5272173, 53.8617135 ] } },
	{ "type": "Feature", "properties": { "osm_id": "5475771255", "amenity": "bench" }, "geometry": { "type": "Point", "coordinates": [ -1.7079341, 53.878102 ] } },
	{ "type": "Feature", "properties": { "osm_id": "5512518789", "amenity": "bench" }, "geometry": { "type": "Point", "coordinates": [ -1.5574602, 53.7997982 ] } },
	{ "type": "Feature", "properties": { "osm_id": "5512518813", "amenity": "bench" }, "geometry": { "type": "Point", "coordinates": [ -1.5586008, 53.7997305 ] } },
	{ "type": "Feature", "properties": { "osm_id": "5518532014", "amenity": "bench" }, "geometry": { "type": "Point", "coordinates": [ -1.6923906, 53.9017683 ] } },
	{ "type": "Feature", "properties": { "osm_id": "5754903413", "amenity": "bench" }, "geometry": { "type": "Point", "coordinates": [ -1.5791249, 53.8227901 ] } },
	{ "type": "Feature", "properties": { "osm_id": "5812137080", "amenity": "bench" }, "geometry": { "type": "Point", "coordinates": [ -1.6665257, 53.8963301 ] } },
	{ "type": "Feature", "properties": { "osm_id": "5812137081", "amenity": "bench" }, "geometry": { "type": "Point", "coordinates": [ -1.653838, 53.8973235 ] } },
	{ "type": "Feature", "properties": { "osm_id": "5829876387", "amenity": "bench" }, "geometry": { "type": "Point", "coordinates": [ -1.5463195, 53.7923547 ] } },
	{ "type": "Feature", "properties": { "osm_id": "6058497336", "amenity": "bench" }, "geometry": { "type": "Point", "coordinates": [ -1.6859396, 53.8725557 ] } },
	{ "type": "Feature", "properties": { "osm_id": "6058497343", "amenity": "bench" }, "geometry": { "type": "Point", "coordinates": [ -1.6825342, 53.8937792 ] } },
	{ "type": "Feature", "properties": { "osm_id": "6185928519", "amenity": "bench" }, "geometry": { "type": "Point", "coordinates": [ -1.460231, 53.8197193 ] } },
	{ "type": "Feature", "properties": { "osm_id": "6185928520", "amenity": "bench" }, "geometry": { "type": "Point", "coordinates": [ -1.4601661, 53.8197488 ] } },
	{ "type": "Feature", "properties": { "osm_id": "6185928521", "amenity": "bench" }, "geometry": { "type": "Point", "coordinates": [ -1.4600654, 53.8197984 ] } },
	{ "type": "Feature", "properties": { "osm_id": "6185928522", "amenity": "bench" }, "geometry": { "type": "Point", "coordinates": [ -1.4600013, 53.8198289 ] } },
	{ "type": "Feature", "properties": { "osm_id": "6185928545", "amenity": "bench" }, "geometry": { "type": "Point", "coordinates": [ -1.4592136, 53.8197213 ] } },
	{ "type": "Feature", "properties": { "osm_id": "6185928546", "amenity": "bench" }, "geometry": { "type": "Point", "coordinates": [ -1.4592834, 53.8197546 ] } },
	{ "type": "Feature", "properties": { "osm_id": "6185928547", "amenity": "bench" }, "geometry": { "type": "Point", "coordinates": [ -1.4593646, 53.8197888 ] } },
	{ "type": "Feature", "properties": { "osm_id": "6185928548", "amenity": "bench" }, "geometry": { "type": "Point", "coordinates": [ -1.4588633, 53.8195361 ] } },
	{ "type": "Feature", "properties": { "osm_id": "6185928552", "amenity": "bench" }, "geometry": { "type": "Point", "coordinates": [ -1.459574, 53.8188938 ] } },
	{ "type": "Feature", "properties": { "osm_id": "6185928553", "amenity": "bench" }, "geometry": { "type": "Point", "coordinates": [ -1.4596543, 53.8189155 ] } },
	{ "type": "Feature", "properties": { "osm_id": "6185928554", "amenity": "bench" }, "geometry": { "type": "Point", "coordinates": [ -1.4597327, 53.8189369 ] } },
	{ "type": "Feature", "properties": { "osm_id": "6298172478", "amenity": "bench" }, "geometry": { "type": "Point", "coordinates": [ -1.6408092, 53.7725077 ] } },
	{ "type": "Feature", "properties": { "osm_id": "6298175104", "amenity": "bench" }, "geometry": { "type": "Point", "coordinates": [ -1.6393313, 53.7749472 ] } },
	{ "type": "Feature", "properties": { "osm_id": "6298175106", "amenity": "bench" }, "geometry": { "type": "Point", "coordinates": [ -1.638642, 53.7777448 ] } },
	{ "type": "Feature", "properties": { "osm_id": "6298175146", "amenity": "bench" }, "geometry": { "type": "Point", "coordinates": [ -1.6405946, 53.7752183 ] } },
	{ "type": "Feature", "properties": { "osm_id": "6361322322", "amenity": "bench" }, "geometry": { "type": "Point", "coordinates": [ -1.6491415, 53.7679866 ] } },
	{ "type": "Feature", "properties": { "osm_id": "6421269325", "amenity": "bench" }, "geometry": { "type": "Point", "coordinates": [ -1.6869405, 53.8951461 ] } },
	{ "type": "Feature", "properties": { "osm_id": "6421726245", "amenity": "bench" }, "geometry": { "type": "Point", "coordinates": [ -1.6563681, 53.894287 ] } },
	{ "type": "Feature", "properties": { "osm_id": "6421726247", "amenity": "bench" }, "geometry": { "type": "Point", "coordinates": [ -1.6520452, 53.8961943 ] } },
	{ "type": "Feature", "properties": { "osm_id": "6421726248", "amenity": "bench" }, "geometry": { "type": "Point", "coordinates": [ -1.6521597, 53.8962542 ] } },
	{ "type": "Feature", "properties": { "osm_id": "6421726249", "amenity": "bench" }, "geometry": { "type": "Point", "coordinates": [ -1.651409, 53.8960387 ] } },
	{ "type": "Feature", "properties": { "osm_id": null, "centroid": { "latitude": 53.896959, "longitude": -1.697339 }, "osm_way_id": "436879311", "amenity": "bench" }, "geometry": { "type": "Polygon", "coordinates": [ [ [ -1.6973588, 53.8969479 ], [ -1.6973636, 53.8969521 ], [ -1.6973659, 53.8969569 ], [ -1.6973656, 53.896962 ], [ -1.6973626, 53.8969667 ], [ -1.6973567, 53.896971 ], [ -1.6973485, 53.8969739 ], [ -1.6973392, 53.896975 ], [ -1.6973299, 53.8969741 ], [ -1.6973216, 53.8969714 ], [ -1.6973153, 53.8969672 ], [ -1.6973119, 53.896962 ], [ -1.6973117, 53.8969564 ], [ -1.6973148, 53.8969511 ], [ -1.69732, 53.8969471 ], [ -1.6973271, 53.8969443 ], [ -1.6973353, 53.8969429 ], [ -1.6973439, 53.896943 ], [ -1.697352, 53.8969448 ], [ -1.6973588, 53.8969479 ] ] ] } },
	{ "type": "Feature", "properties": { "osm_id": null, "centroid": { "latitude": 53.783699, "longitude": -1.379397 }, "osm_way_id": "678472383", "amenity": "bench", "barrier": "wall", "landuse": "grass", "other_tags": "\"bench\"=>\"yes\"" }, "geometry": { "type": "Polygon", "coordinates": [ [ [ -1.3793164, 53.7836747 ], [ -1.3794847, 53.7836874 ], [ -1.3794769, 53.7837234 ], [ -1.3793086, 53.7837107 ], [ -1.3793164, 53.7836747 ] ] ] } }
]
}
