{
"type": "FeatureCollection",
"crs": { "type": "name", "properties": { "name": "urn:ogc:def:crs:OGC:1.3:CRS84" } },
"features": [
	{ "type": "Feature", "properties": { "osm_id": "244324217", "amenity": "taxi" }, "geometry": { "type": "Point", "coordinates": [ -1.5469426, 53.7953819 ] } },
	{ "type": "Feature", "properties": { "osm_id": "298127965", "name": "Beeston Line", "amenity": "taxi" }, "geometry": { "type": "Point", "coordinates": [ -1.5445642, 53.7791432 ] } },
	{ "type": "Feature", "properties": { "osm_id": "357708693", "amenity": "taxi" }, "geometry": { "type": "Point", "coordinates": [ -1.5451807, 53.7956958 ] } },
	{ "type": "Feature", "properties": { "osm_id": "864535400", "amenity": "taxi" }, "geometry": { "type": "Point", "coordinates": [ -1.5524059, 53.8075452 ] } },
	{ "type": "Feature", "properties": { "osm_id": "876491923", "amenity": "taxi" }, "geometry": { "type": "Point", "coordinates": [ -1.5050044, 53.8390118 ] } },
	{ "type": "Feature", "properties": { "osm_id": "2146804712", "name": "MetroCars", "amenity": "taxi" }, "geometry": { "type": "Point", "coordinates": [ -1.5405022, 53.8005821 ] } },
	{ "type": "Feature", "properties": { "osm_id": "2226280666", "amenity": "taxi" }, "geometry": { "type": "Point", "coordinates": [ -1.6596045, 53.8699516 ] } },
	{ "type": "Feature", "properties": { "osm_id": "3671058958", "name": "Royal Cars", "amenity": "taxi", "other_tags": "\"taxi\"=>\"office\"" }, "geometry": { "type": "Point", "coordinates": [ -1.5710187, 53.8108417 ] } },
	{ "type": "Feature", "properties": { "osm_id": "4319509780", "name": "White Rose Cars", "amenity": "taxi" }, "geometry": { "type": "Point", "coordinates": [ -1.5350789, 53.8073136 ] } },
	{ "type": "Feature", "properties": { "osm_id": "4850771273", "amenity": "taxi" }, "geometry": { "type": "Point", "coordinates": [ -1.5426148, 53.7953794 ] } },
	{ "type": "Feature", "properties": { "osm_id": "5469563103", "amenity": "taxi", "highway": "turning_loop" }, "geometry": { "type": "Point", "coordinates": [ -1.5423237, 53.804101 ] } },
	{ "type": "Feature", "properties": { "osm_id": null, "centroid": { "latitude": 53.785764, "longitude": -1.531599 }, "osm_way_id": "202286663", "name": "Yellow Cars", "amenity": "taxi", "building": "yes" }, "geometry": { "type": "Polygon", "coordinates": [ [ [ -1.5316683, 53.7857884 ], [ -1.531554, 53.7858038 ], [ -1.5315289, 53.785739 ], [ -1.531643, 53.7857236 ], [ -1.5316683, 53.7857884 ] ] ] } },
	{ "type": "Feature", "properties": { "osm_id": null, "centroid": { "latitude": 53.782928, "longitude": -1.528744 }, "osm_way_id": "203132158", "name": "South Leeds & Hunslet Cars", "amenity": "taxi", "building": "yes" }, "geometry": { "type": "Polygon", "coordinates": [ [ [ -1.5288185, 53.7828663 ], [ -1.5288616, 53.782898 ], [ -1.5286699, 53.7829889 ], [ -1.5286269, 53.7829572 ], [ -1.5288185, 53.7828663 ] ] ] } },
	{ "type": "Feature", "properties": { "osm_id": null, "centroid": { "latitude": 53.793214, "longitude": -1.542169 }, "osm_way_id": "495903272", "name": "Aireline", "amenity": "taxi", "building": "yes", "other_tags": "\"addr:city\"=>\"Leeds\",\"addr:housenumber\"=>\"42\",\"addr:postcode\"=>\"LS1 4DJ\",\"addr:street\"=>\"Bridge End\",\"levels\"=>\"4\"" }, "geometry": { "type": "Polygon", "coordinates": [ [ [ -1.5422456, 53.7932437 ], [ -1.5421941, 53.7932668 ], [ -1.5420928, 53.7931855 ], [ -1.542144, 53.7931606 ], [ -1.5422456, 53.7932437 ] ] ] } }
]
}
