{
"type": "FeatureCollection",
"crs": { "type": "name", "properties": { "name": "urn:ogc:def:crs:OGC:1.3:CRS84" } },
"features": [
	{ "type": "Feature", "properties": { "osm_id": "27476331", "amenity": "toilets" }, "geometry": { "type": "Point", "coordinates": [ -1.386277, 53.9279274 ] } },
	{ "type": "Feature", "properties": { "osm_id": "29563630", "amenity": "toilets" }, "geometry": { "type": "Point", "coordinates": [ -1.3199988, 53.9114072 ] } },
	{ "type": "Feature", "properties": { "osm_id": "300357440", "amenity": "toilets" }, "geometry": { "type": "Point", "coordinates": [ -1.6461754, 53.8229297 ] } },
	{ "type": "Feature", "properties": { "osm_id": "304470493", "amenity": "toilets" }, "geometry": { "type": "Point", "coordinates": [ -1.6262531, 53.8107359 ] } },
	{ "type": "Feature", "properties": { "osm_id": "332484030", "amenity": "toilets" }, "geometry": { "type": "Point", "coordinates": [ -1.5414896, 53.7873719 ] } },
	{ "type": "Feature", "properties": { "osm_id": "342579657", "amenity": "toilets", "other_tags": "\"toilets:wheelchair\"=>\"yes\",\"wheelchair\"=>\"yes\"" }, "geometry": { "type": "Point", "coordinates": [ -1.5359695, 53.7969782 ] } },
	{ "type": "Feature", "properties": { "osm_id": "343857439", "amenity": "toilets" }, "geometry": { "type": "Point", "coordinates": [ -1.6711784, 53.8032555 ] } },
	{ "type": "Feature", "properties": { "osm_id": "345024395", "amenity": "toilets", "other_tags": "\"level\"=>\"0\"" }, "geometry": { "type": "Point", "coordinates": [ -1.5472404, 53.7948656 ] } },
	{ "type": "Feature", "properties": { "osm_id": "364836776", "amenity": "toilets" }, "geometry": { "type": "Point", "coordinates": [ -1.3198077, 53.8191094 ] } },
	{ "type": "Feature", "properties": { "osm_id": "459188008", "amenity": "toilets", "other_tags": "\"toilets:wheelchair\"=>\"yes\",\"wheelchair\"=>\"yes\"" }, "geometry": { "type": "Point", "coordinates": [ -1.5359705, 53.7970519 ] } },
	{ "type": "Feature", "properties": { "osm_id": "1562986911", "amenity": "toilets" }, "geometry": { "type": "Point", "coordinates": [ -1.5387632, 53.7973582 ] } },
	{ "type": "Feature", "properties": { "osm_id": "1637789257", "amenity": "toilets" }, "geometry": { "type": "Point", "coordinates": [ -1.590855, 53.7972897 ] } },
	{ "type": "Feature", "properties": { "osm_id": "2117006517", "amenity": "toilets" }, "geometry": { "type": "Point", "coordinates": [ -1.529874, 53.7794307 ] } },
	{ "type": "Feature", "properties": { "osm_id": "2408717775", "amenity": "toilets", "other_tags": "\"fee\"=>\"£0.30\",\"wheelchair\"=>\"no\"" }, "geometry": { "type": "Point", "coordinates": [ -1.5360983, 53.7974754 ] } },
	{ "type": "Feature", "properties": { "osm_id": "4162183286", "amenity": "toilets" }, "geometry": { "type": "Point", "coordinates": [ -1.5537616, 53.8200504 ] } },
	{ "type": "Feature", "properties": { "osm_id": "4325290419", "amenity": "toilets", "other_tags": "\"female\"=>\"yes\"" }, "geometry": { "type": "Point", "coordinates": [ -1.4579742, 53.7850726 ] } },
	{ "type": "Feature", "properties": { "osm_id": "4362557270", "amenity": "toilets" }, "geometry": { "type": "Point", "coordinates": [ -1.5404146, 53.7960286 ] } },
	{ "type": "Feature", "properties": { "osm_id": "4382725751", "amenity": "toilets" }, "geometry": { "type": "Point", "coordinates": [ -1.6011431, 53.7445196 ] } },
	{ "type": "Feature", "properties": { "osm_id": "4485179449", "amenity": "toilets" }, "geometry": { "type": "Point", "coordinates": [ -1.5045288, 53.8403722 ] } },
	{ "type": "Feature", "properties": { "osm_id": "4492760741", "amenity": "toilets" }, "geometry": { "type": "Point", "coordinates": [ -1.4498706, 53.8064408 ] } },
	{ "type": "Feature", "properties": { "osm_id": "4569592178", "amenity": "toilets" }, "geometry": { "type": "Point", "coordinates": [ -1.5747929, 53.75718 ] } },
	{ "type": "Feature", "properties": { "osm_id": "4814272007", "amenity": "toilets", "other_tags": "\"description\"=>\"Open during Café opening hours.\"" }, "geometry": { "type": "Point", "coordinates": [ -1.6919363, 53.8961824 ] } },
	{ "type": "Feature", "properties": { "osm_id": "5296593509", "amenity": "toilets" }, "geometry": { "type": "Point", "coordinates": [ -1.6366947, 53.8036257 ] } },
	{ "type": "Feature", "properties": { "osm_id": "5387998547", "amenity": "toilets" }, "geometry": { "type": "Point", "coordinates": [ -1.5448545, 53.7543013 ] } },
	{ "type": "Feature", "properties": { "osm_id": "5648164584", "amenity": "toilets", "other_tags": "\"level\"=>\"1\"" }, "geometry": { "type": "Point", "coordinates": [ -1.5437575, 53.8004623 ] } },
	{ "type": "Feature", "properties": { "osm_id": null, "centroid": { "latitude": 53.905121, "longitude": -1.346501 }, "osm_way_id": "178780332", "amenity": "toilets", "building": "yes" }, "geometry": { "type": "Polygon", "coordinates": [ [ [ -1.3465245, 53.9051608 ], [ -1.3464287, 53.9051123 ], [ -1.3464758, 53.9050816 ], [ -1.3465732, 53.9051292 ], [ -1.3465245, 53.9051608 ] ] ] } },
	{ "type": "Feature", "properties": { "osm_id": null, "centroid": { "latitude": 53.903568, "longitude": -1.346956 }, "osm_way_id": "187421123", "amenity": "toilets" }, "geometry": { "type": "Polygon", "coordinates": [ [ [ -1.3469973, 53.903611 ], [ -1.3468875, 53.9035936 ], [ -1.3469128, 53.9035252 ], [ -1.3470247, 53.9035438 ], [ -1.3469973, 53.903611 ] ] ] } },
	{ "type": "Feature", "properties": { "osm_id": null, "centroid": { "latitude": 53.905684, "longitude": -1.687871 }, "osm_way_id": "226542285", "amenity": "toilets", "building": "yes", "other_tags": "\"building:levels\"=>\"1\"" }, "geometry": { "type": "Polygon", "coordinates": [ [ [ -1.6879233, 53.9056827 ], [ -1.6878459, 53.9057116 ], [ -1.6878187, 53.9056863 ], [ -1.6878961, 53.9056574 ], [ -1.6879233, 53.9056827 ] ] ] } },
	{ "type": "Feature", "properties": { "osm_id": null, "centroid": { "latitude": 53.831994, "longitude": -1.572578 }, "osm_way_id": "226990914", "amenity": "toilets", "building": "yes" }, "geometry": { "type": "Polygon", "coordinates": [ [ [ -1.5726147, 53.8320299 ], [ -1.5725085, 53.8320018 ], [ -1.5725415, 53.8319583 ], [ -1.5726477, 53.8319864 ], [ -1.5726147, 53.8320299 ] ] ] } },
	{ "type": "Feature", "properties": { "osm_id": null, "centroid": { "latitude": 53.871684, "longitude": -1.594418 }, "osm_way_id": "232386176", "amenity": "toilets" }, "geometry": { "type": "Polygon", "coordinates": [ [ [ -1.5944744, 53.8717167 ], [ -1.5943441, 53.8717006 ], [ -1.5943618, 53.8716509 ], [ -1.5944921, 53.871667 ], [ -1.5944744, 53.8717167 ] ] ] } },
	{ "type": "Feature", "properties": { "osm_id": null, "centroid": { "latitude": 53.866518, "longitude": -1.675502 }, "osm_way_id": "401282053", "amenity": "toilets", "building": "yes", "other_tags": "\"access\"=>\"yes\",\"toilets:disposal\"=>\"flush\"" }, "geometry": { "type": "Polygon", "coordinates": [ [ [ -1.6755729, 53.8665188 ], [ -1.6755124, 53.8665592 ], [ -1.6754305, 53.8665167 ], [ -1.675491, 53.8664762 ], [ -1.6755729, 53.8665188 ] ] ] } },
	{ "type": "Feature", "properties": { "osm_id": null, "centroid": { "latitude": 53.795577, "longitude": -1.663380 }, "osm_way_id": "461181968", "amenity": "toilets", "building": "yes" }, "geometry": { "type": "Polygon", "coordinates": [ [ [ -1.6633731, 53.7955351 ], [ -1.6634504, 53.7955841 ], [ -1.6633878, 53.7956186 ], [ -1.6633105, 53.7955696 ], [ -1.6633731, 53.7955351 ] ] ] } },
	{ "type": "Feature", "properties": { "osm_id": null, "centroid": { "latitude": 53.787480, "longitude": -1.450568 }, "osm_way_id": "579416689", "amenity": "toilets", "building": "yes" }, "geometry": { "type": "Polygon", "coordinates": [ [ [ -1.4505865, 53.7875256 ], [ -1.450489, 53.7874811 ], [ -1.4505494, 53.787435 ], [ -1.4506468, 53.7874795 ], [ -1.4505865, 53.7875256 ] ] ] } }
]
}
