{
"type": "FeatureCollection",
"crs": { "type": "name", "properties": { "name": "urn:ogc:def:crs:OGC:1.3:CRS84" } },
"features": [
	{ "type": "Feature", "properties": { "osm_id": "52841969", "amenity": "car_wash" }, "geometry": { "type": "Point", "coordinates": [ -1.551492, 53.8181282 ] } },
	{ "type": "Feature", "properties": { "osm_id": "301022564", "name": "All Hand Car Wash", "amenity": "car_wash" }, "geometry": { "type": "Point", "coordinates": [ -1.5980733, 53.8116806 ] } },
	{ "type": "Feature", "properties": { "osm_id": "301022571", "name": "Bruce's Drive-Through Hand Car Wash", "amenity": "car_wash" }, "geometry": { "type": "Point", "coordinates": [ -1.6003857, 53.8139346 ] } },
	{ "type": "Feature", "properties": { "osm_id": "349349936", "name": "Hand Car Wash", "amenity": "car_wash" }, "geometry": { "type": "Point", "coordinates": [ -1.6435729, 53.8069198 ] } },
	{ "type": "Feature", "properties": { "osm_id": "1873300019", "name": "Morley Hand Carwash", "amenity": "car_wash" }, "geometry": { "type": "Point", "coordinates": [ -1.6189449, 53.7410722 ] } },
	{ "type": "Feature", "properties": { "osm_id": "2881824666", "amenity": "car_wash" }, "geometry": { "type": "Point", "coordinates": [ -1.6224174, 53.7968753 ] } },
	{ "type": "Feature", "properties": { "osm_id": "3786773395", "amenity": "car_wash" }, "geometry": { "type": "Point", "coordinates": [ -1.6383478, 53.804203 ] } },
	{ "type": "Feature", "properties": { "osm_id": "3801400074", "amenity": "car_wash", "other_tags": "\"operator\"=>\"Morrisons\"" }, "geometry": { "type": "Point", "coordinates": [ -1.6031734, 53.8147984 ] } },
	{ "type": "Feature", "properties": { "osm_id": "3985365073", "name": "Tong Road Hand Car Wash", "amenity": "car_wash" }, "geometry": { "type": "Point", "coordinates": [ -1.5932184, 53.7938491 ] } },
	{ "type": "Feature", "properties": { "osm_id": "4474318125", "name": "Crossgates Hand Car Wash", "amenity": "car_wash" }, "geometry": { "type": "Point", "coordinates": [ -1.4537761, 53.8080011 ] } },
	{ "type": "Feature", "properties": { "osm_id": "6217574763", "amenity": "car_wash" }, "geometry": { "type": "Point", "coordinates": [ -1.4705248, 53.8402569 ] } },
	{ "type": "Feature", "properties": { "osm_id": "6311830376", "name": "Tesco Hand Car Wash", "amenity": "car_wash", "other_tags": "\"car_wash\"=>\"hand\"" }, "geometry": { "type": "Point", "coordinates": [ -1.4597362, 53.8217056 ] } },
	{ "type": "Feature", "properties": { "osm_id": "6311830377", "amenity": "car_wash", "other_tags": "\"car_wash\"=>\"jet_wash\"" }, "geometry": { "type": "Point", "coordinates": [ -1.4587935, 53.8213249 ] } },
	{ "type": "Feature", "properties": { "osm_id": "7707742401", "amenity": "car_wash" }, "geometry": { "type": "Point", "coordinates": [ -1.4788402, 53.804883 ] } },
	{ "type": "Feature", "properties": { "osm_id": "7707742402", "amenity": "car_wash" }, "geometry": { "type": "Point", "coordinates": [ -1.4787305, 53.804877 ] } }
]
}
