{
"type": "FeatureCollection",
"crs": { "type": "name", "properties": { "name": "urn:ogc:def:crs:OGC:1.3:CRS84" } },
"features": [
	{ "type": "Feature", "properties": { "osm_id": "27304019", "amenity": "parking" }, "geometry": { "type": "Point", "coordinates": [ -1.6981762, 53.8925819 ] } },
	{ "type": "Feature", "properties": { "osm_id": "27348280", "amenity": "parking" }, "geometry": { "type": "Point", "coordinates": [ -1.625011, 53.9015239 ] } },
	{ "type": "Feature", "properties": { "osm_id": "27463402", "amenity": "parking" }, "geometry": { "type": "Point", "coordinates": [ -1.3967336, 53.9300974 ] } },
	{ "type": "Feature", "properties": { "osm_id": "27467955", "name": "Arthington Parish Church", "amenity": "parking" }, "geometry": { "type": "Point", "coordinates": [ -1.5807316, 53.8979328 ] } },
	{ "type": "Feature", "properties": { "osm_id": "27476855", "name": "Lay by", "amenity": "parking" }, "geometry": { "type": "Point", "coordinates": [ -1.3955229, 53.9193583 ] } },
	{ "type": "Feature", "properties": { "osm_id": "27476858", "name": "Lay by", "amenity": "parking" }, "geometry": { "type": "Point", "coordinates": [ -1.3942237, 53.9212439 ] } },
	{ "type": "Feature", "properties": { "osm_id": "29048419", "amenity": "parking" }, "geometry": { "type": "Point", "coordinates": [ -1.7151633, 53.8758229 ] } },
	{ "type": "Feature", "properties": { "osm_id": "29563629", "amenity": "parking" }, "geometry": { "type": "Point", "coordinates": [ -1.3197466, 53.911237 ] } },
	{ "type": "Feature", "properties": { "osm_id": "32884124", "amenity": "parking" }, "geometry": { "type": "Point", "coordinates": [ -1.5637033, 53.857202 ] } },
	{ "type": "Feature", "properties": { "osm_id": "48900383", "amenity": "parking", "other_tags": "\"access\"=>\"private\"" }, "geometry": { "type": "Point", "coordinates": [ -1.6015541, 53.8167425 ] } },
	{ "type": "Feature", "properties": { "osm_id": "243731471", "amenity": "parking" }, "geometry": { "type": "Point", "coordinates": [ -1.5884984, 53.8241133 ] } },
	{ "type": "Feature", "properties": { "osm_id": "252743606", "amenity": "parking", "other_tags": "\"capacity:disabled\"=>\"yes\"" }, "geometry": { "type": "Point", "coordinates": [ -1.5699639, 53.8190084 ] } },
	{ "type": "Feature", "properties": { "osm_id": "252743630", "amenity": "parking" }, "geometry": { "type": "Point", "coordinates": [ -1.5689082, 53.8189678 ] } },
	{ "type": "Feature", "properties": { "osm_id": "253039537", "amenity": "parking" }, "geometry": { "type": "Point", "coordinates": [ -1.3869808, 53.9283636 ] } },
	{ "type": "Feature", "properties": { "osm_id": "296016791", "amenity": "parking" }, "geometry": { "type": "Point", "coordinates": [ -1.627237, 53.8059863 ] } },
	{ "type": "Feature", "properties": { "osm_id": "296020026", "amenity": "parking" }, "geometry": { "type": "Point", "coordinates": [ -1.6287962, 53.8119623 ] } },
	{ "type": "Feature", "properties": { "osm_id": "296021061", "amenity": "parking" }, "geometry": { "type": "Point", "coordinates": [ -1.6299515, 53.8124252 ] } },
	{ "type": "Feature", "properties": { "osm_id": "297824842", "amenity": "parking" }, "geometry": { "type": "Point", "coordinates": [ -1.6512458, 53.80988 ] } },
	{ "type": "Feature", "properties": { "osm_id": "298016817", "amenity": "parking" }, "geometry": { "type": "Point", "coordinates": [ -1.6319041, 53.8065981 ] } },
	{ "type": "Feature", "properties": { "osm_id": "298034076", "amenity": "parking", "other_tags": "\"access\"=>\"private\"" }, "geometry": { "type": "Point", "coordinates": [ -1.6315202, 53.8044335 ] } },
	{ "type": "Feature", "properties": { "osm_id": "298930364", "name": "Centre West", "amenity": "parking" }, "geometry": { "type": "Point", "coordinates": [ -1.5884389, 53.7981968 ] } },
	{ "type": "Feature", "properties": { "osm_id": "299171006", "amenity": "parking", "other_tags": "\"parking\"=>\"multi-storey\"" }, "geometry": { "type": "Point", "coordinates": [ -1.5452909, 53.8024491 ] } },
	{ "type": "Feature", "properties": { "osm_id": "299171010", "name": "St Johns Centre", "amenity": "parking", "other_tags": "\"parking\"=>\"multi-storey\",\"operator\"=>\"NCP\"" }, "geometry": { "type": "Point", "coordinates": [ -1.5435049, 53.8000796 ] } },
	{ "type": "Feature", "properties": { "osm_id": "299171013", "amenity": "parking", "other_tags": "\"parking\"=>\"multi-storey\"" }, "geometry": { "type": "Point", "coordinates": [ -1.542659, 53.802061 ] } },
	{ "type": "Feature", "properties": { "osm_id": "299378364", "amenity": "parking" }, "geometry": { "type": "Point", "coordinates": [ -1.6198438, 53.805643 ] } },
	{ "type": "Feature", "properties": { "osm_id": "299378393", "amenity": "parking", "other_tags": "\"access\"=>\"private\"" }, "geometry": { "type": "Point", "coordinates": [ -1.621696, 53.8054896 ] } },
	{ "type": "Feature", "properties": { "osm_id": "300678157", "amenity": "parking", "other_tags": "\"fee\"=>\"no\"" }, "geometry": { "type": "Point", "coordinates": [ -1.6341555, 53.8211485 ] } },
	{ "type": "Feature", "properties": { "osm_id": "302970633", "amenity": "parking" }, "geometry": { "type": "Point", "coordinates": [ -1.5778268, 53.8223515 ] } },
	{ "type": "Feature", "properties": { "osm_id": "306285198", "amenity": "parking" }, "geometry": { "type": "Point", "coordinates": [ -1.6121347, 53.8011239 ] } },
	{ "type": "Feature", "properties": { "osm_id": "317610015", "amenity": "parking" }, "geometry": { "type": "Point", "coordinates": [ -1.6453592, 53.8013141 ] } },
	{ "type": "Feature", "properties": { "osm_id": "334884591", "amenity": "parking" }, "geometry": { "type": "Point", "coordinates": [ -1.5820983, 53.806539 ] } },
	{ "type": "Feature", "properties": { "osm_id": "345177017", "name": "Lotherton Hall", "amenity": "parking", "other_tags": "\"fee\"=>\"yes\",\"parking\"=>\"surface\",\"capacity:disabled\"=>\"yes\"" }, "geometry": { "type": "Point", "coordinates": [ -1.3197423, 53.8194662 ] } },
	{ "type": "Feature", "properties": { "osm_id": "349355647", "amenity": "parking", "other_tags": "\"fee\"=>\"no\"" }, "geometry": { "type": "Point", "coordinates": [ -1.6570186, 53.8105653 ] } },
	{ "type": "Feature", "properties": { "osm_id": "357708663", "name": "Trinity Car Park", "amenity": "parking", "other_tags": "\"fee\"=>\"yes\",\"parking\"=>\"multi-storey\",\"operator\"=>\"NCP\",\"park_ride\"=>\"no\",\"supervised\"=>\"yes\",\"opening_hours\"=>\"24\/7\"" }, "geometry": { "type": "Point", "coordinates": [ -1.544521, 53.7950994 ] } },
	{ "type": "Feature", "properties": { "osm_id": "359659454", "amenity": "parking" }, "geometry": { "type": "Point", "coordinates": [ -1.6614968, 53.7975513 ] } },
	{ "type": "Feature", "properties": { "osm_id": "370083873", "amenity": "parking" }, "geometry": { "type": "Point", "coordinates": [ -1.4445811, 53.760008 ] } },
	{ "type": "Feature", "properties": { "osm_id": "402973026", "amenity": "parking" }, "geometry": { "type": "Point", "coordinates": [ -1.5814806, 53.7713731 ] } },
	{ "type": "Feature", "properties": { "osm_id": "410947738", "amenity": "parking" }, "geometry": { "type": "Point", "coordinates": [ -1.6431884, 53.7501325 ] } },
	{ "type": "Feature", "properties": { "osm_id": "410947755", "amenity": "parking" }, "geometry": { "type": "Point", "coordinates": [ -1.6492099, 53.751694 ] } },
	{ "type": "Feature", "properties": { "osm_id": "430953135", "amenity": "parking" }, "geometry": { "type": "Point", "coordinates": [ -1.6012805, 53.783019 ] } },
	{ "type": "Feature", "properties": { "osm_id": "430953136", "amenity": "parking" }, "geometry": { "type": "Point", "coordinates": [ -1.6024928, 53.7831196 ] } },
	{ "type": "Feature", "properties": { "osm_id": "442720667", "amenity": "parking" }, "geometry": { "type": "Point", "coordinates": [ -1.4681961, 53.7960654 ] } },
	{ "type": "Feature", "properties": { "osm_id": "448707808", "amenity": "parking" }, "geometry": { "type": "Point", "coordinates": [ -1.6896512, 53.8008592 ] } },
	{ "type": "Feature", "properties": { "osm_id": "505364603", "amenity": "parking" }, "geometry": { "type": "Point", "coordinates": [ -1.4282358, 53.8380362 ] } },
	{ "type": "Feature", "properties": { "osm_id": "755792332", "name": "Red Bus Lay-By", "amenity": "parking", "other_tags": "\"fee\"=>\"no\",\"parking\"=>\"surface\"" }, "geometry": { "type": "Point", "coordinates": [ -1.408457, 53.8475663 ] } },
	{ "type": "Feature", "properties": { "osm_id": "939233622", "amenity": "parking" }, "geometry": { "type": "Point", "coordinates": [ -1.455696, 53.8219516 ] } },
	{ "type": "Feature", "properties": { "osm_id": "940393854", "amenity": "parking" }, "geometry": { "type": "Point", "coordinates": [ -1.4632015, 53.8369572 ] } },
	{ "type": "Feature", "properties": { "osm_id": "941373724", "amenity": "parking" }, "geometry": { "type": "Point", "coordinates": [ -1.4430687, 53.8076355 ] } },
	{ "type": "Feature", "properties": { "osm_id": "964779170", "amenity": "parking" }, "geometry": { "type": "Point", "coordinates": [ -1.4750219, 53.7983837 ] } },
	{ "type": "Feature", "properties": { "osm_id": "988866913", "amenity": "parking" }, "geometry": { "type": "Point", "coordinates": [ -1.5365486, 53.8855058 ] } },
	{ "type": "Feature", "properties": { "osm_id": "989035885", "amenity": "parking", "other_tags": "\"access\"=>\"private\"" }, "geometry": { "type": "Point", "coordinates": [ -1.536706, 53.886759 ] } },
	{ "type": "Feature", "properties": { "osm_id": "989035888", "amenity": "parking", "other_tags": "\"access\"=>\"private\"" }, "geometry": { "type": "Point", "coordinates": [ -1.5375388, 53.8864686 ] } },
	{ "type": "Feature", "properties": { "osm_id": "1054924602", "amenity": "parking", "other_tags": "\"parking\"=>\"layby\"" }, "geometry": { "type": "Point", "coordinates": [ -1.7136131, 53.9042401 ] } },
	{ "type": "Feature", "properties": { "osm_id": "1111892121", "amenity": "parking" }, "geometry": { "type": "Point", "coordinates": [ -1.437194, 53.7981542 ] } },
	{ "type": "Feature", "properties": { "osm_id": "1164233047", "name": "Fernville Leisure Centre", "amenity": "parking" }, "geometry": { "type": "Point", "coordinates": [ -1.4878322, 53.8154119 ] } },
	{ "type": "Feature", "properties": { "osm_id": "1362178543", "amenity": "parking" }, "geometry": { "type": "Point", "coordinates": [ -1.6241663, 53.787354 ] } },
	{ "type": "Feature", "properties": { "osm_id": "1379104250", "amenity": "parking", "other_tags": "\"parking\"=>\"layby\"" }, "geometry": { "type": "Point", "coordinates": [ -1.6966043, 53.9004412 ] } },
	{ "type": "Feature", "properties": { "osm_id": "1379104286", "amenity": "parking", "other_tags": "\"parking\"=>\"layby\"" }, "geometry": { "type": "Point", "coordinates": [ -1.7268429, 53.9095477 ] } },
	{ "type": "Feature", "properties": { "osm_id": "1510489205", "amenity": "parking" }, "geometry": { "type": "Point", "coordinates": [ -1.5044387, 53.8830672 ] } },
	{ "type": "Feature", "properties": { "osm_id": "1510489222", "amenity": "parking" }, "geometry": { "type": "Point", "coordinates": [ -1.4988222, 53.8811478 ] } },
	{ "type": "Feature", "properties": { "osm_id": "1518686243", "amenity": "parking" }, "geometry": { "type": "Point", "coordinates": [ -1.6078, 53.8147449 ] } },
	{ "type": "Feature", "properties": { "osm_id": "1518686712", "amenity": "parking" }, "geometry": { "type": "Point", "coordinates": [ -1.6243245, 53.8207001 ] } },
	{ "type": "Feature", "properties": { "osm_id": "1562969291", "amenity": "parking", "other_tags": "\"access\"=>\"customers\",\"fee\"=>\"no\",\"parking\"=>\"surface\"" }, "geometry": { "type": "Point", "coordinates": [ -1.5542396, 53.8213808 ] } },
	{ "type": "Feature", "properties": { "osm_id": "1594779763", "amenity": "parking" }, "geometry": { "type": "Point", "coordinates": [ -1.4244457, 53.8287757 ] } },
	{ "type": "Feature", "properties": { "osm_id": "1603719430", "amenity": "parking" }, "geometry": { "type": "Point", "coordinates": [ -1.4285602, 53.8376484 ] } },
	{ "type": "Feature", "properties": { "osm_id": "1606531371", "amenity": "parking" }, "geometry": { "type": "Point", "coordinates": [ -1.4297154, 53.8309165 ] } },
	{ "type": "Feature", "properties": { "osm_id": "1606587524", "amenity": "parking" }, "geometry": { "type": "Point", "coordinates": [ -1.4243168, 53.8246313 ] } },
	{ "type": "Feature", "properties": { "osm_id": "1606587681", "amenity": "parking" }, "geometry": { "type": "Point", "coordinates": [ -1.4238926, 53.8236359 ] } },
	{ "type": "Feature", "properties": { "osm_id": "1606587829", "amenity": "parking" }, "geometry": { "type": "Point", "coordinates": [ -1.4254245, 53.8228363 ] } },
	{ "type": "Feature", "properties": { "osm_id": "1607337024", "amenity": "parking" }, "geometry": { "type": "Point", "coordinates": [ -1.4457633, 53.8138426 ] } },
	{ "type": "Feature", "properties": { "osm_id": "1607347381", "amenity": "parking" }, "geometry": { "type": "Point", "coordinates": [ -1.4303072, 53.8262512 ] } },
	{ "type": "Feature", "properties": { "osm_id": "1607443373", "amenity": "parking" }, "geometry": { "type": "Point", "coordinates": [ -1.4306172, 53.8296662 ] } },
	{ "type": "Feature", "properties": { "osm_id": "1607453710", "amenity": "parking" }, "geometry": { "type": "Point", "coordinates": [ -1.4276587, 53.8373906 ] } },
	{ "type": "Feature", "properties": { "osm_id": "1625175314", "amenity": "parking" }, "geometry": { "type": "Point", "coordinates": [ -1.4262615, 53.8255576 ] } },
	{ "type": "Feature", "properties": { "osm_id": "1700851986", "amenity": "parking" }, "geometry": { "type": "Point", "coordinates": [ -1.5361833, 53.8856668 ] } },
	{ "type": "Feature", "properties": { "osm_id": "1723080645", "name": "cheerful chili parking", "amenity": "parking", "other_tags": "\"parking\"=>\"surface\",\"capacity\"=>\"7\"" }, "geometry": { "type": "Point", "coordinates": [ -1.671231, 53.8933672 ] } },
	{ "type": "Feature", "properties": { "osm_id": "2091633420", "amenity": "parking", "other_tags": "\"layer\"=>\"-1\",\"parking\"=>\"underground\"" }, "geometry": { "type": "Point", "coordinates": [ -1.3832653, 53.7972006 ] } },
	{ "type": "Feature", "properties": { "osm_id": "2145561747", "amenity": "parking" }, "geometry": { "type": "Point", "coordinates": [ -1.544757, 53.7983475 ] } },
	{ "type": "Feature", "properties": { "osm_id": "2145676788", "amenity": "parking", "other_tags": "\"wheelchair\"=>\"yes\"" }, "geometry": { "type": "Point", "coordinates": [ -1.5460544, 53.7979922 ] } },
	{ "type": "Feature", "properties": { "osm_id": "2238279527", "amenity": "parking", "other_tags": "\"parking\"=>\"layby\"" }, "geometry": { "type": "Point", "coordinates": [ -1.5687618, 53.7441402 ] } },
	{ "type": "Feature", "properties": { "osm_id": "2656045704", "amenity": "parking" }, "geometry": { "type": "Point", "coordinates": [ -1.5384591, 53.8868515 ] } },
	{ "type": "Feature", "properties": { "osm_id": "2656045762", "amenity": "parking" }, "geometry": { "type": "Point", "coordinates": [ -1.5411176, 53.887767 ] } },
	{ "type": "Feature", "properties": { "osm_id": "2882993106", "amenity": "parking" }, "geometry": { "type": "Point", "coordinates": [ -1.3461121, 53.7426148 ] } },
	{ "type": "Feature", "properties": { "osm_id": "2909109595", "name": "Parking - Church of St John the Baptist", "amenity": "parking", "other_tags": "\"parking\"=>\"surface\"" }, "geometry": { "type": "Point", "coordinates": [ -1.5853753, 53.8574815 ] } },
	{ "type": "Feature", "properties": { "osm_id": "3291173098", "amenity": "parking", "other_tags": "\"parking\"=>\"surface\"" }, "geometry": { "type": "Point", "coordinates": [ -1.5586836, 53.7977785 ] } },
	{ "type": "Feature", "properties": { "osm_id": "3370797544", "amenity": "parking", "other_tags": "\"parking\"=>\"layby\"" }, "geometry": { "type": "Point", "coordinates": [ -1.4707944, 53.9006343 ] } },
	{ "type": "Feature", "properties": { "osm_id": "3370797546", "amenity": "parking", "other_tags": "\"parking\"=>\"layby\"" }, "geometry": { "type": "Point", "coordinates": [ -1.47831, 53.9006153 ] } },
	{ "type": "Feature", "properties": { "osm_id": "3393775167", "name": "Rose Bowl", "amenity": "parking", "other_tags": "\"capacity\"=>\"200\",\"layer\"=>\"-1\",\"operator\"=>\"Leeds Beckett University\",\"parking\"=>\"underground\",\"park_ride\"=>\"no\"" }, "geometry": { "type": "Point", "coordinates": [ -1.5472181, 53.8030277 ] } },
	{ "type": "Feature", "properties": { "osm_id": "3613933551", "amenity": "parking" }, "geometry": { "type": "Point", "coordinates": [ -1.4381952, 53.8136338 ] } },
	{ "type": "Feature", "properties": { "osm_id": "4243961204", "amenity": "parking" }, "geometry": { "type": "Point", "coordinates": [ -1.5613007, 53.8140977 ] } }
]
}
