{
"type": "FeatureCollection",
"crs": { "type": "name", "properties": { "name": "urn:ogc:def:crs:OGC:1.3:CRS84" } },
"features": [
	{ "type": "Feature", "properties": { "osm_id": "496716191", "name": "Dewsbury Road Topcliffe Lane", "amenity": "waste_basket", "highway": "bus_stop", "other_tags": "\"kerb\"=>\"raised\",\"layby\"=>\"yes\",\"shelter\"=>\"no\",\"local_ref\"=>\"45011331\",\"timetable\"=>\"yes\",\"naptan:Street\"=>\"Dewsbury Road\",\"naptan:Bearing\"=>\"NE\",\"naptan:AtcoCode\"=>\"450011331\",\"naptan:Crossing\"=>\"Topcliffe Lane\",\"naptan:Landmark\"=>\"Business Park\",\"naptan:verified\"=>\"yes\",\"naptan:Indicator\"=>\"Stop 45011331\",\"naptan:CommonName\"=>\"Dewsbury Road Topcliffe Lane\",\"naptan:PlusbusZoneRef\"=>\"LEEDS\",\"naptan:ShortCommonName\"=>\"Topcliffe Lane\"" }, "geometry": { "type": "Point", "coordinates": [ -1.5749275, 53.7363936 ] } },
	{ "type": "Feature", "properties": { "osm_id": "496718858", "name": "Harrogate Road \/ Chapeltown", "amenity": "waste_basket", "highway": "bus_stop", "other_tags": "\"shelter\"=>\"no\",\"local_ref\"=>\"45013618\",\"naptan:Street\"=>\"Harrogate Road\",\"naptan:Bearing\"=>\"SE\",\"naptan:AtcoCode\"=>\"450013618\",\"naptan:Crossing\"=>\"Ingle Row\",\"naptan:Landmark\"=>\"Parade of Shops\",\"naptan:verified\"=>\"no\",\"naptan:Indicator\"=>\"Stop 45013618\",\"naptan:CommonName\"=>\"Harrogate Road Chapeltown\",\"naptan:PlusbusZoneRef\"=>\"LEEDS\",\"naptan:ShortCommonName\"=>\"Ingle Row\"" }, "geometry": { "type": "Point", "coordinates": [ -1.5374867, 53.8284302 ] } },
	{ "type": "Feature", "properties": { "osm_id": "886838463", "amenity": "waste_basket" }, "geometry": { "type": "Point", "coordinates": [ -1.5069457, 53.830024 ] } },
	{ "type": "Feature", "properties": { "osm_id": "886838475", "amenity": "waste_basket" }, "geometry": { "type": "Point", "coordinates": [ -1.508669, 53.8351329 ] } },
	{ "type": "Feature", "properties": { "osm_id": "886838554", "amenity": "waste_basket" }, "geometry": { "type": "Point", "coordinates": [ -1.5079163, 53.8308358 ] } },
	{ "type": "Feature", "properties": { "osm_id": "886838614", "amenity": "waste_basket" }, "geometry": { "type": "Point", "coordinates": [ -1.506761, 53.8328544 ] } },
	{ "type": "Feature", "properties": { "osm_id": "988159081", "amenity": "waste_basket" }, "geometry": { "type": "Point", "coordinates": [ -1.4993233, 53.8390984 ] } },
	{ "type": "Feature", "properties": { "osm_id": "988159092", "amenity": "waste_basket" }, "geometry": { "type": "Point", "coordinates": [ -1.5038662, 53.8380064 ] } },
	{ "type": "Feature", "properties": { "osm_id": "988159123", "amenity": "waste_basket" }, "geometry": { "type": "Point", "coordinates": [ -1.5042301, 53.8377544 ] } },
	{ "type": "Feature", "properties": { "osm_id": "988159131", "amenity": "waste_basket" }, "geometry": { "type": "Point", "coordinates": [ -1.4973159, 53.8412834 ] } },
	{ "type": "Feature", "properties": { "osm_id": "988159134", "amenity": "waste_basket" }, "geometry": { "type": "Point", "coordinates": [ -1.4973762, 53.8400363 ] } },
	{ "type": "Feature", "properties": { "osm_id": "988159155", "amenity": "waste_basket" }, "geometry": { "type": "Point", "coordinates": [ -1.4988253, 53.8407174 ] } },
	{ "type": "Feature", "properties": { "osm_id": "988159164", "amenity": "waste_basket" }, "geometry": { "type": "Point", "coordinates": [ -1.4961708, 53.8409283 ] } },
	{ "type": "Feature", "properties": { "osm_id": "988159169", "amenity": "waste_basket" }, "geometry": { "type": "Point", "coordinates": [ -1.5035609, 53.838228 ] } },
	{ "type": "Feature", "properties": { "osm_id": "988159252", "amenity": "waste_basket" }, "geometry": { "type": "Point", "coordinates": [ -1.4962376, 53.8397804 ] } },
	{ "type": "Feature", "properties": { "osm_id": "988714549", "amenity": "waste_basket" }, "geometry": { "type": "Point", "coordinates": [ -1.498088, 53.8397438 ] } },
	{ "type": "Feature", "properties": { "osm_id": "988923258", "amenity": "waste_basket" }, "geometry": { "type": "Point", "coordinates": [ -1.5061358, 53.8399185 ] } },
	{ "type": "Feature", "properties": { "osm_id": "989067341", "amenity": "waste_basket" }, "geometry": { "type": "Point", "coordinates": [ -1.532211, 53.8429905 ] } },
	{ "type": "Feature", "properties": { "osm_id": "989067371", "amenity": "waste_basket" }, "geometry": { "type": "Point", "coordinates": [ -1.5550819, 53.8309836 ] } },
	{ "type": "Feature", "properties": { "osm_id": "989067385", "amenity": "waste_basket" }, "geometry": { "type": "Point", "coordinates": [ -1.5373125, 53.8282152 ] } },
	{ "type": "Feature", "properties": { "osm_id": "989067485", "amenity": "waste_basket" }, "geometry": { "type": "Point", "coordinates": [ -1.5319043, 53.8200154 ] } },
	{ "type": "Feature", "properties": { "osm_id": "1428145481", "amenity": "waste_basket" }, "geometry": { "type": "Point", "coordinates": [ -1.5434808, 53.8451778 ] } },
	{ "type": "Feature", "properties": { "osm_id": "1428534318", "amenity": "waste_basket" }, "geometry": { "type": "Point", "coordinates": [ -1.5437593, 53.8390068 ] } },
	{ "type": "Feature", "properties": { "osm_id": "2101532104", "amenity": "waste_basket", "other_tags": "\"addr:city\"=>\"Leeds\",\"addr:street\"=>\"Trevelyan Square\"" }, "geometry": { "type": "Point", "coordinates": [ -1.5441943, 53.7953035 ] } },
	{ "type": "Feature", "properties": { "osm_id": "2354678137", "amenity": "waste_basket" }, "geometry": { "type": "Point", "coordinates": [ -1.5667592, 53.8213851 ] } },
	{ "type": "Feature", "properties": { "osm_id": "2354678138", "amenity": "waste_basket" }, "geometry": { "type": "Point", "coordinates": [ -1.5641843, 53.8199063 ] } },
	{ "type": "Feature", "properties": { "osm_id": "2596692592", "amenity": "waste_basket" }, "geometry": { "type": "Point", "coordinates": [ -1.567086, 53.8284902 ] } },
	{ "type": "Feature", "properties": { "osm_id": "2596692599", "amenity": "waste_basket" }, "geometry": { "type": "Point", "coordinates": [ -1.5671034, 53.8283743 ] } },
	{ "type": "Feature", "properties": { "osm_id": "2596692604", "amenity": "waste_basket" }, "geometry": { "type": "Point", "coordinates": [ -1.5670223, 53.8284107 ] } },
	{ "type": "Feature", "properties": { "osm_id": "2939679190", "amenity": "waste_basket" }, "geometry": { "type": "Point", "coordinates": [ -1.6072219, 53.8215489 ] } },
	{ "type": "Feature", "properties": { "osm_id": "2978099686", "amenity": "waste_basket" }, "geometry": { "type": "Point", "coordinates": [ -1.637737, 53.7874471 ] } },
	{ "type": "Feature", "properties": { "osm_id": "3222499262", "amenity": "waste_basket" }, "geometry": { "type": "Point", "coordinates": [ -1.5655065, 53.809795 ] } },
	{ "type": "Feature", "properties": { "osm_id": "3222499263", "amenity": "waste_basket" }, "geometry": { "type": "Point", "coordinates": [ -1.5652462, 53.8108082 ] } },
	{ "type": "Feature", "properties": { "osm_id": "3222499266", "amenity": "waste_basket" }, "geometry": { "type": "Point", "coordinates": [ -1.5635164, 53.812246 ] } },
	{ "type": "Feature", "properties": { "osm_id": "3222499267", "amenity": "waste_basket", "other_tags": "\"waste\"=>\"dog_excrement\"" }, "geometry": { "type": "Point", "coordinates": [ -1.5623779, 53.8139419 ] } },
	{ "type": "Feature", "properties": { "osm_id": "3222499361", "amenity": "waste_basket" }, "geometry": { "type": "Point", "coordinates": [ -1.5637672, 53.8125079 ] } },
	{ "type": "Feature", "properties": { "osm_id": "3222499362", "amenity": "waste_basket", "other_tags": "\"waste\"=>\"dog_excrement\"" }, "geometry": { "type": "Point", "coordinates": [ -1.5633823, 53.8121599 ] } },
	{ "type": "Feature", "properties": { "osm_id": "3222499561", "amenity": "waste_basket" }, "geometry": { "type": "Point", "coordinates": [ -1.563434, 53.8124784 ] } },
	{ "type": "Feature", "properties": { "osm_id": "3222499661", "amenity": "waste_basket" }, "geometry": { "type": "Point", "coordinates": [ -1.5621573, 53.8136303 ] } },
	{ "type": "Feature", "properties": { "osm_id": "3222499861", "amenity": "waste_basket" }, "geometry": { "type": "Point", "coordinates": [ -1.5620868, 53.8139791 ] } },
	{ "type": "Feature", "properties": { "osm_id": "3223342561", "amenity": "waste_basket", "other_tags": "\"waste\"=>\"dog_excrement\"" }, "geometry": { "type": "Point", "coordinates": [ -1.5635737, 53.8125271 ] } },
	{ "type": "Feature", "properties": { "osm_id": "3225905505", "amenity": "waste_basket" }, "geometry": { "type": "Point", "coordinates": [ -1.5700683, 53.8121069 ] } },
	{ "type": "Feature", "properties": { "osm_id": "3225905509", "amenity": "waste_basket" }, "geometry": { "type": "Point", "coordinates": [ -1.5767608, 53.8123719 ] } },
	{ "type": "Feature", "properties": { "osm_id": "3225929361", "amenity": "waste_basket" }, "geometry": { "type": "Point", "coordinates": [ -1.5639693, 53.8093053 ] } },
	{ "type": "Feature", "properties": { "osm_id": "3225929363", "amenity": "waste_basket" }, "geometry": { "type": "Point", "coordinates": [ -1.5684494, 53.8125534 ] } },
	{ "type": "Feature", "properties": { "osm_id": "3225929364", "amenity": "waste_basket" }, "geometry": { "type": "Point", "coordinates": [ -1.5688897, 53.8124207 ] } },
	{ "type": "Feature", "properties": { "osm_id": "3225929365", "amenity": "waste_basket" }, "geometry": { "type": "Point", "coordinates": [ -1.5758103, 53.8114134 ] } },
	{ "type": "Feature", "properties": { "osm_id": "3225929461", "amenity": "waste_basket" }, "geometry": { "type": "Point", "coordinates": [ -1.5650361, 53.8097453 ] } },
	{ "type": "Feature", "properties": { "osm_id": "3225929462", "amenity": "waste_basket" }, "geometry": { "type": "Point", "coordinates": [ -1.5690417, 53.8123921 ] } },
	{ "type": "Feature", "properties": { "osm_id": "3225929561", "amenity": "waste_basket" }, "geometry": { "type": "Point", "coordinates": [ -1.5651184, 53.809769 ] } },
	{ "type": "Feature", "properties": { "osm_id": "3225929562", "amenity": "waste_basket" }, "geometry": { "type": "Point", "coordinates": [ -1.5659323, 53.8099977 ] } },
	{ "type": "Feature", "properties": { "osm_id": "3225929563", "amenity": "waste_basket" }, "geometry": { "type": "Point", "coordinates": [ -1.5699414, 53.8105457 ] } },
	{ "type": "Feature", "properties": { "osm_id": "3225929566", "amenity": "waste_basket" }, "geometry": { "type": "Point", "coordinates": [ -1.5693345, 53.8121836 ] } },
	{ "type": "Feature", "properties": { "osm_id": "3225929662", "amenity": "waste_basket" }, "geometry": { "type": "Point", "coordinates": [ -1.5686429, 53.8124967 ] } },
	{ "type": "Feature", "properties": { "osm_id": "3715039712", "amenity": "waste_basket" }, "geometry": { "type": "Point", "coordinates": [ -1.6698061, 53.8661274 ] } },
	{ "type": "Feature", "properties": { "osm_id": "3715221480", "amenity": "waste_basket" }, "geometry": { "type": "Point", "coordinates": [ -1.6831657, 53.8554119 ] } },
	{ "type": "Feature", "properties": { "osm_id": "3715223365", "amenity": "waste_basket" }, "geometry": { "type": "Point", "coordinates": [ -1.6839056, 53.8548904 ] } },
	{ "type": "Feature", "properties": { "osm_id": "3716915901", "amenity": "waste_basket" }, "geometry": { "type": "Point", "coordinates": [ -1.6819567, 53.8656046 ] } },
	{ "type": "Feature", "properties": { "osm_id": "3716946390", "amenity": "waste_basket" }, "geometry": { "type": "Point", "coordinates": [ -1.6814665, 53.8660799 ] } },
	{ "type": "Feature", "properties": { "osm_id": "3718210821", "amenity": "waste_basket" }, "geometry": { "type": "Point", "coordinates": [ -1.6848169, 53.8660331 ] } },
	{ "type": "Feature", "properties": { "osm_id": "3718213594", "amenity": "waste_basket" }, "geometry": { "type": "Point", "coordinates": [ -1.6853935, 53.8660592 ] } },
	{ "type": "Feature", "properties": { "osm_id": "3736656492", "amenity": "waste_basket", "other_tags": "\"waste\"=>\"dog_excrement\"" }, "geometry": { "type": "Point", "coordinates": [ -1.6368963, 53.8264775 ] } },
	{ "type": "Feature", "properties": { "osm_id": "3887608948", "amenity": "waste_basket" }, "geometry": { "type": "Point", "coordinates": [ -1.5456312, 53.8034574 ] } },
	{ "type": "Feature", "properties": { "osm_id": "3887608949", "amenity": "waste_basket" }, "geometry": { "type": "Point", "coordinates": [ -1.5453393, 53.8032919 ] } },
	{ "type": "Feature", "properties": { "osm_id": "3887608950", "amenity": "waste_basket" }, "geometry": { "type": "Point", "coordinates": [ -1.5452319, 53.8036849 ] } },
	{ "type": "Feature", "properties": { "osm_id": "3887608951", "amenity": "waste_basket" }, "geometry": { "type": "Point", "coordinates": [ -1.5449727, 53.8035415 ] } },
	{ "type": "Feature", "properties": { "osm_id": "3925712005", "amenity": "waste_basket" }, "geometry": { "type": "Point", "coordinates": [ -1.6325053, 53.759235 ] } },
	{ "type": "Feature", "properties": { "osm_id": "4203189935", "amenity": "waste_basket" }, "geometry": { "type": "Point", "coordinates": [ -1.5634583, 53.8357558 ] } },
	{ "type": "Feature", "properties": { "osm_id": "4203189936", "amenity": "waste_basket", "other_tags": "\"waste\"=>\"dog_excrement\"" }, "geometry": { "type": "Point", "coordinates": [ -1.5644185, 53.8360855 ] } },
	{ "type": "Feature", "properties": { "osm_id": "4203189938", "amenity": "waste_basket", "other_tags": "\"waste\"=>\"dog_excrement\"" }, "geometry": { "type": "Point", "coordinates": [ -1.5689129, 53.8373232 ] } },
	{ "type": "Feature", "properties": { "osm_id": "4203189939", "amenity": "waste_basket" }, "geometry": { "type": "Point", "coordinates": [ -1.5703292, 53.8375614 ] } },
	{ "type": "Feature", "properties": { "osm_id": "4203189941", "amenity": "waste_basket", "other_tags": "\"waste\"=>\"dog_excrement\"" }, "geometry": { "type": "Point", "coordinates": [ -1.5715093, 53.8375946 ] } },
	{ "type": "Feature", "properties": { "osm_id": "4209816017", "amenity": "waste_basket" }, "geometry": { "type": "Point", "coordinates": [ -1.5752413, 53.8330917 ] } },
	{ "type": "Feature", "properties": { "osm_id": "4209816019", "amenity": "waste_basket", "other_tags": "\"waste\"=>\"dog_excrement\"" }, "geometry": { "type": "Point", "coordinates": [ -1.5743669, 53.8312651 ] } },
	{ "type": "Feature", "properties": { "osm_id": "4209816024", "amenity": "waste_basket" }, "geometry": { "type": "Point", "coordinates": [ -1.573815, 53.8307888 ] } },
	{ "type": "Feature", "properties": { "osm_id": "4214304893", "amenity": "waste_basket", "other_tags": "\"waste\"=>\"dog_excrement\"" }, "geometry": { "type": "Point", "coordinates": [ -1.576137, 53.833915 ] } },
	{ "type": "Feature", "properties": { "osm_id": "4214304896", "amenity": "waste_basket" }, "geometry": { "type": "Point", "coordinates": [ -1.5756689, 53.8341752 ] } },
	{ "type": "Feature", "properties": { "osm_id": "4214304897", "amenity": "waste_basket", "other_tags": "\"waste\"=>\"dog_excrement\"" }, "geometry": { "type": "Point", "coordinates": [ -1.5770726, 53.8354854 ] } },
	{ "type": "Feature", "properties": { "osm_id": "4214304898", "amenity": "waste_basket", "other_tags": "\"waste\"=>\"dog_excrement\"" }, "geometry": { "type": "Point", "coordinates": [ -1.5764423, 53.8329877 ] } },
	{ "type": "Feature", "properties": { "osm_id": "4214304900", "amenity": "waste_basket", "other_tags": "\"waste\"=>\"dog_excrement\"" }, "geometry": { "type": "Point", "coordinates": [ -1.5761258, 53.8314095 ] } },
	{ "type": "Feature", "properties": { "osm_id": "4214304902", "amenity": "waste_basket" }, "geometry": { "type": "Point", "coordinates": [ -1.5747417, 53.8313826 ] } },
	{ "type": "Feature", "properties": { "osm_id": "4214304903", "amenity": "waste_basket" }, "geometry": { "type": "Point", "coordinates": [ -1.5743394, 53.830914 ] } },
	{ "type": "Feature", "properties": { "osm_id": "4214393628", "amenity": "waste_basket" }, "geometry": { "type": "Point", "coordinates": [ -1.5711727, 53.836182 ] } },
	{ "type": "Feature", "properties": { "osm_id": "4214420527", "amenity": "waste_basket" }, "geometry": { "type": "Point", "coordinates": [ -1.5662192, 53.8332217 ] } },
	{ "type": "Feature", "properties": { "osm_id": "4214420529", "amenity": "waste_basket" }, "geometry": { "type": "Point", "coordinates": [ -1.5676254, 53.8293296 ] } },
	{ "type": "Feature", "properties": { "osm_id": "4214420530", "amenity": "waste_basket" }, "geometry": { "type": "Point", "coordinates": [ -1.5670587, 53.8290033 ] } },
	{ "type": "Feature", "properties": { "osm_id": "4214420531", "amenity": "waste_basket" }, "geometry": { "type": "Point", "coordinates": [ -1.5671131, 53.82905 ] } },
	{ "type": "Feature", "properties": { "osm_id": "4214420532", "amenity": "waste_basket" }, "geometry": { "type": "Point", "coordinates": [ -1.5669783, 53.8287334 ] } },
	{ "type": "Feature", "properties": { "osm_id": "4214420533", "amenity": "waste_basket" }, "geometry": { "type": "Point", "coordinates": [ -1.5668958, 53.828657 ] } },
	{ "type": "Feature", "properties": { "osm_id": "4214420536", "amenity": "waste_basket" }, "geometry": { "type": "Point", "coordinates": [ -1.574374, 53.8317608 ] } },
	{ "type": "Feature", "properties": { "osm_id": "4214420537", "amenity": "waste_basket", "other_tags": "\"waste\"=>\"dog_excrement\"" }, "geometry": { "type": "Point", "coordinates": [ -1.5744571, 53.8325475 ] } },
	{ "type": "Feature", "properties": { "osm_id": "4361248190", "amenity": "waste_basket" }, "geometry": { "type": "Point", "coordinates": [ -1.5322227, 53.7983293 ] } },
	{ "type": "Feature", "properties": { "osm_id": "4361248191", "amenity": "waste_basket" }, "geometry": { "type": "Point", "coordinates": [ -1.5322715, 53.7981709 ] } },
	{ "type": "Feature", "properties": { "osm_id": "4361248192", "amenity": "waste_basket" }, "geometry": { "type": "Point", "coordinates": [ -1.5322756, 53.7982525 ] } },
	{ "type": "Feature", "properties": { "osm_id": "4361248194", "amenity": "waste_basket" }, "geometry": { "type": "Point", "coordinates": [ -1.5321739, 53.798459 ] } },
	{ "type": "Feature", "properties": { "osm_id": "4362453635", "amenity": "waste_basket" }, "geometry": { "type": "Point", "coordinates": [ -1.5371581, 53.795251 ] } },
	{ "type": "Feature", "properties": { "osm_id": "4362557276", "amenity": "waste_basket" }, "geometry": { "type": "Point", "coordinates": [ -1.5393189, 53.7964889 ] } },
	{ "type": "Feature", "properties": { "osm_id": "4362565016", "amenity": "waste_basket" }, "geometry": { "type": "Point", "coordinates": [ -1.5489298, 53.8016142 ] } },
	{ "type": "Feature", "properties": { "osm_id": "4401401653", "amenity": "waste_basket" }, "geometry": { "type": "Point", "coordinates": [ -1.5682598, 53.8036982 ] } },
	{ "type": "Feature", "properties": { "osm_id": "4434225670", "amenity": "waste_basket" }, "geometry": { "type": "Point", "coordinates": [ -1.554667, 53.799251 ] } },
	{ "type": "Feature", "properties": { "osm_id": "4434225671", "amenity": "waste_basket" }, "geometry": { "type": "Point", "coordinates": [ -1.5539943, 53.7979986 ] } },
	{ "type": "Feature", "properties": { "osm_id": "4547492474", "amenity": "waste_basket" }, "geometry": { "type": "Point", "coordinates": [ -1.552555, 53.8084611 ] } },
	{ "type": "Feature", "properties": { "osm_id": "4598588889", "amenity": "waste_basket" }, "geometry": { "type": "Point", "coordinates": [ -1.6550033, 53.8220626 ] } },
	{ "type": "Feature", "properties": { "osm_id": "4598588895", "amenity": "waste_basket" }, "geometry": { "type": "Point", "coordinates": [ -1.6628741, 53.8238416 ] } },
	{ "type": "Feature", "properties": { "osm_id": "4598588896", "amenity": "waste_basket" }, "geometry": { "type": "Point", "coordinates": [ -1.6630078, 53.8239816 ] } },
	{ "type": "Feature", "properties": { "osm_id": "4598588897", "amenity": "waste_basket", "other_tags": "\"waste\"=>\"dog_excrement\"" }, "geometry": { "type": "Point", "coordinates": [ -1.663322, 53.825254 ] } },
	{ "type": "Feature", "properties": { "osm_id": "4598588898", "amenity": "waste_basket" }, "geometry": { "type": "Point", "coordinates": [ -1.6638698, 53.8263386 ] } },
	{ "type": "Feature", "properties": { "osm_id": "4621501498", "amenity": "waste_basket" }, "geometry": { "type": "Point", "coordinates": [ -1.5553851, 53.8001182 ] } },
	{ "type": "Feature", "properties": { "osm_id": "4634376289", "amenity": "waste_basket" }, "geometry": { "type": "Point", "coordinates": [ -1.6211396, 53.7954016 ] } },
	{ "type": "Feature", "properties": { "osm_id": "4735892634", "amenity": "waste_basket" }, "geometry": { "type": "Point", "coordinates": [ -1.6097491, 53.7853886 ] } },
	{ "type": "Feature", "properties": { "osm_id": "4735892637", "amenity": "waste_basket" }, "geometry": { "type": "Point", "coordinates": [ -1.6098167, 53.7855169 ] } },
	{ "type": "Feature", "properties": { "osm_id": "4740732703", "amenity": "waste_basket" }, "geometry": { "type": "Point", "coordinates": [ -1.5577073, 53.7990433 ] } },
	{ "type": "Feature", "properties": { "osm_id": "4903543133", "amenity": "waste_basket" }, "geometry": { "type": "Point", "coordinates": [ -1.4870413, 53.741125 ] } },
	{ "type": "Feature", "properties": { "osm_id": "4903543134", "amenity": "waste_basket" }, "geometry": { "type": "Point", "coordinates": [ -1.4867046, 53.7409108 ] } },
	{ "type": "Feature", "properties": { "osm_id": "4903543135", "amenity": "waste_basket" }, "geometry": { "type": "Point", "coordinates": [ -1.4907852, 53.7400742 ] } },
	{ "type": "Feature", "properties": { "osm_id": "4903543136", "amenity": "waste_basket" }, "geometry": { "type": "Point", "coordinates": [ -1.4900325, 53.7406097 ] } },
	{ "type": "Feature", "properties": { "osm_id": "4903543137", "amenity": "waste_basket" }, "geometry": { "type": "Point", "coordinates": [ -1.4901788, 53.7409548 ] } },
	{ "type": "Feature", "properties": { "osm_id": "4909235621", "amenity": "waste_basket" }, "geometry": { "type": "Point", "coordinates": [ -1.6137807, 53.804175 ] } },
	{ "type": "Feature", "properties": { "osm_id": "4909506259", "amenity": "waste_basket" }, "geometry": { "type": "Point", "coordinates": [ -1.5957747, 53.8015162 ] } },
	{ "type": "Feature", "properties": { "osm_id": "5194913959", "amenity": "waste_basket" }, "geometry": { "type": "Point", "coordinates": [ -1.6015793, 53.7456972 ] } },
	{ "type": "Feature", "properties": { "osm_id": "5218896691", "amenity": "waste_basket" }, "geometry": { "type": "Point", "coordinates": [ -1.6029753, 53.7451428 ] } },
	{ "type": "Feature", "properties": { "osm_id": "5474949833", "amenity": "waste_basket" }, "geometry": { "type": "Point", "coordinates": [ -1.5453645, 53.7527001 ] } },
	{ "type": "Feature", "properties": { "osm_id": "5475771241", "amenity": "waste_basket" }, "geometry": { "type": "Point", "coordinates": [ -1.7072006, 53.8720085 ] } },
	{ "type": "Feature", "properties": { "osm_id": "5475771243", "amenity": "waste_basket" }, "geometry": { "type": "Point", "coordinates": [ -1.7128506, 53.8742311 ] } },
	{ "type": "Feature", "properties": { "osm_id": "5506378769", "amenity": "waste_basket" }, "geometry": { "type": "Point", "coordinates": [ -1.5342276, 53.7984465 ] } },
	{ "type": "Feature", "properties": { "osm_id": "5506378771", "amenity": "waste_basket" }, "geometry": { "type": "Point", "coordinates": [ -1.5338735, 53.7983823 ] } },
	{ "type": "Feature", "properties": { "osm_id": "5506378794", "amenity": "waste_basket" }, "geometry": { "type": "Point", "coordinates": [ -1.5332348, 53.7973114 ] } },
	{ "type": "Feature", "properties": { "osm_id": "5512423009", "amenity": "waste_basket" }, "geometry": { "type": "Point", "coordinates": [ -1.5497214, 53.8033675 ] } },
	{ "type": "Feature", "properties": { "osm_id": "5602347323", "amenity": "waste_basket", "other_tags": "\"waste\"=>\"trash\"" }, "geometry": { "type": "Point", "coordinates": [ -1.6640378, 53.8303715 ] } },
	{ "type": "Feature", "properties": { "osm_id": "5602347324", "amenity": "waste_basket", "other_tags": "\"waste\"=>\"trash\"" }, "geometry": { "type": "Point", "coordinates": [ -1.664658, 53.8291732 ] } },
	{ "type": "Feature", "properties": { "osm_id": "5602347325", "amenity": "waste_basket", "other_tags": "\"waste\"=>\"trash\"" }, "geometry": { "type": "Point", "coordinates": [ -1.666313, 53.8319901 ] } },
	{ "type": "Feature", "properties": { "osm_id": "5602347640", "amenity": "waste_basket", "other_tags": "\"waste\"=>\"trash\"" }, "geometry": { "type": "Point", "coordinates": [ -1.6683836, 53.8352323 ] } },
	{ "type": "Feature", "properties": { "osm_id": "5639896436", "amenity": "waste_basket" }, "geometry": { "type": "Point", "coordinates": [ -1.4745107, 53.7500567 ] } },
	{ "type": "Feature", "properties": { "osm_id": "5713710064", "amenity": "waste_basket" }, "geometry": { "type": "Point", "coordinates": [ -1.6614373, 53.8285495 ] } },
	{ "type": "Feature", "properties": { "osm_id": "6183459986", "amenity": "waste_basket" }, "geometry": { "type": "Point", "coordinates": [ -1.5431916, 53.7978446 ] } },
	{ "type": "Feature", "properties": { "osm_id": "6185928523", "amenity": "waste_basket" }, "geometry": { "type": "Point", "coordinates": [ -1.4601195, 53.8197763 ] } },
	{ "type": "Feature", "properties": { "osm_id": "6185928549", "amenity": "waste_basket" }, "geometry": { "type": "Point", "coordinates": [ -1.4589155, 53.8196011 ] } },
	{ "type": "Feature", "properties": { "osm_id": "6185928550", "amenity": "waste_basket" }, "geometry": { "type": "Point", "coordinates": [ -1.4589355, 53.8187737 ] } },
	{ "type": "Feature", "properties": { "osm_id": "6185928551", "amenity": "waste_basket" }, "geometry": { "type": "Point", "coordinates": [ -1.4599484, 53.8190164 ] } }
]
}
