{
"type": "FeatureCollection",
"crs": { "type": "name", "properties": { "name": "urn:ogc:def:crs:OGC:1.3:CRS84" } },
"features": [
	{ "type": "Feature", "properties": { "osm_id": "977760919", "amenity": "grit_bin" }, "geometry": { "type": "Point", "coordinates": [ -1.4977273, 53.7152758 ] } },
	{ "type": "Feature", "properties": { "osm_id": "1028847269", "amenity": "grit_bin" }, "geometry": { "type": "Point", "coordinates": [ -1.5315464, 53.641357 ] } },
	{ "type": "Feature", "properties": { "osm_id": "1161132248", "amenity": "grit_bin" }, "geometry": { "type": "Point", "coordinates": [ -1.6861647, 53.7103497 ] } },
	{ "type": "Feature", "properties": { "osm_id": "1161132443", "amenity": "grit_bin" }, "geometry": { "type": "Point", "coordinates": [ -1.6672782, 53.7230668 ] } },
	{ "type": "Feature", "properties": { "osm_id": "1280682112", "amenity": "grit_bin" }, "geometry": { "type": "Point", "coordinates": [ -1.6449721, 53.6982083 ] } },
	{ "type": "Feature", "properties": { "osm_id": "1284137234", "amenity": "grit_bin" }, "geometry": { "type": "Point", "coordinates": [ -1.5234864, 53.807803 ] } },
	{ "type": "Feature", "properties": { "osm_id": "1286685615", "amenity": "grit_bin" }, "geometry": { "type": "Point", "coordinates": [ -1.6569869, 53.7079224 ] } },
	{ "type": "Feature", "properties": { "osm_id": "1286685620", "amenity": "grit_bin" }, "geometry": { "type": "Point", "coordinates": [ -1.6569616, 53.7079231 ] } },
	{ "type": "Feature", "properties": { "osm_id": "1286685643", "amenity": "grit_bin" }, "geometry": { "type": "Point", "coordinates": [ -1.6685898, 53.7367596 ] } },
	{ "type": "Feature", "properties": { "osm_id": "1305979466", "amenity": "grit_bin" }, "geometry": { "type": "Point", "coordinates": [ -1.6984941, 53.6713377 ] } },
	{ "type": "Feature", "properties": { "osm_id": "1306104461", "amenity": "grit_bin" }, "geometry": { "type": "Point", "coordinates": [ -1.6606317, 53.732044 ] } },
	{ "type": "Feature", "properties": { "osm_id": "1313128193", "amenity": "grit_bin" }, "geometry": { "type": "Point", "coordinates": [ -1.6639695, 53.7351092 ] } },
	{ "type": "Feature", "properties": { "osm_id": "1363570003", "amenity": "grit_bin" }, "geometry": { "type": "Point", "coordinates": [ -1.6833164, 53.6761719 ] } },
	{ "type": "Feature", "properties": { "osm_id": "1364866986", "amenity": "grit_bin" }, "geometry": { "type": "Point", "coordinates": [ -1.6564924, 53.7001744 ] } },
	{ "type": "Feature", "properties": { "osm_id": "1364867036", "amenity": "grit_bin" }, "geometry": { "type": "Point", "coordinates": [ -1.6521564, 53.7016129 ] } },
	{ "type": "Feature", "properties": { "osm_id": "1400848018", "amenity": "grit_bin" }, "geometry": { "type": "Point", "coordinates": [ -1.7761958, 53.829505 ] } },
	{ "type": "Feature", "properties": { "osm_id": "1402084394", "amenity": "grit_bin" }, "geometry": { "type": "Point", "coordinates": [ -1.6953223, 53.757301 ] } },
	{ "type": "Feature", "properties": { "osm_id": "1402600374", "amenity": "grit_bin" }, "geometry": { "type": "Point", "coordinates": [ -1.6889965, 53.7399308 ] } },
	{ "type": "Feature", "properties": { "osm_id": "1422388316", "amenity": "grit_bin" }, "geometry": { "type": "Point", "coordinates": [ -1.6304086, 53.6872606 ] } },
	{ "type": "Feature", "properties": { "osm_id": "1428145476", "amenity": "grit_bin" }, "geometry": { "type": "Point", "coordinates": [ -1.5431043, 53.8446972 ] } },
	{ "type": "Feature", "properties": { "osm_id": "1428147709", "amenity": "grit_bin" }, "geometry": { "type": "Point", "coordinates": [ -1.5461232, 53.8449032 ] } },
	{ "type": "Feature", "properties": { "osm_id": "1428147710", "amenity": "grit_bin" }, "geometry": { "type": "Point", "coordinates": [ -1.5433165, 53.8454565 ] } },
	{ "type": "Feature", "properties": { "osm_id": "1428147711", "amenity": "grit_bin" }, "geometry": { "type": "Point", "coordinates": [ -1.5430161, 53.8464232 ] } },
	{ "type": "Feature", "properties": { "osm_id": "1535922339", "amenity": "grit_bin" }, "geometry": { "type": "Point", "coordinates": [ -1.8076638, 53.642805 ] } },
	{ "type": "Feature", "properties": { "osm_id": "1535970721", "amenity": "grit_bin" }, "geometry": { "type": "Point", "coordinates": [ -1.8037516, 53.64301 ] } },
	{ "type": "Feature", "properties": { "osm_id": "1588969531", "amenity": "grit_bin" }, "geometry": { "type": "Point", "coordinates": [ -1.7107175, 53.7004616 ] } },
	{ "type": "Feature", "properties": { "osm_id": "1593619764", "amenity": "grit_bin" }, "geometry": { "type": "Point", "coordinates": [ -1.6519339, 53.6933508 ] } },
	{ "type": "Feature", "properties": { "osm_id": "1612200858", "amenity": "grit_bin" }, "geometry": { "type": "Point", "coordinates": [ -1.7183982, 53.6988366 ] } },
	{ "type": "Feature", "properties": { "osm_id": "1613532841", "amenity": "grit_bin" }, "geometry": { "type": "Point", "coordinates": [ -1.624347, 53.6888899 ] } },
	{ "type": "Feature", "properties": { "osm_id": "1614633265", "amenity": "grit_bin" }, "geometry": { "type": "Point", "coordinates": [ -1.6276239, 53.6932496 ] } },
	{ "type": "Feature", "properties": { "osm_id": "1631855166", "amenity": "grit_bin" }, "geometry": { "type": "Point", "coordinates": [ -1.6431353, 53.6855864 ] } },
	{ "type": "Feature", "properties": { "osm_id": "1631962408", "amenity": "grit_bin" }, "geometry": { "type": "Point", "coordinates": [ -1.6564813, 53.7036759 ] } },
	{ "type": "Feature", "properties": { "osm_id": "1717746027", "amenity": "grit_bin" }, "geometry": { "type": "Point", "coordinates": [ -1.7886389, 53.580764 ] } },
	{ "type": "Feature", "properties": { "osm_id": "1834198741", "amenity": "grit_bin" }, "geometry": { "type": "Point", "coordinates": [ -1.6824822, 53.7024006 ] } },
	{ "type": "Feature", "properties": { "osm_id": "1834590263", "amenity": "grit_bin" }, "geometry": { "type": "Point", "coordinates": [ -1.6959927, 53.7123234 ] } },
	{ "type": "Feature", "properties": { "osm_id": "1834750478", "amenity": "grit_bin" }, "geometry": { "type": "Point", "coordinates": [ -1.6969125, 53.7178113 ] } },
	{ "type": "Feature", "properties": { "osm_id": "1842628824", "amenity": "grit_bin" }, "geometry": { "type": "Point", "coordinates": [ -1.6237771, 53.6714614 ] } },
	{ "type": "Feature", "properties": { "osm_id": "1852855320", "amenity": "grit_bin" }, "geometry": { "type": "Point", "coordinates": [ -1.6578181, 53.5727081 ] } },
	{ "type": "Feature", "properties": { "osm_id": "1934222422", "amenity": "grit_bin" }, "geometry": { "type": "Point", "coordinates": [ -1.5548852, 53.6656702 ] } },
	{ "type": "Feature", "properties": { "osm_id": "1936085309", "amenity": "grit_bin" }, "geometry": { "type": "Point", "coordinates": [ -1.7136784, 53.7243383 ] } },
	{ "type": "Feature", "properties": { "osm_id": "1955682598", "amenity": "grit_bin" }, "geometry": { "type": "Point", "coordinates": [ -1.5677278, 53.6818018 ] } },
	{ "type": "Feature", "properties": { "osm_id": "1974906257", "amenity": "grit_bin" }, "geometry": { "type": "Point", "coordinates": [ -1.5651076, 53.6711291 ] } },
	{ "type": "Feature", "properties": { "osm_id": "1974906270", "amenity": "grit_bin" }, "geometry": { "type": "Point", "coordinates": [ -1.5946589, 53.683063 ] } },
	{ "type": "Feature", "properties": { "osm_id": "2006438471", "amenity": "grit_bin" }, "geometry": { "type": "Point", "coordinates": [ -1.5626779, 53.657852 ] } },
	{ "type": "Feature", "properties": { "osm_id": "2032777273", "amenity": "grit_bin" }, "geometry": { "type": "Point", "coordinates": [ -1.6372751, 53.6789782 ] } },
	{ "type": "Feature", "properties": { "osm_id": "2032777275", "amenity": "grit_bin" }, "geometry": { "type": "Point", "coordinates": [ -1.6380469, 53.6800723 ] } },
	{ "type": "Feature", "properties": { "osm_id": "2056657104", "amenity": "grit_bin" }, "geometry": { "type": "Point", "coordinates": [ -1.4851481, 53.697675 ] } },
	{ "type": "Feature", "properties": { "osm_id": "2068761855", "amenity": "grit_bin" }, "geometry": { "type": "Point", "coordinates": [ -1.653744, 53.7377734 ] } },
	{ "type": "Feature", "properties": { "osm_id": "2211477367", "amenity": "grit_bin" }, "geometry": { "type": "Point", "coordinates": [ -1.7266313, 53.7154478 ] } },
	{ "type": "Feature", "properties": { "osm_id": "2235472524", "amenity": "grit_bin" }, "geometry": { "type": "Point", "coordinates": [ -1.574416, 53.760724 ] } },
	{ "type": "Feature", "properties": { "osm_id": "2239054506", "amenity": "grit_bin" }, "geometry": { "type": "Point", "coordinates": [ -1.5644767, 53.6604964 ] } },
	{ "type": "Feature", "properties": { "osm_id": "2242699408", "amenity": "grit_bin" }, "geometry": { "type": "Point", "coordinates": [ -1.6981325, 53.9143909 ] } },
	{ "type": "Feature", "properties": { "osm_id": "2354930875", "amenity": "grit_bin" }, "geometry": { "type": "Point", "coordinates": [ -1.6991451, 53.9152367 ] } },
	{ "type": "Feature", "properties": { "osm_id": "2357538245", "amenity": "grit_bin" }, "geometry": { "type": "Point", "coordinates": [ -1.6342697, 53.7135874 ] } },
	{ "type": "Feature", "properties": { "osm_id": "2376594194", "amenity": "grit_bin" }, "geometry": { "type": "Point", "coordinates": [ -1.6261954, 53.665421 ] } },
	{ "type": "Feature", "properties": { "osm_id": "2406928418", "amenity": "grit_bin" }, "geometry": { "type": "Point", "coordinates": [ -1.7000653, 53.9144513 ] } },
	{ "type": "Feature", "properties": { "osm_id": "3025622678", "amenity": "grit_bin", "other_tags": "\"access\"=>\"private\"" }, "geometry": { "type": "Point", "coordinates": [ -2.0084792, 53.7377103 ] } },
	{ "type": "Feature", "properties": { "osm_id": "3025622680", "amenity": "grit_bin", "other_tags": "\"access\"=>\"private\"" }, "geometry": { "type": "Point", "coordinates": [ -2.0093631, 53.738036 ] } },
	{ "type": "Feature", "properties": { "osm_id": "3025622681", "amenity": "grit_bin" }, "geometry": { "type": "Point", "coordinates": [ -2.0101165, 53.7391388 ] } },
	{ "type": "Feature", "properties": { "osm_id": "3094828473", "amenity": "grit_bin" }, "geometry": { "type": "Point", "coordinates": [ -1.6946493, 53.7060698 ] } },
	{ "type": "Feature", "properties": { "osm_id": "3094828474", "amenity": "grit_bin" }, "geometry": { "type": "Point", "coordinates": [ -1.6937009, 53.7064041 ] } },
	{ "type": "Feature", "properties": { "osm_id": "3445648943", "amenity": "grit_bin" }, "geometry": { "type": "Point", "coordinates": [ -1.7832682, 53.6480752 ] } },
	{ "type": "Feature", "properties": { "osm_id": "3942727568", "amenity": "grit_bin" }, "geometry": { "type": "Point", "coordinates": [ -1.6943242, 53.9037514 ] } },
	{ "type": "Feature", "properties": { "osm_id": "4057482514", "amenity": "grit_bin" }, "geometry": { "type": "Point", "coordinates": [ -1.9262947, 53.8397746 ] } },
	{ "type": "Feature", "properties": { "osm_id": "4579780709", "amenity": "grit_bin" }, "geometry": { "type": "Point", "coordinates": [ -2.0125215, 53.7517077 ] } },
	{ "type": "Feature", "properties": { "osm_id": "4760764307", "amenity": "grit_bin", "other_tags": "\"access\"=>\"private\"" }, "geometry": { "type": "Point", "coordinates": [ -1.6631382, 53.5730464 ] } },
	{ "type": "Feature", "properties": { "osm_id": "5256465404", "amenity": "grit_bin" }, "geometry": { "type": "Point", "coordinates": [ -1.46775, 53.6482514 ] } },
	{ "type": "Feature", "properties": { "osm_id": "5300496253", "amenity": "grit_bin" }, "geometry": { "type": "Point", "coordinates": [ -1.4553622, 53.6489354 ] } },
	{ "type": "Feature", "properties": { "osm_id": "5506378734", "amenity": "grit_bin" }, "geometry": { "type": "Point", "coordinates": [ -1.531489, 53.7981003 ] } },
	{ "type": "Feature", "properties": { "osm_id": "6950942826", "amenity": "grit_bin", "other_tags": "\"access\"=>\"yes\",\"mapillary\"=>\"S5O04w_Y0S-sjNCI5LCrGQ\"" }, "geometry": { "type": "Point", "coordinates": [ -1.3354469, 53.7271273 ] } },
	{ "type": "Feature", "properties": { "osm_id": "7172522933", "amenity": "grit_bin", "other_tags": "\"access\"=>\"yes\",\"colour\"=>\"Yellow\",\"material\"=>\"plastic\",\"mapillary\"=>\"j_s2VZBbfBoMDLFqRuyqfA\"" }, "geometry": { "type": "Point", "coordinates": [ -1.3274483, 53.716783 ] } },
	{ "type": "Feature", "properties": { "osm_id": "7401626986", "amenity": "grit_bin" }, "geometry": { "type": "Point", "coordinates": [ -2.0206806, 53.7496211 ] } },
	{ "type": "Feature", "properties": { "osm_id": "7628680319", "amenity": "grit_bin" }, "geometry": { "type": "Point", "coordinates": [ -1.5005068, 53.6494605 ] } },
	{ "type": "Feature", "properties": { "osm_id": "7733138919", "amenity": "grit_bin", "other_tags": "\"access\"=>\"yes\",\"colour\"=>\"Yellow\",\"material\"=>\"reinforced_plastic.\",\"operator\"=>\"Wakefield Conucil\",\"collection_times\"=>\"When need refilling (idk)\"" }, "geometry": { "type": "Point", "coordinates": [ -1.5029987, 53.6841182 ] } },
	{ "type": "Feature", "properties": { "osm_id": "7741052743", "amenity": "grit_bin", "other_tags": "\"access\"=>\"yes\",\"material\"=>\"plastic\",\"operator\"=>\"IKEA (UK)\",\"collection_times\"=>\"When needs filling\"" }, "geometry": { "type": "Point", "coordinates": [ -1.6483923, 53.7450899 ] } },
	{ "type": "Feature", "properties": { "osm_id": "7895251923", "amenity": "grit_bin" }, "geometry": { "type": "Point", "coordinates": [ -1.6272238, 53.8254851 ] } },
	{ "type": "Feature", "properties": { "osm_id": "7899267780", "amenity": "grit_bin", "other_tags": "\"colour\"=>\"Yellow\",\"material\"=>\"plastic\",\"operator\"=>\"Wakefield Council\"" }, "geometry": { "type": "Point", "coordinates": [ -1.3396019, 53.7163483 ] } },
	{ "type": "Feature", "properties": { "osm_id": "7923628241", "amenity": "grit_bin", "other_tags": "\"colour\"=>\"Yellow\",\"material\"=>\"plastic\"" }, "geometry": { "type": "Point", "coordinates": [ -1.3215166, 53.6983663 ] } },
	{ "type": "Feature", "properties": { "osm_id": "7989634822", "amenity": "grit_bin" }, "geometry": { "type": "Point", "coordinates": [ -1.7150029, 53.8760883 ] } },
	{ "type": "Feature", "properties": { "osm_id": "7989634830", "amenity": "grit_bin" }, "geometry": { "type": "Point", "coordinates": [ -1.7151662, 53.8759717 ] } },
	{ "type": "Feature", "properties": { "osm_id": "7989634855", "amenity": "grit_bin" }, "geometry": { "type": "Point", "coordinates": [ -1.7149612, 53.8757229 ] } },
	{ "type": "Feature", "properties": { "osm_id": "7994193511", "amenity": "grit_bin", "other_tags": "\"access\"=>\"unknown\",\"material\"=>\"plastic\",\"operator\"=>\"Xscape\"" }, "geometry": { "type": "Point", "coordinates": [ -1.3402528, 53.7100599 ] } },
	{ "type": "Feature", "properties": { "osm_id": "7994193519", "amenity": "grit_bin" }, "geometry": { "type": "Point", "coordinates": [ -1.3405929, 53.7093905 ] } }
]
}
