{
"type": "FeatureCollection",
"crs": { "type": "name", "properties": { "name": "urn:ogc:def:crs:OGC:1.3:CRS84" } },
"features": [
	{ "type": "Feature", "properties": { "osm_id": "609296", "amenity": "parking" }, "geometry": { "type": "Point", "coordinates": [ -1.50883, 53.7112 ] } },
	{ "type": "Feature", "properties": { "osm_id": "27304019", "amenity": "parking" }, "geometry": { "type": "Point", "coordinates": [ -1.6981762, 53.8925819 ] } },
	{ "type": "Feature", "properties": { "osm_id": "27348280", "amenity": "parking" }, "geometry": { "type": "Point", "coordinates": [ -1.625011, 53.9015239 ] } },
	{ "type": "Feature", "properties": { "osm_id": "27458589", "amenity": "parking", "other_tags": "\"tourism\"=>\"viewpoint\",\"description\"=>\"On banks of River Wharfe with view of Arthington Viaduct\"" }, "geometry": { "type": "Point", "coordinates": [ -1.6089257, 53.908575 ] } },
	{ "type": "Feature", "properties": { "osm_id": "27458593", "amenity": "parking" }, "geometry": { "type": "Point", "coordinates": [ -1.6002635, 53.9099646 ] } },
	{ "type": "Feature", "properties": { "osm_id": "27463402", "amenity": "parking" }, "geometry": { "type": "Point", "coordinates": [ -1.3967336, 53.9300974 ] } },
	{ "type": "Feature", "properties": { "osm_id": "27467955", "name": "Arthington Parish Church", "amenity": "parking" }, "geometry": { "type": "Point", "coordinates": [ -1.5807316, 53.8979328 ] } },
	{ "type": "Feature", "properties": { "osm_id": "27476855", "name": "Lay by", "amenity": "parking" }, "geometry": { "type": "Point", "coordinates": [ -1.3955229, 53.9193583 ] } },
	{ "type": "Feature", "properties": { "osm_id": "27476858", "name": "Lay by", "amenity": "parking" }, "geometry": { "type": "Point", "coordinates": [ -1.3942237, 53.9212439 ] } },
	{ "type": "Feature", "properties": { "osm_id": "27485695", "name": "Queens Hall", "amenity": "parking", "other_tags": "\"description\"=>\"Small free council car park\"" }, "geometry": { "type": "Point", "coordinates": [ -1.7479318, 53.9139372 ] } },
	{ "type": "Feature", "properties": { "osm_id": "28141953", "amenity": "parking" }, "geometry": { "type": "Point", "coordinates": [ -1.8228056, 53.9256484 ] } },
	{ "type": "Feature", "properties": { "osm_id": "29048419", "amenity": "parking" }, "geometry": { "type": "Point", "coordinates": [ -1.7151633, 53.8758229 ] } },
	{ "type": "Feature", "properties": { "osm_id": "29563629", "amenity": "parking" }, "geometry": { "type": "Point", "coordinates": [ -1.3197466, 53.911237 ] } },
	{ "type": "Feature", "properties": { "osm_id": "30466178", "amenity": "parking" }, "geometry": { "type": "Point", "coordinates": [ -1.6925728, 53.674324 ] } },
	{ "type": "Feature", "properties": { "osm_id": "32884124", "amenity": "parking" }, "geometry": { "type": "Point", "coordinates": [ -1.5637033, 53.857202 ] } },
	{ "type": "Feature", "properties": { "osm_id": "33115369", "amenity": "parking", "other_tags": "\"description\"=>\"Free muncipal open-air parking, 12 hours maximum\"" }, "geometry": { "type": "Point", "coordinates": [ -1.88214, 53.9442746 ] } },
	{ "type": "Feature", "properties": { "osm_id": "33189070", "amenity": "parking" }, "geometry": { "type": "Point", "coordinates": [ -1.826303, 53.9189271 ] } },
	{ "type": "Feature", "properties": { "osm_id": "36558551", "amenity": "parking", "other_tags": "\"access\"=>\"yes\",\"parking\"=>\"surface\"" }, "geometry": { "type": "Point", "coordinates": [ -1.8580793, 53.7192814 ] } },
	{ "type": "Feature", "properties": { "osm_id": "36558553", "amenity": "parking", "other_tags": "\"access\"=>\"yes\",\"parking\"=>\"surface\"" }, "geometry": { "type": "Point", "coordinates": [ -1.8574945, 53.7193554 ] } },
	{ "type": "Feature", "properties": { "osm_id": "48900383", "amenity": "parking", "other_tags": "\"access\"=>\"private\"" }, "geometry": { "type": "Point", "coordinates": [ -1.6015541, 53.8167425 ] } },
	{ "type": "Feature", "properties": { "osm_id": "189293943", "amenity": "parking" }, "geometry": { "type": "Point", "coordinates": [ -1.8344207, 53.5620093 ] } },
	{ "type": "Feature", "properties": { "osm_id": "190899108", "amenity": "parking" }, "geometry": { "type": "Point", "coordinates": [ -1.83577, 53.5571174 ] } },
	{ "type": "Feature", "properties": { "osm_id": "243731471", "amenity": "parking" }, "geometry": { "type": "Point", "coordinates": [ -1.5884984, 53.8241133 ] } },
	{ "type": "Feature", "properties": { "osm_id": "245978742", "amenity": "parking" }, "geometry": { "type": "Point", "coordinates": [ -1.9139593, 53.7066906 ] } },
	{ "type": "Feature", "properties": { "osm_id": "249561731", "amenity": "parking" }, "geometry": { "type": "Point", "coordinates": [ -1.7466724, 53.7973304 ] } },
	{ "type": "Feature", "properties": { "osm_id": "249561732", "amenity": "parking" }, "geometry": { "type": "Point", "coordinates": [ -1.7464496, 53.797598 ] } },
	{ "type": "Feature", "properties": { "osm_id": "252743606", "amenity": "parking", "other_tags": "\"capacity:disabled\"=>\"yes\"" }, "geometry": { "type": "Point", "coordinates": [ -1.5699639, 53.8190084 ] } },
	{ "type": "Feature", "properties": { "osm_id": "252743630", "amenity": "parking" }, "geometry": { "type": "Point", "coordinates": [ -1.5689082, 53.8189678 ] } },
	{ "type": "Feature", "properties": { "osm_id": "253039537", "amenity": "parking" }, "geometry": { "type": "Point", "coordinates": [ -1.3869808, 53.9283636 ] } },
	{ "type": "Feature", "properties": { "osm_id": "260275114", "amenity": "parking" }, "geometry": { "type": "Point", "coordinates": [ -1.6403105, 53.6976961 ] } },
	{ "type": "Feature", "properties": { "osm_id": "263413514", "amenity": "parking" }, "geometry": { "type": "Point", "coordinates": [ -1.6519807, 53.7049082 ] } },
	{ "type": "Feature", "properties": { "osm_id": "268096670", "amenity": "parking" }, "geometry": { "type": "Point", "coordinates": [ -1.7688475, 53.858508 ] } },
	{ "type": "Feature", "properties": { "osm_id": "268096674", "amenity": "parking" }, "geometry": { "type": "Point", "coordinates": [ -1.770304, 53.8611185 ] } },
	{ "type": "Feature", "properties": { "osm_id": "269058802", "amenity": "parking" }, "geometry": { "type": "Point", "coordinates": [ -1.7977512, 53.8054369 ] } },
	{ "type": "Feature", "properties": { "osm_id": "269253317", "amenity": "parking" }, "geometry": { "type": "Point", "coordinates": [ -1.887727, 53.5613408 ] } },
	{ "type": "Feature", "properties": { "osm_id": "286793835", "amenity": "parking" }, "geometry": { "type": "Point", "coordinates": [ -1.9576353, 53.5958677 ] } },
	{ "type": "Feature", "properties": { "osm_id": "296016791", "amenity": "parking" }, "geometry": { "type": "Point", "coordinates": [ -1.627237, 53.8059863 ] } },
	{ "type": "Feature", "properties": { "osm_id": "296020026", "amenity": "parking" }, "geometry": { "type": "Point", "coordinates": [ -1.6287962, 53.8119623 ] } },
	{ "type": "Feature", "properties": { "osm_id": "296021061", "amenity": "parking" }, "geometry": { "type": "Point", "coordinates": [ -1.6299515, 53.8124252 ] } },
	{ "type": "Feature", "properties": { "osm_id": "297824842", "amenity": "parking" }, "geometry": { "type": "Point", "coordinates": [ -1.6512458, 53.80988 ] } },
	{ "type": "Feature", "properties": { "osm_id": "298016817", "amenity": "parking" }, "geometry": { "type": "Point", "coordinates": [ -1.6319041, 53.8065981 ] } },
	{ "type": "Feature", "properties": { "osm_id": "298034076", "amenity": "parking", "other_tags": "\"access\"=>\"private\"" }, "geometry": { "type": "Point", "coordinates": [ -1.6315202, 53.8044335 ] } },
	{ "type": "Feature", "properties": { "osm_id": "298930364", "name": "Centre West", "amenity": "parking" }, "geometry": { "type": "Point", "coordinates": [ -1.5884389, 53.7981968 ] } },
	{ "type": "Feature", "properties": { "osm_id": "299171006", "amenity": "parking", "other_tags": "\"parking\"=>\"multi-storey\"" }, "geometry": { "type": "Point", "coordinates": [ -1.5452909, 53.8024491 ] } },
	{ "type": "Feature", "properties": { "osm_id": "299171010", "name": "St Johns Centre", "amenity": "parking", "other_tags": "\"parking\"=>\"multi-storey\",\"operator\"=>\"NCP\"" }, "geometry": { "type": "Point", "coordinates": [ -1.5435049, 53.8000796 ] } },
	{ "type": "Feature", "properties": { "osm_id": "299171013", "amenity": "parking", "other_tags": "\"parking\"=>\"multi-storey\"" }, "geometry": { "type": "Point", "coordinates": [ -1.542659, 53.802061 ] } },
	{ "type": "Feature", "properties": { "osm_id": "299378364", "amenity": "parking" }, "geometry": { "type": "Point", "coordinates": [ -1.6198438, 53.805643 ] } },
	{ "type": "Feature", "properties": { "osm_id": "299378393", "amenity": "parking", "other_tags": "\"access\"=>\"private\"" }, "geometry": { "type": "Point", "coordinates": [ -1.621696, 53.8054896 ] } },
	{ "type": "Feature", "properties": { "osm_id": "300678157", "amenity": "parking", "other_tags": "\"fee\"=>\"no\"" }, "geometry": { "type": "Point", "coordinates": [ -1.6341555, 53.8211485 ] } },
	{ "type": "Feature", "properties": { "osm_id": "300897388", "name": "Leisure Exchange Bradford", "amenity": "parking", "other_tags": "\"parking\"=>\"multi-storey\"" }, "geometry": { "type": "Point", "coordinates": [ -1.7462705, 53.791928 ] } },
	{ "type": "Feature", "properties": { "osm_id": "301733965", "name": "Great Victoria Hotel", "amenity": "parking", "other_tags": "\"access\"=>\"customers\",\"parking\"=>\"surface\"" }, "geometry": { "type": "Point", "coordinates": [ -1.7495605, 53.7917286 ] } },
	{ "type": "Feature", "properties": { "osm_id": "302970633", "amenity": "parking" }, "geometry": { "type": "Point", "coordinates": [ -1.5778268, 53.8223515 ] } },
	{ "type": "Feature", "properties": { "osm_id": "306285198", "amenity": "parking" }, "geometry": { "type": "Point", "coordinates": [ -1.6121347, 53.8011239 ] } },
	{ "type": "Feature", "properties": { "osm_id": "308920062", "amenity": "parking" }, "geometry": { "type": "Point", "coordinates": [ -1.7642059, 53.7910764 ] } },
	{ "type": "Feature", "properties": { "osm_id": "308920070", "amenity": "parking" }, "geometry": { "type": "Point", "coordinates": [ -1.7657454, 53.7898048 ] } },
	{ "type": "Feature", "properties": { "osm_id": "315631758", "amenity": "parking" }, "geometry": { "type": "Point", "coordinates": [ -1.7793025, 53.6465725 ] } },
	{ "type": "Feature", "properties": { "osm_id": "316086436", "amenity": "parking", "other_tags": "\"access\"=>\"private\"" }, "geometry": { "type": "Point", "coordinates": [ -1.7589988, 53.7893991 ] } },
	{ "type": "Feature", "properties": { "osm_id": "317610015", "amenity": "parking" }, "geometry": { "type": "Point", "coordinates": [ -1.6453592, 53.8013141 ] } },
	{ "type": "Feature", "properties": { "osm_id": "322861113", "amenity": "parking", "other_tags": "\"type\"=>\"surface\",\"parking\"=>\"surface\"" }, "geometry": { "type": "Point", "coordinates": [ -1.782105, 53.5766717 ] } },
	{ "type": "Feature", "properties": { "osm_id": "324708841", "amenity": "parking", "other_tags": "\"access\"=>\"permissive\"" }, "geometry": { "type": "Point", "coordinates": [ -1.76368, 53.5708395 ] } },
	{ "type": "Feature", "properties": { "osm_id": "326120640", "amenity": "parking" }, "geometry": { "type": "Point", "coordinates": [ -1.7850357, 53.6497382 ] } },
	{ "type": "Feature", "properties": { "osm_id": "326121938", "amenity": "parking", "other_tags": "\"parking\"=>\"multi-storey\"" }, "geometry": { "type": "Point", "coordinates": [ -1.7865978, 53.6457445 ] } },
	{ "type": "Feature", "properties": { "osm_id": "334331194", "amenity": "parking" }, "geometry": { "type": "Point", "coordinates": [ -1.78452, 53.6431725 ] } },
	{ "type": "Feature", "properties": { "osm_id": "334331244", "amenity": "parking" }, "geometry": { "type": "Point", "coordinates": [ -1.7846831, 53.6439561 ] } },
	{ "type": "Feature", "properties": { "osm_id": "334884591", "amenity": "parking" }, "geometry": { "type": "Point", "coordinates": [ -1.5820983, 53.806539 ] } },
	{ "type": "Feature", "properties": { "osm_id": "336673917", "amenity": "parking" }, "geometry": { "type": "Point", "coordinates": [ -1.8352694, 53.8408426 ] } },
	{ "type": "Feature", "properties": { "osm_id": "338643728", "amenity": "parking", "other_tags": "\"parking\"=>\"surface\",\"capacity\"=>\"40\",\"capacity:disabled\"=>\"4\"" }, "geometry": { "type": "Point", "coordinates": [ -1.7742505, 53.8123711 ] } },
	{ "type": "Feature", "properties": { "osm_id": "343517487", "amenity": "parking" }, "geometry": { "type": "Point", "coordinates": [ -1.7675692, 53.8598337 ] } },
	{ "type": "Feature", "properties": { "osm_id": "345177017", "name": "Lotherton Hall", "amenity": "parking", "other_tags": "\"fee\"=>\"yes\",\"parking\"=>\"surface\",\"capacity:disabled\"=>\"yes\"" }, "geometry": { "type": "Point", "coordinates": [ -1.3197423, 53.8194662 ] } },
	{ "type": "Feature", "properties": { "osm_id": "349290116", "amenity": "parking", "other_tags": "\"parking\"=>\"surface\"" }, "geometry": { "type": "Point", "coordinates": [ -1.8489571, 53.8466387 ] } },
	{ "type": "Feature", "properties": { "osm_id": "349355647", "amenity": "parking", "other_tags": "\"fee\"=>\"no\"" }, "geometry": { "type": "Point", "coordinates": [ -1.6570186, 53.8105653 ] } },
	{ "type": "Feature", "properties": { "osm_id": "352962056", "amenity": "parking", "other_tags": "\"parking\"=>\"surface\"" }, "geometry": { "type": "Point", "coordinates": [ -1.6713487, 53.739183 ] } },
	{ "type": "Feature", "properties": { "osm_id": "353327526", "amenity": "parking", "other_tags": "\"parking\"=>\"surface\"" }, "geometry": { "type": "Point", "coordinates": [ -1.6244036, 53.70823 ] } },
	{ "type": "Feature", "properties": { "osm_id": "356011496", "amenity": "parking", "other_tags": "\"parking\"=>\"surface\"" }, "geometry": { "type": "Point", "coordinates": [ -1.6481021, 53.6873702 ] } },
	{ "type": "Feature", "properties": { "osm_id": "357708663", "name": "Trinity Car Park", "amenity": "parking", "other_tags": "\"fee\"=>\"yes\",\"parking\"=>\"multi-storey\",\"operator\"=>\"NCP\",\"park_ride\"=>\"no\",\"supervised\"=>\"yes\",\"opening_hours\"=>\"24\/7\"" }, "geometry": { "type": "Point", "coordinates": [ -1.544521, 53.7950994 ] } },
	{ "type": "Feature", "properties": { "osm_id": "358988512", "amenity": "parking", "other_tags": "\"fee\"=>\"yes\",\"access\"=>\"designated\",\"parking\"=>\"surface\"" }, "geometry": { "type": "Point", "coordinates": [ -1.7611409, 53.7870463 ] } },
	{ "type": "Feature", "properties": { "osm_id": "359659454", "amenity": "parking" }, "geometry": { "type": "Point", "coordinates": [ -1.6614968, 53.7975513 ] } },
	{ "type": "Feature", "properties": { "osm_id": "360033066", "name": "The Ridings Multistorey", "amenity": "parking" }, "geometry": { "type": "Point", "coordinates": [ -1.4983205, 53.6818202 ] } },
	{ "type": "Feature", "properties": { "osm_id": "360042028", "name": "Mill Lane Car Park", "amenity": "parking", "other_tags": "\"parking\"=>\"surface\",\"capacity:disabled\"=>\"yes\"" }, "geometry": { "type": "Point", "coordinates": [ -1.7776006, 53.7017346 ] } },
	{ "type": "Feature", "properties": { "osm_id": "360477921", "amenity": "parking", "other_tags": "\"description\"=>\"Layby\"" }, "geometry": { "type": "Point", "coordinates": [ -1.2341576, 53.6215489 ] } },
	{ "type": "Feature", "properties": { "osm_id": "360477999", "amenity": "parking", "other_tags": "\"description\"=>\"Layby\"" }, "geometry": { "type": "Point", "coordinates": [ -1.2463633, 53.6354422 ] } },
	{ "type": "Feature", "properties": { "osm_id": "360478042", "amenity": "parking", "other_tags": "\"description\"=>\"Layby\"" }, "geometry": { "type": "Point", "coordinates": [ -1.2622328, 53.656162 ] } },
	{ "type": "Feature", "properties": { "osm_id": "360912577", "amenity": "parking", "other_tags": "\"parking\"=>\"surface\"" }, "geometry": { "type": "Point", "coordinates": [ -1.4979846, 53.6382371 ] } },
	{ "type": "Feature", "properties": { "osm_id": "361229181", "amenity": "parking", "other_tags": "\"fee\"=>\"no\",\"parking\"=>\"surface\"" }, "geometry": { "type": "Point", "coordinates": [ -1.837806, 53.7310639 ] } },
	{ "type": "Feature", "properties": { "osm_id": "361229560", "amenity": "parking", "other_tags": "\"parking\"=>\"surface\"" }, "geometry": { "type": "Point", "coordinates": [ -1.8403032, 53.7287169 ] } },
	{ "type": "Feature", "properties": { "osm_id": "362524299", "amenity": "parking", "other_tags": "\"access\"=>\"designated\",\"parking\"=>\"surface\"" }, "geometry": { "type": "Point", "coordinates": [ -1.7725533, 53.8092628 ] } },
	{ "type": "Feature", "properties": { "osm_id": "368006960", "amenity": "parking", "other_tags": "\"parking\"=>\"surface\"" }, "geometry": { "type": "Point", "coordinates": [ -1.5058014, 53.6719481 ] } },
	{ "type": "Feature", "properties": { "osm_id": "370083873", "amenity": "parking" }, "geometry": { "type": "Point", "coordinates": [ -1.4445811, 53.760008 ] } },
	{ "type": "Feature", "properties": { "osm_id": "375724235", "amenity": "parking", "other_tags": "\"description\"=>\"Layby\"" }, "geometry": { "type": "Point", "coordinates": [ -2.0553339, 53.7771742 ] } },
	{ "type": "Feature", "properties": { "osm_id": "375724965", "amenity": "parking", "other_tags": "\"description\"=>\"Layby\"" }, "geometry": { "type": "Point", "coordinates": [ -2.0665156, 53.7793176 ] } },
	{ "type": "Feature", "properties": { "osm_id": "375725761", "amenity": "parking" }, "geometry": { "type": "Point", "coordinates": [ -2.1141318, 53.7963417 ] } },
	{ "type": "Feature", "properties": { "osm_id": "375762644", "amenity": "parking" }, "geometry": { "type": "Point", "coordinates": [ -2.0175086, 53.6625366 ] } },
	{ "type": "Feature", "properties": { "osm_id": "377021221", "amenity": "parking", "other_tags": "\"parking\"=>\"surface\"" }, "geometry": { "type": "Point", "coordinates": [ -1.7756732, 53.702434 ] } },
	{ "type": "Feature", "properties": { "osm_id": "389504574", "amenity": "parking" }, "geometry": { "type": "Point", "coordinates": [ -1.8763038, 53.8675036 ] } },
	{ "type": "Feature", "properties": { "osm_id": "389678550", "amenity": "parking" }, "geometry": { "type": "Point", "coordinates": [ -1.9214618, 53.8861111 ] } },
	{ "type": "Feature", "properties": { "osm_id": "389678557", "amenity": "parking" }, "geometry": { "type": "Point", "coordinates": [ -1.9342199, 53.896138 ] } },
	{ "type": "Feature", "properties": { "osm_id": "389678561", "amenity": "parking" }, "geometry": { "type": "Point", "coordinates": [ -1.9481946, 53.9018636 ] } },
	{ "type": "Feature", "properties": { "osm_id": "389678566", "amenity": "parking" }, "geometry": { "type": "Point", "coordinates": [ -1.9632059, 53.9029018 ] } },
	{ "type": "Feature", "properties": { "osm_id": "389678571", "amenity": "parking" }, "geometry": { "type": "Point", "coordinates": [ -1.9725744, 53.9040927 ] } },
	{ "type": "Feature", "properties": { "osm_id": "389905474", "amenity": "parking" }, "geometry": { "type": "Point", "coordinates": [ -1.4400914, 53.9158902 ] } },
	{ "type": "Feature", "properties": { "osm_id": "391089679", "amenity": "parking" }, "geometry": { "type": "Point", "coordinates": [ -1.9613665, 53.9031519 ] } },
	{ "type": "Feature", "properties": { "osm_id": "391089681", "amenity": "parking" }, "geometry": { "type": "Point", "coordinates": [ -1.950549, 53.9024554 ] } },
	{ "type": "Feature", "properties": { "osm_id": "391089682", "amenity": "parking" }, "geometry": { "type": "Point", "coordinates": [ -1.9361034, 53.8977549 ] } },
	{ "type": "Feature", "properties": { "osm_id": "391089684", "amenity": "parking" }, "geometry": { "type": "Point", "coordinates": [ -1.9296405, 53.8925804 ] } },
	{ "type": "Feature", "properties": { "osm_id": "391092694", "amenity": "parking" }, "geometry": { "type": "Point", "coordinates": [ -1.9094879, 53.8822012 ] } },
	{ "type": "Feature", "properties": { "osm_id": "402973026", "amenity": "parking" }, "geometry": { "type": "Point", "coordinates": [ -1.5814806, 53.7713731 ] } },
	{ "type": "Feature", "properties": { "osm_id": "410927417", "amenity": "parking", "other_tags": "\"parking\"=>\"surface\"" }, "geometry": { "type": "Point", "coordinates": [ -1.6865408, 53.6734417 ] } },
	{ "type": "Feature", "properties": { "osm_id": "410927424", "amenity": "parking", "other_tags": "\"parking\"=>\"surface\"" }, "geometry": { "type": "Point", "coordinates": [ -1.6865455, 53.674581 ] } },
	{ "type": "Feature", "properties": { "osm_id": "410947738", "amenity": "parking" }, "geometry": { "type": "Point", "coordinates": [ -1.6431884, 53.7501325 ] } },
	{ "type": "Feature", "properties": { "osm_id": "410947755", "amenity": "parking" }, "geometry": { "type": "Point", "coordinates": [ -1.6492099, 53.751694 ] } },
	{ "type": "Feature", "properties": { "osm_id": "411852416", "amenity": "parking" }, "geometry": { "type": "Point", "coordinates": [ -2.0017139, 53.7771434 ] } },
	{ "type": "Feature", "properties": { "osm_id": "415510946", "amenity": "parking", "other_tags": "\"parking\"=>\"surface\",\"capacity:disabled\"=>\"yes\"" }, "geometry": { "type": "Point", "coordinates": [ -1.9086666, 53.8676097 ] } },
	{ "type": "Feature", "properties": { "osm_id": "430953135", "amenity": "parking" }, "geometry": { "type": "Point", "coordinates": [ -1.6012805, 53.783019 ] } },
	{ "type": "Feature", "properties": { "osm_id": "430953136", "amenity": "parking" }, "geometry": { "type": "Point", "coordinates": [ -1.6024928, 53.7831196 ] } },
	{ "type": "Feature", "properties": { "osm_id": "434431028", "amenity": "parking" }, "geometry": { "type": "Point", "coordinates": [ -1.6924799, 53.6878197 ] } },
	{ "type": "Feature", "properties": { "osm_id": "442720667", "amenity": "parking" }, "geometry": { "type": "Point", "coordinates": [ -1.4681961, 53.7960654 ] } },
	{ "type": "Feature", "properties": { "osm_id": "448707808", "amenity": "parking" }, "geometry": { "type": "Point", "coordinates": [ -1.6896512, 53.8008592 ] } },
	{ "type": "Feature", "properties": { "osm_id": "455680109", "amenity": "parking", "other_tags": "\"parking\"=>\"layby\"" }, "geometry": { "type": "Point", "coordinates": [ -1.8791852, 53.8696525 ] } },
	{ "type": "Feature", "properties": { "osm_id": "455680113", "amenity": "parking", "other_tags": "\"parking\"=>\"layby\"" }, "geometry": { "type": "Point", "coordinates": [ -1.8617485, 53.8638137 ] } },
	{ "type": "Feature", "properties": { "osm_id": "457646700", "amenity": "parking" }, "geometry": { "type": "Point", "coordinates": [ -1.7297555, 53.8353836 ] } },
	{ "type": "Feature", "properties": { "osm_id": "467734828", "amenity": "parking" }, "geometry": { "type": "Point", "coordinates": [ -1.9858024, 53.6619886 ] } },
	{ "type": "Feature", "properties": { "osm_id": "497059264", "amenity": "parking", "other_tags": "\"description\"=>\"layby\"" }, "geometry": { "type": "Point", "coordinates": [ -2.0322455, 53.6675276 ] } },
	{ "type": "Feature", "properties": { "osm_id": "497059268", "amenity": "parking", "other_tags": "\"description\"=>\"layby\"" }, "geometry": { "type": "Point", "coordinates": [ -2.0311834, 53.6689958 ] } },
	{ "type": "Feature", "properties": { "osm_id": "497059274", "amenity": "parking", "other_tags": "\"description\"=>\"layby\"" }, "geometry": { "type": "Point", "coordinates": [ -2.0241952, 53.6760694 ] } },
	{ "type": "Feature", "properties": { "osm_id": "497059276", "amenity": "parking", "other_tags": "\"description\"=>\"layby\"" }, "geometry": { "type": "Point", "coordinates": [ -2.0159881, 53.6803533 ] } },
	{ "type": "Feature", "properties": { "osm_id": "497059281", "amenity": "parking", "other_tags": "\"description\"=>\"layby\"" }, "geometry": { "type": "Point", "coordinates": [ -2.013499, 53.6823512 ] } },
	{ "type": "Feature", "properties": { "osm_id": "497059291", "amenity": "parking", "other_tags": "\"description\"=>\"layby\"" }, "geometry": { "type": "Point", "coordinates": [ -2.0350082, 53.6644995 ] } },
	{ "type": "Feature", "properties": { "osm_id": "505364603", "amenity": "parking" }, "geometry": { "type": "Point", "coordinates": [ -1.4282358, 53.8380362 ] } },
	{ "type": "Feature", "properties": { "osm_id": "521935133", "amenity": "parking" }, "geometry": { "type": "Point", "coordinates": [ -1.7333123, 53.7718717 ] } },
	{ "type": "Feature", "properties": { "osm_id": "529722938", "amenity": "parking", "other_tags": "\"fee\"=>\"no\"" }, "geometry": { "type": "Point", "coordinates": [ -1.7817667, 53.8326584 ] } },
	{ "type": "Feature", "properties": { "osm_id": "530261778", "amenity": "parking" }, "geometry": { "type": "Point", "coordinates": [ -1.7779045, 53.8345871 ] } },
	{ "type": "Feature", "properties": { "osm_id": "530965945", "amenity": "parking", "other_tags": "\"fee\"=>\"yes\"" }, "geometry": { "type": "Point", "coordinates": [ -1.7794765, 53.8312555 ] } },
	{ "type": "Feature", "properties": { "osm_id": "538083023", "amenity": "parking" }, "geometry": { "type": "Point", "coordinates": [ -1.7764327, 53.8351857 ] } },
	{ "type": "Feature", "properties": { "osm_id": "538618317", "amenity": "parking" }, "geometry": { "type": "Point", "coordinates": [ -2.081654, 53.7870322 ] } },
	{ "type": "Feature", "properties": { "osm_id": "539186513", "amenity": "parking" }, "geometry": { "type": "Point", "coordinates": [ -1.6514565, 53.6892099 ] } },
	{ "type": "Feature", "properties": { "osm_id": "564923830", "amenity": "parking", "other_tags": "\"access\"=>\"permissive\"" }, "geometry": { "type": "Point", "coordinates": [ -1.7762354, 53.6531616 ] } },
	{ "type": "Feature", "properties": { "osm_id": "571799461", "amenity": "parking" }, "geometry": { "type": "Point", "coordinates": [ -1.8420154, 53.7283429 ] } },
	{ "type": "Feature", "properties": { "osm_id": "571822227", "name": "Akroyd Place Car Park", "amenity": "parking" }, "geometry": { "type": "Point", "coordinates": [ -1.8610272, 53.7267931 ] } },
	{ "type": "Feature", "properties": { "osm_id": "627835500", "amenity": "parking" }, "geometry": { "type": "Point", "coordinates": [ -1.8542244, 53.7024388 ] } },
	{ "type": "Feature", "properties": { "osm_id": "653284226", "name": "Normanton Train Station", "amenity": "parking" }, "geometry": { "type": "Point", "coordinates": [ -1.422689, 53.7006637 ] } },
	{ "type": "Feature", "properties": { "osm_id": "665486633", "amenity": "parking" }, "geometry": { "type": "Point", "coordinates": [ -1.7461729, 53.6325476 ] } },
	{ "type": "Feature", "properties": { "osm_id": "732774684", "name": "Cow Green", "amenity": "parking" }, "geometry": { "type": "Point", "coordinates": [ -1.8639478, 53.7229579 ] } },
	{ "type": "Feature", "properties": { "osm_id": "755792332", "name": "Red Bus Lay-By", "amenity": "parking", "other_tags": "\"fee\"=>\"no\",\"parking\"=>\"surface\"" }, "geometry": { "type": "Point", "coordinates": [ -1.408457, 53.8475663 ] } },
	{ "type": "Feature", "properties": { "osm_id": "762226504", "amenity": "parking" }, "geometry": { "type": "Point", "coordinates": [ -1.2384748, 53.6262438 ] } },
	{ "type": "Feature", "properties": { "osm_id": "798294773", "amenity": "parking" }, "geometry": { "type": "Point", "coordinates": [ -1.8156347, 53.8159259 ] } },
	{ "type": "Feature", "properties": { "osm_id": "798352503", "amenity": "parking" }, "geometry": { "type": "Point", "coordinates": [ -1.8024177, 53.8270289 ] } },
	{ "type": "Feature", "properties": { "osm_id": "798464794", "amenity": "parking" }, "geometry": { "type": "Point", "coordinates": [ -1.9628796, 53.8252072 ] } },
	{ "type": "Feature", "properties": { "osm_id": "798527583", "amenity": "parking" }, "geometry": { "type": "Point", "coordinates": [ -1.9481444, 53.8306643 ] } },
	{ "type": "Feature", "properties": { "osm_id": "858578143", "name": "Co-operative Clayton Car Park", "amenity": "parking" }, "geometry": { "type": "Point", "coordinates": [ -1.8189974, 53.7849222 ] } },
	{ "type": "Feature", "properties": { "osm_id": "862884344", "amenity": "parking" }, "geometry": { "type": "Point", "coordinates": [ -1.8175957, 53.7807091 ] } },
	{ "type": "Feature", "properties": { "osm_id": "863854365", "name": "Clayton Golf Club", "amenity": "parking" }, "geometry": { "type": "Point", "coordinates": [ -1.8132908, 53.778295 ] } },
	{ "type": "Feature", "properties": { "osm_id": "863906380", "name": "Mayfield Medical Centre", "amenity": "parking" }, "geometry": { "type": "Point", "coordinates": [ -1.8151673, 53.7797758 ] } },
	{ "type": "Feature", "properties": { "osm_id": "864681365", "name": "School Car Park", "amenity": "parking" }, "geometry": { "type": "Point", "coordinates": [ -1.8113057, 53.7766218 ] } },
	{ "type": "Feature", "properties": { "osm_id": "864692087", "name": "Hare And Hounds Car Park", "amenity": "parking" }, "geometry": { "type": "Point", "coordinates": [ -1.8095462, 53.7728303 ] } },
	{ "type": "Feature", "properties": { "osm_id": "864695131", "amenity": "parking" }, "geometry": { "type": "Point", "coordinates": [ -1.8076257, 53.7738701 ] } },
	{ "type": "Feature", "properties": { "osm_id": "871590079", "amenity": "parking" }, "geometry": { "type": "Point", "coordinates": [ -1.6263681, 53.711791 ] } },
	{ "type": "Feature", "properties": { "osm_id": "874276574", "name": "The Nags Head", "amenity": "parking" }, "geometry": { "type": "Point", "coordinates": [ -1.819365, 53.772462 ] } },
	{ "type": "Feature", "properties": { "osm_id": "876405847", "amenity": "parking" }, "geometry": { "type": "Point", "coordinates": [ -1.8010282, 53.782883 ] } },
	{ "type": "Feature", "properties": { "osm_id": "892997554", "amenity": "parking" }, "geometry": { "type": "Point", "coordinates": [ -1.7872081, 53.7815055 ] } },
	{ "type": "Feature", "properties": { "osm_id": "909641361", "amenity": "parking" }, "geometry": { "type": "Point", "coordinates": [ -1.7664255, 53.6555217 ] } },
	{ "type": "Feature", "properties": { "osm_id": "910333073", "amenity": "parking", "other_tags": "\"access\"=>\"permissive\"" }, "geometry": { "type": "Point", "coordinates": [ -1.7719832, 53.6439691 ] } },
	{ "type": "Feature", "properties": { "osm_id": "914241807", "amenity": "parking", "other_tags": "\"fee\"=>\"yes\",\"parking\"=>\"surface\"" }, "geometry": { "type": "Point", "coordinates": [ -1.781223, 53.6404027 ] } },
	{ "type": "Feature", "properties": { "osm_id": "917384980", "amenity": "parking", "other_tags": "\"access\"=>\"permissive\"" }, "geometry": { "type": "Point", "coordinates": [ -1.9307863, 53.9233976 ] } },
	{ "type": "Feature", "properties": { "osm_id": "920328503", "amenity": "parking", "other_tags": "\"fee\"=>\"no\",\"parking\"=>\"surface\",\"capacity\"=>\"12\",\"capacity:women\"=>\"no\",\"capacity:parent\"=>\"no\",\"capacity:disabled\"=>\"no\"" }, "geometry": { "type": "Point", "coordinates": [ -1.7171033, 53.8093012 ] } },
	{ "type": "Feature", "properties": { "osm_id": "920328603", "amenity": "parking", "other_tags": "\"fee\"=>\"no\",\"parking\"=>\"surface\",\"capacity\"=>\"12\",\"capacity:women\"=>\"no\",\"capacity:parent\"=>\"no\",\"capacity:disabled\"=>\"no\"" }, "geometry": { "type": "Point", "coordinates": [ -1.7167993, 53.8089934 ] } },
	{ "type": "Feature", "properties": { "osm_id": "939233622", "amenity": "parking" }, "geometry": { "type": "Point", "coordinates": [ -1.455696, 53.8219516 ] } },
	{ "type": "Feature", "properties": { "osm_id": "940393854", "amenity": "parking" }, "geometry": { "type": "Point", "coordinates": [ -1.4632015, 53.8369572 ] } },
	{ "type": "Feature", "properties": { "osm_id": "941373724", "amenity": "parking" }, "geometry": { "type": "Point", "coordinates": [ -1.4430687, 53.8076355 ] } },
	{ "type": "Feature", "properties": { "osm_id": "952433364", "amenity": "parking" }, "geometry": { "type": "Point", "coordinates": [ -1.8509812, 53.6284017 ] } },
	{ "type": "Feature", "properties": { "osm_id": "957179952", "amenity": "parking" }, "geometry": { "type": "Point", "coordinates": [ -1.8669811, 53.7090453 ] } },
	{ "type": "Feature", "properties": { "osm_id": "964779170", "amenity": "parking" }, "geometry": { "type": "Point", "coordinates": [ -1.4750219, 53.7983837 ] } },
	{ "type": "Feature", "properties": { "osm_id": "968058278", "amenity": "parking", "other_tags": "\"description\"=>\"Parking for Shoulder of Muton\"" }, "geometry": { "type": "Point", "coordinates": [ -1.6900045, 53.6843544 ] } },
	{ "type": "Feature", "properties": { "osm_id": "970277987", "amenity": "parking", "other_tags": "\"parking\"=>\"surface\"" }, "geometry": { "type": "Point", "coordinates": [ -1.7836958, 53.6488856 ] } },
	{ "type": "Feature", "properties": { "osm_id": "974690334", "amenity": "parking", "other_tags": "\"fee\"=>\"no\",\"parking\"=>\"surface\"" }, "geometry": { "type": "Point", "coordinates": [ -1.6316997, 53.7126084 ] } },
	{ "type": "Feature", "properties": { "osm_id": "979595480", "amenity": "parking", "other_tags": "\"access\"=>\"permissive\",\"parking\"=>\"surface\"" }, "geometry": { "type": "Point", "coordinates": [ -1.8002745, 53.6290673 ] } },
	{ "type": "Feature", "properties": { "osm_id": "979595490", "amenity": "parking", "other_tags": "\"access\"=>\"permissive\",\"parking\"=>\"surface\"" }, "geometry": { "type": "Point", "coordinates": [ -1.7980201, 53.6307942 ] } },
	{ "type": "Feature", "properties": { "osm_id": "979595583", "amenity": "parking", "other_tags": "\"access\"=>\"permissive\",\"parking\"=>\"surface\"" }, "geometry": { "type": "Point", "coordinates": [ -1.8012189, 53.6286186 ] } },
	{ "type": "Feature", "properties": { "osm_id": "988866913", "amenity": "parking" }, "geometry": { "type": "Point", "coordinates": [ -1.5365486, 53.8855058 ] } },
	{ "type": "Feature", "properties": { "osm_id": "989035885", "amenity": "parking", "other_tags": "\"access\"=>\"private\"" }, "geometry": { "type": "Point", "coordinates": [ -1.536706, 53.886759 ] } },
	{ "type": "Feature", "properties": { "osm_id": "989035888", "amenity": "parking", "other_tags": "\"access\"=>\"private\"" }, "geometry": { "type": "Point", "coordinates": [ -1.5375388, 53.8864686 ] } },
	{ "type": "Feature", "properties": { "osm_id": "998074536", "amenity": "parking", "other_tags": "\"parking\"=>\"layby\"" }, "geometry": { "type": "Point", "coordinates": [ -1.5630961, 53.6861299 ] } },
	{ "type": "Feature", "properties": { "osm_id": "998074542", "amenity": "parking", "other_tags": "\"parking\"=>\"layby\"" }, "geometry": { "type": "Point", "coordinates": [ -1.5246434, 53.6512145 ] } },
	{ "type": "Feature", "properties": { "osm_id": "998210071", "amenity": "parking", "other_tags": "\"access\"=>\"yes\",\"disabled\"=>\"yes\",\"fee\"=>\"no\",\"parking\"=>\"surface\"" }, "geometry": { "type": "Point", "coordinates": [ -1.6490245, 53.7254251 ] } },
	{ "type": "Feature", "properties": { "osm_id": "1012687768", "amenity": "parking", "other_tags": "\"parking\"=>\"layby\"" }, "geometry": { "type": "Point", "coordinates": [ -1.6377681, 53.728959 ] } },
	{ "type": "Feature", "properties": { "osm_id": "1025480730", "amenity": "parking" }, "geometry": { "type": "Point", "coordinates": [ -1.7801023, 53.7008439 ] } },
	{ "type": "Feature", "properties": { "osm_id": "1039830683", "amenity": "parking", "other_tags": "\"fee\"=>\"yes\",\"parking\"=>\"on_street\"" }, "geometry": { "type": "Point", "coordinates": [ -1.7827212, 53.6444005 ] } },
	{ "type": "Feature", "properties": { "osm_id": "1054417538", "amenity": "parking" }, "geometry": { "type": "Point", "coordinates": [ -1.9034404, 53.9536297 ] } },
	{ "type": "Feature", "properties": { "osm_id": "1054924602", "amenity": "parking", "other_tags": "\"parking\"=>\"layby\"" }, "geometry": { "type": "Point", "coordinates": [ -1.7136131, 53.9042401 ] } },
	{ "type": "Feature", "properties": { "osm_id": "1062676621", "amenity": "parking" }, "geometry": { "type": "Point", "coordinates": [ -1.7111872, 53.6941097 ] } },
	{ "type": "Feature", "properties": { "osm_id": "1069390312", "amenity": "parking" }, "geometry": { "type": "Point", "coordinates": [ -1.7926415, 53.6469874 ] } },
	{ "type": "Feature", "properties": { "osm_id": "1110794395", "amenity": "parking" }, "geometry": { "type": "Point", "coordinates": [ -1.7388708, 53.7794629 ] } },
	{ "type": "Feature", "properties": { "osm_id": "1111892121", "amenity": "parking" }, "geometry": { "type": "Point", "coordinates": [ -1.437194, 53.7981542 ] } },
	{ "type": "Feature", "properties": { "osm_id": "1122549995", "amenity": "parking", "other_tags": "\"capacity\"=>\"10\"" }, "geometry": { "type": "Point", "coordinates": [ -1.7104976, 53.7679843 ] } },
	{ "type": "Feature", "properties": { "osm_id": "1164233047", "name": "Fernville Leisure Centre", "amenity": "parking" }, "geometry": { "type": "Point", "coordinates": [ -1.4878322, 53.8154119 ] } },
	{ "type": "Feature", "properties": { "osm_id": "1166053841", "amenity": "parking", "other_tags": "\"parking\"=>\"surface\"" }, "geometry": { "type": "Point", "coordinates": [ -1.7560752, 53.7215056 ] } },
	{ "type": "Feature", "properties": { "osm_id": "1235988169", "name": "Bull Green Car Park", "amenity": "parking", "other_tags": "\"capacity\"=>\"40\"" }, "geometry": { "type": "Point", "coordinates": [ -1.8635873, 53.7216044 ] } },
	{ "type": "Feature", "properties": { "osm_id": "1270900651", "amenity": "parking", "other_tags": "\"access\"=>\"permissive\",\"parking\"=>\"surface\",\"surface\"=>\"asphalt\"" }, "geometry": { "type": "Point", "coordinates": [ -1.7739352, 53.6448352 ] } },
	{ "type": "Feature", "properties": { "osm_id": "1273056315", "amenity": "parking" }, "geometry": { "type": "Point", "coordinates": [ -1.9981086, 53.8255018 ] } },
	{ "type": "Feature", "properties": { "osm_id": "1273076829", "amenity": "parking" }, "geometry": { "type": "Point", "coordinates": [ -1.9924897, 53.8291296 ] } },
	{ "type": "Feature", "properties": { "osm_id": "1273492159", "amenity": "parking", "other_tags": "\"description\"=>\"Layby\"" }, "geometry": { "type": "Point", "coordinates": [ -1.9776931, 53.7989342 ] } },
	{ "type": "Feature", "properties": { "osm_id": "1275627723", "amenity": "parking", "other_tags": "\"parking\"=>\"surface\"" }, "geometry": { "type": "Point", "coordinates": [ -1.8063674, 53.6513202 ] } },
	{ "type": "Feature", "properties": { "osm_id": "1277053685", "amenity": "parking", "other_tags": "\"parking\"=>\"surface\"" }, "geometry": { "type": "Point", "coordinates": [ -1.9529015, 53.8142683 ] } },
	{ "type": "Feature", "properties": { "osm_id": "1277058446", "amenity": "parking", "other_tags": "\"access\"=>\"customers\",\"parking\"=>\"surface\"" }, "geometry": { "type": "Point", "coordinates": [ -1.9283463, 53.8045578 ] } },
	{ "type": "Feature", "properties": { "osm_id": "1291420259", "amenity": "parking", "other_tags": "\"fee\"=>\"no\",\"parking\"=>\"surface\"" }, "geometry": { "type": "Point", "coordinates": [ -1.9468314, 53.834654 ] } },
	{ "type": "Feature", "properties": { "osm_id": "1295087596", "amenity": "parking", "other_tags": "\"parking\"=>\"layby\"" }, "geometry": { "type": "Point", "coordinates": [ -1.7609989, 53.7219478 ] } },
	{ "type": "Feature", "properties": { "osm_id": "1298783016", "amenity": "parking", "other_tags": "\"parking\"=>\"surface\"" }, "geometry": { "type": "Point", "coordinates": [ -1.8643883, 53.8460058 ] } },
	{ "type": "Feature", "properties": { "osm_id": "1305821725", "amenity": "parking" }, "geometry": { "type": "Point", "coordinates": [ -1.3882111, 53.7120626 ] } },
	{ "type": "Feature", "properties": { "osm_id": "1305821759", "amenity": "parking" }, "geometry": { "type": "Point", "coordinates": [ -1.3873674, 53.7123346 ] } },
	{ "type": "Feature", "properties": { "osm_id": "1305830213", "amenity": "parking" }, "geometry": { "type": "Point", "coordinates": [ -1.3886322, 53.7115451 ] } },
	{ "type": "Feature", "properties": { "osm_id": "1305871928", "amenity": "parking" }, "geometry": { "type": "Point", "coordinates": [ -1.3712197, 53.7158822 ] } },
	{ "type": "Feature", "properties": { "osm_id": "1305872038", "amenity": "parking" }, "geometry": { "type": "Point", "coordinates": [ -1.3726895, 53.7163711 ] } },
	{ "type": "Feature", "properties": { "osm_id": "1305889226", "amenity": "parking" }, "geometry": { "type": "Point", "coordinates": [ -1.3811653, 53.7093674 ] } },
	{ "type": "Feature", "properties": { "osm_id": "1305889254", "amenity": "parking" }, "geometry": { "type": "Point", "coordinates": [ -1.3831609, 53.7094182 ] } },
	{ "type": "Feature", "properties": { "osm_id": "1305889279", "amenity": "parking" }, "geometry": { "type": "Point", "coordinates": [ -1.3801997, 53.7094817 ] } },
	{ "type": "Feature", "properties": { "osm_id": "1308357676", "amenity": "parking", "other_tags": "\"description\"=>\"Layby\"" }, "geometry": { "type": "Point", "coordinates": [ -1.2611339, 53.6561502 ] } },
	{ "type": "Feature", "properties": { "osm_id": "1308357686", "amenity": "parking", "other_tags": "\"description\"=>\"Layby\"" }, "geometry": { "type": "Point", "coordinates": [ -1.2623569, 53.669386 ] } },
	{ "type": "Feature", "properties": { "osm_id": "1321558096", "amenity": "parking", "other_tags": "\"access\"=>\"permissive\",\"parking\"=>\"surface\"" }, "geometry": { "type": "Point", "coordinates": [ -1.7844988, 53.629396 ] } },
	{ "type": "Feature", "properties": { "osm_id": "1345707015", "amenity": "parking" }, "geometry": { "type": "Point", "coordinates": [ -1.7706966, 53.5821848 ] } },
	{ "type": "Feature", "properties": { "osm_id": "1345707137", "amenity": "parking" }, "geometry": { "type": "Point", "coordinates": [ -1.7724608, 53.5835728 ] } },
	{ "type": "Feature", "properties": { "osm_id": "1348009329", "name": "Bridge Lane Car Park", "amenity": "parking", "other_tags": "\"access\"=>\"yes\",\"maxstay\"=>\"Long stay\",\"parking\"=>\"surface\",\"capacity\"=>\"17\",\"capacity:disabled\"=>\"no\"" }, "geometry": { "type": "Point", "coordinates": [ -1.7844971, 53.5731996 ] } },
	{ "type": "Feature", "properties": { "osm_id": "1349165519", "amenity": "parking" }, "geometry": { "type": "Point", "coordinates": [ -1.9740558, 53.822875 ] } },
	{ "type": "Feature", "properties": { "osm_id": "1354688203", "amenity": "parking", "other_tags": "\"access\"=>\"permissive\",\"parking\"=>\"surface\"" }, "geometry": { "type": "Point", "coordinates": [ -1.7862279, 53.6280916 ] } },
	{ "type": "Feature", "properties": { "osm_id": "1358331949", "amenity": "parking", "other_tags": "\"parking\"=>\"surface\"" }, "geometry": { "type": "Point", "coordinates": [ -1.762383, 53.6820657 ] } },
	{ "type": "Feature", "properties": { "osm_id": "1362178543", "amenity": "parking" }, "geometry": { "type": "Point", "coordinates": [ -1.6241663, 53.787354 ] } },
	{ "type": "Feature", "properties": { "osm_id": "1363626806", "amenity": "parking" }, "geometry": { "type": "Point", "coordinates": [ -1.8132203, 53.6976128 ] } },
	{ "type": "Feature", "properties": { "osm_id": "1370583012", "amenity": "parking", "other_tags": "\"fee\"=>\"no\",\"parking\"=>\"surface\"" }, "geometry": { "type": "Point", "coordinates": [ -1.7419034, 53.6629016 ] } },
	{ "type": "Feature", "properties": { "osm_id": "1371043750", "amenity": "parking", "other_tags": "\"access\"=>\"permissive\",\"parking\"=>\"surface\"" }, "geometry": { "type": "Point", "coordinates": [ -1.7765645, 53.6548824 ] } },
	{ "type": "Feature", "properties": { "osm_id": "1379104250", "amenity": "parking", "other_tags": "\"parking\"=>\"layby\"" }, "geometry": { "type": "Point", "coordinates": [ -1.6966043, 53.9004412 ] } },
	{ "type": "Feature", "properties": { "osm_id": "1379104286", "amenity": "parking", "other_tags": "\"parking\"=>\"layby\"" }, "geometry": { "type": "Point", "coordinates": [ -1.7268429, 53.9095477 ] } },
	{ "type": "Feature", "properties": { "osm_id": "1379322922", "amenity": "parking", "other_tags": "\"parking\"=>\"layby\"" }, "geometry": { "type": "Point", "coordinates": [ -1.7597272, 53.9195667 ] } },
	{ "type": "Feature", "properties": { "osm_id": "1379363064", "amenity": "parking", "other_tags": "\"fee\"=>\"no\",\"parking\"=>\"layby\",\"park_ride\"=>\"no\",\"supervised\"=>\"no\"" }, "geometry": { "type": "Point", "coordinates": [ -1.8433072, 53.9275659 ] } },
	{ "type": "Feature", "properties": { "osm_id": "1379408520", "amenity": "parking", "other_tags": "\"parking\"=>\"layby\"" }, "geometry": { "type": "Point", "coordinates": [ -1.8653114, 53.9361132 ] } },
	{ "type": "Feature", "properties": { "osm_id": "1400442104", "amenity": "parking", "other_tags": "\"parking\"=>\"layby\"" }, "geometry": { "type": "Point", "coordinates": [ -1.8500343, 53.8614341 ] } },
	{ "type": "Feature", "properties": { "osm_id": "1401189936", "amenity": "parking" }, "geometry": { "type": "Point", "coordinates": [ -2.0714899, 53.7180571 ] } },
	{ "type": "Feature", "properties": { "osm_id": "1413797390", "name": "Fielden Square", "amenity": "parking" }, "geometry": { "type": "Point", "coordinates": [ -2.099082, 53.71199 ] } },
	{ "type": "Feature", "properties": { "osm_id": "1425519635", "amenity": "parking" }, "geometry": { "type": "Point", "coordinates": [ -2.1103638, 53.7418551 ] } },
	{ "type": "Feature", "properties": { "osm_id": "1430607604", "amenity": "parking", "other_tags": "\"parking\"=>\"layby\"" }, "geometry": { "type": "Point", "coordinates": [ -1.361127, 53.6443987 ] } },
	{ "type": "Feature", "properties": { "osm_id": "1510489205", "amenity": "parking" }, "geometry": { "type": "Point", "coordinates": [ -1.5044387, 53.8830672 ] } },
	{ "type": "Feature", "properties": { "osm_id": "1510489222", "amenity": "parking" }, "geometry": { "type": "Point", "coordinates": [ -1.4988222, 53.8811478 ] } },
	{ "type": "Feature", "properties": { "osm_id": "1518686243", "amenity": "parking" }, "geometry": { "type": "Point", "coordinates": [ -1.6078, 53.8147449 ] } },
	{ "type": "Feature", "properties": { "osm_id": "1518686712", "amenity": "parking" }, "geometry": { "type": "Point", "coordinates": [ -1.6243245, 53.8207001 ] } },
	{ "type": "Feature", "properties": { "osm_id": "1535334468", "amenity": "parking" }, "geometry": { "type": "Point", "coordinates": [ -2.1045409, 53.7069286 ] } },
	{ "type": "Feature", "properties": { "osm_id": "1535360873", "amenity": "parking" }, "geometry": { "type": "Point", "coordinates": [ -2.1035901, 53.7076708 ] } },
	{ "type": "Feature", "properties": { "osm_id": "1539629115", "amenity": "parking" }, "geometry": { "type": "Point", "coordinates": [ -1.7207228, 53.8116668 ] } },
	{ "type": "Feature", "properties": { "osm_id": "1539629180", "amenity": "parking" }, "geometry": { "type": "Point", "coordinates": [ -1.7276751, 53.8050353 ] } },
	{ "type": "Feature", "properties": { "osm_id": "1562969291", "amenity": "parking", "other_tags": "\"access\"=>\"customers\",\"fee\"=>\"no\",\"parking\"=>\"surface\"" }, "geometry": { "type": "Point", "coordinates": [ -1.5542396, 53.8213808 ] } },
	{ "type": "Feature", "properties": { "osm_id": "1574645784", "amenity": "parking" }, "geometry": { "type": "Point", "coordinates": [ -1.832278, 53.8471812 ] } },
	{ "type": "Feature", "properties": { "osm_id": "1574645809", "amenity": "parking" }, "geometry": { "type": "Point", "coordinates": [ -1.8337506, 53.8468695 ] } },
	{ "type": "Feature", "properties": { "osm_id": "1574645923", "amenity": "parking" }, "geometry": { "type": "Point", "coordinates": [ -1.8333831, 53.8472097 ] } },
	{ "type": "Feature", "properties": { "osm_id": "1574646020", "amenity": "parking" }, "geometry": { "type": "Point", "coordinates": [ -1.8341019, 53.8472571 ] } },
	{ "type": "Feature", "properties": { "osm_id": "1574646036", "amenity": "parking" }, "geometry": { "type": "Point", "coordinates": [ -1.8328359, 53.8472192 ] } },
	{ "type": "Feature", "properties": { "osm_id": "1578571085", "amenity": "parking" }, "geometry": { "type": "Point", "coordinates": [ -1.2939136, 53.7693504 ] } },
	{ "type": "Feature", "properties": { "osm_id": "1594779763", "amenity": "parking" }, "geometry": { "type": "Point", "coordinates": [ -1.4244457, 53.8287757 ] } },
	{ "type": "Feature", "properties": { "osm_id": "1603719430", "amenity": "parking" }, "geometry": { "type": "Point", "coordinates": [ -1.4285602, 53.8376484 ] } },
	{ "type": "Feature", "properties": { "osm_id": "1606531371", "amenity": "parking" }, "geometry": { "type": "Point", "coordinates": [ -1.4297154, 53.8309165 ] } },
	{ "type": "Feature", "properties": { "osm_id": "1606587524", "amenity": "parking" }, "geometry": { "type": "Point", "coordinates": [ -1.4243168, 53.8246313 ] } },
	{ "type": "Feature", "properties": { "osm_id": "1606587681", "amenity": "parking" }, "geometry": { "type": "Point", "coordinates": [ -1.4238926, 53.8236359 ] } },
	{ "type": "Feature", "properties": { "osm_id": "1606587829", "amenity": "parking" }, "geometry": { "type": "Point", "coordinates": [ -1.4254245, 53.8228363 ] } },
	{ "type": "Feature", "properties": { "osm_id": "1607337024", "amenity": "parking" }, "geometry": { "type": "Point", "coordinates": [ -1.4457633, 53.8138426 ] } },
	{ "type": "Feature", "properties": { "osm_id": "1607347381", "amenity": "parking" }, "geometry": { "type": "Point", "coordinates": [ -1.4303072, 53.8262512 ] } },
	{ "type": "Feature", "properties": { "osm_id": "1607443373", "amenity": "parking" }, "geometry": { "type": "Point", "coordinates": [ -1.4306172, 53.8296662 ] } },
	{ "type": "Feature", "properties": { "osm_id": "1607453710", "amenity": "parking" }, "geometry": { "type": "Point", "coordinates": [ -1.4276587, 53.8373906 ] } },
	{ "type": "Feature", "properties": { "osm_id": "1625175314", "amenity": "parking" }, "geometry": { "type": "Point", "coordinates": [ -1.4262615, 53.8255576 ] } },
	{ "type": "Feature", "properties": { "osm_id": "1628530508", "amenity": "parking" }, "geometry": { "type": "Point", "coordinates": [ -1.3191415, 53.7248776 ] } },
	{ "type": "Feature", "properties": { "osm_id": "1628530564", "amenity": "parking" }, "geometry": { "type": "Point", "coordinates": [ -1.3193132, 53.7255187 ] } },
	{ "type": "Feature", "properties": { "osm_id": "1635224211", "amenity": "parking" }, "geometry": { "type": "Point", "coordinates": [ -1.580823, 53.6793164 ] } },
	{ "type": "Feature", "properties": { "osm_id": "1635224228", "amenity": "parking" }, "geometry": { "type": "Point", "coordinates": [ -1.5785128, 53.6798328 ] } },
	{ "type": "Feature", "properties": { "osm_id": "1635224234", "amenity": "parking" }, "geometry": { "type": "Point", "coordinates": [ -1.5777545, 53.6804634 ] } },
	{ "type": "Feature", "properties": { "osm_id": "1635224241", "amenity": "parking" }, "geometry": { "type": "Point", "coordinates": [ -1.5788167, 53.6791448 ] } },
	{ "type": "Feature", "properties": { "osm_id": "1635224245", "amenity": "parking" }, "geometry": { "type": "Point", "coordinates": [ -1.5782212, 53.6801616 ] } },
	{ "type": "Feature", "properties": { "osm_id": "1635224256", "amenity": "parking" }, "geometry": { "type": "Point", "coordinates": [ -1.5789776, 53.6806096 ] } },
	{ "type": "Feature", "properties": { "osm_id": "1635224260", "amenity": "parking" }, "geometry": { "type": "Point", "coordinates": [ -1.5800505, 53.6784871 ] } },
	{ "type": "Feature", "properties": { "osm_id": "1639500679", "amenity": "parking" }, "geometry": { "type": "Point", "coordinates": [ -1.9676732, 53.8232646 ] } },
	{ "type": "Feature", "properties": { "osm_id": "1642472594", "amenity": "parking" }, "geometry": { "type": "Point", "coordinates": [ -1.9647181, 53.6652827 ] } },
	{ "type": "Feature", "properties": { "osm_id": "1658023316", "amenity": "parking" }, "geometry": { "type": "Point", "coordinates": [ -1.9547069, 53.8107378 ] } },
	{ "type": "Feature", "properties": { "osm_id": "1658827071", "amenity": "parking" }, "geometry": { "type": "Point", "coordinates": [ -1.7854212, 53.832797 ] } },
	{ "type": "Feature", "properties": { "osm_id": "1667444379", "name": "Manorlands Hospice Car Park", "amenity": "parking" }, "geometry": { "type": "Point", "coordinates": [ -1.9489504, 53.8132105 ] } },
	{ "type": "Feature", "properties": { "osm_id": "1670941444", "amenity": "parking" }, "geometry": { "type": "Point", "coordinates": [ -1.9697646, 53.8014643 ] } },
	{ "type": "Feature", "properties": { "osm_id": "1693632137", "amenity": "parking", "other_tags": "\"fee\"=>\"no\",\"parking\"=>\"surface\",\"capacity\"=>\"10\"" }, "geometry": { "type": "Point", "coordinates": [ -1.4307409, 53.6618442 ] } },
	{ "type": "Feature", "properties": { "osm_id": "1698340709", "amenity": "parking", "other_tags": "\"access\"=>\"yes\",\"parking\"=>\"layby\"" }, "geometry": { "type": "Point", "coordinates": [ -1.8294846, 53.6687952 ] } },
	{ "type": "Feature", "properties": { "osm_id": "1700851986", "amenity": "parking" }, "geometry": { "type": "Point", "coordinates": [ -1.5361833, 53.8856668 ] } },
	{ "type": "Feature", "properties": { "osm_id": "1708512639", "amenity": "parking" }, "geometry": { "type": "Point", "coordinates": [ -1.7812529, 53.5463262 ] } },
	{ "type": "Feature", "properties": { "osm_id": "1710414000", "amenity": "parking" }, "geometry": { "type": "Point", "coordinates": [ -1.7601044, 53.5655172 ] } },
	{ "type": "Feature", "properties": { "osm_id": "1710414062", "amenity": "parking" }, "geometry": { "type": "Point", "coordinates": [ -1.7605925, 53.5658167 ] } },
	{ "type": "Feature", "properties": { "osm_id": "1710470872", "amenity": "parking" }, "geometry": { "type": "Point", "coordinates": [ -1.7808164, 53.5637394 ] } },
	{ "type": "Feature", "properties": { "osm_id": "1710470962", "name": "Huddersfield Sailing Club", "amenity": "parking", "other_tags": "\"fee\"=>\"no\",\"access\"=>\"private\",\"parking\"=>\"surface\",\"surface\"=>\"unpaved\",\"capacity\"=>\"20\",\"park_ride\"=>\"no\",\"supervised\"=>\"no\"" }, "geometry": { "type": "Point", "coordinates": [ -1.7725337, 53.5463016 ] } },
	{ "type": "Feature", "properties": { "osm_id": "1710610498", "amenity": "parking" }, "geometry": { "type": "Point", "coordinates": [ -1.7804677, 53.5495335 ] } },
	{ "type": "Feature", "properties": { "osm_id": "1710610525", "amenity": "parking" }, "geometry": { "type": "Point", "coordinates": [ -1.7807037, 53.5492371 ] } },
	{ "type": "Feature", "properties": { "osm_id": "1711414882", "amenity": "parking" }, "geometry": { "type": "Point", "coordinates": [ -1.8055694, 53.5414524 ] } },
	{ "type": "Feature", "properties": { "osm_id": "1711506762", "amenity": "parking" }, "geometry": { "type": "Point", "coordinates": [ -1.7846924, 53.5347614 ] } },
	{ "type": "Feature", "properties": { "osm_id": "1711507055", "amenity": "parking", "other_tags": "\"access\"=>\"customers\"" }, "geometry": { "type": "Point", "coordinates": [ -1.7792455, 53.547665 ] } },
	{ "type": "Feature", "properties": { "osm_id": "1711536768", "amenity": "parking" }, "geometry": { "type": "Point", "coordinates": [ -1.7938751, 53.5403727 ] } },
	{ "type": "Feature", "properties": { "osm_id": "1711568902", "amenity": "parking" }, "geometry": { "type": "Point", "coordinates": [ -1.78298, 53.5462028 ] } },
	{ "type": "Feature", "properties": { "osm_id": "1711569030", "amenity": "parking" }, "geometry": { "type": "Point", "coordinates": [ -1.7871213, 53.5469136 ] } },
	{ "type": "Feature", "properties": { "osm_id": "1723080645", "name": "cheerful chili parking", "amenity": "parking", "other_tags": "\"parking\"=>\"surface\",\"capacity\"=>\"7\"" }, "geometry": { "type": "Point", "coordinates": [ -1.671231, 53.8933672 ] } },
	{ "type": "Feature", "properties": { "osm_id": "1781350088", "amenity": "parking" }, "geometry": { "type": "Point", "coordinates": [ -1.7762154, 53.8326645 ] } },
	{ "type": "Feature", "properties": { "osm_id": "1800483014", "amenity": "parking", "other_tags": "\"fee\"=>\"yes\"" }, "geometry": { "type": "Point", "coordinates": [ -1.490546, 53.6944315 ] } },
	{ "type": "Feature", "properties": { "osm_id": "1800890623", "amenity": "parking", "other_tags": "\"access\"=>\"private\"" }, "geometry": { "type": "Point", "coordinates": [ -1.4881101, 53.6954034 ] } },
	{ "type": "Feature", "properties": { "osm_id": "1833424460", "amenity": "parking", "other_tags": "\"access\"=>\"yes\",\"fee\"=>\"no\",\"parking\"=>\"surface\"" }, "geometry": { "type": "Point", "coordinates": [ -1.3438967, 53.7244827 ] } },
	{ "type": "Feature", "properties": { "osm_id": "1871602266", "amenity": "parking" }, "geometry": { "type": "Point", "coordinates": [ -1.9767594, 53.8250123 ] } },
	{ "type": "Feature", "properties": { "osm_id": "1871602285", "amenity": "parking" }, "geometry": { "type": "Point", "coordinates": [ -1.9740033, 53.8271849 ] } },
	{ "type": "Feature", "properties": { "osm_id": "1878028958", "amenity": "parking" }, "geometry": { "type": "Point", "coordinates": [ -1.2942203, 53.7028186 ] } },
	{ "type": "Feature", "properties": { "osm_id": "1878555305", "amenity": "parking" }, "geometry": { "type": "Point", "coordinates": [ -1.2937544, 53.6918711 ] } },
	{ "type": "Feature", "properties": { "osm_id": "1915080824", "amenity": "parking", "other_tags": "\"description\"=>\"Layby\"" }, "geometry": { "type": "Point", "coordinates": [ -1.9704073, 53.8507547 ] } },
	{ "type": "Feature", "properties": { "osm_id": "1915082774", "amenity": "parking", "other_tags": "\"description\"=>\"Patch of gravel by side of road\"" }, "geometry": { "type": "Point", "coordinates": [ -1.9981275, 53.8595158 ] } },
	{ "type": "Feature", "properties": { "osm_id": "1915082788", "amenity": "parking", "other_tags": "\"description\"=>\"Layby\"" }, "geometry": { "type": "Point", "coordinates": [ -2.0016946, 53.8694771 ] } },
	{ "type": "Feature", "properties": { "osm_id": "1919773514", "amenity": "parking", "other_tags": "\"access\"=>\"permissive\",\"operator\"=>\"University of Huddersfield\",\"parking\"=>\"surface\"" }, "geometry": { "type": "Point", "coordinates": [ -1.7761329, 53.6421621 ] } },
	{ "type": "Feature", "properties": { "osm_id": "1932763109", "amenity": "parking", "other_tags": "\"access\"=>\"permissive\",\"parking\"=>\"surface\"" }, "geometry": { "type": "Point", "coordinates": [ -1.7761367, 53.6554296 ] } },
	{ "type": "Feature", "properties": { "osm_id": "1935243712", "amenity": "parking" }, "geometry": { "type": "Point", "coordinates": [ -1.8275582, 53.5468297 ] } },
	{ "type": "Feature", "properties": { "osm_id": "2060044776", "amenity": "parking" }, "geometry": { "type": "Point", "coordinates": [ -1.7874337, 53.6244414 ] } },
	{ "type": "Feature", "properties": { "osm_id": "2060046704", "amenity": "parking" }, "geometry": { "type": "Point", "coordinates": [ -1.792664, 53.6251445 ] } },
	{ "type": "Feature", "properties": { "osm_id": "2073147211", "amenity": "parking" }, "geometry": { "type": "Point", "coordinates": [ -1.7487371, 53.6468373 ] } },
	{ "type": "Feature", "properties": { "osm_id": "2090265614", "amenity": "parking", "other_tags": "\"parking\"=>\"surface\",\"operator\"=>\"Kirklees Council\"" }, "geometry": { "type": "Point", "coordinates": [ -1.7470957, 53.6345957 ] } },
	{ "type": "Feature", "properties": { "osm_id": "2090265771", "amenity": "parking", "other_tags": "\"parking\"=>\"surface\"" }, "geometry": { "type": "Point", "coordinates": [ -1.7451065, 53.6408083 ] } },
	{ "type": "Feature", "properties": { "osm_id": "2090265780", "amenity": "parking", "other_tags": "\"parking\"=>\"surface\"" }, "geometry": { "type": "Point", "coordinates": [ -1.7393048, 53.6416295 ] } },
	{ "type": "Feature", "properties": { "osm_id": "2091633420", "amenity": "parking", "other_tags": "\"layer\"=>\"-1\",\"parking\"=>\"underground\"" }, "geometry": { "type": "Point", "coordinates": [ -1.3832653, 53.7972006 ] } },
	{ "type": "Feature", "properties": { "osm_id": "2098398221", "amenity": "parking", "other_tags": "\"parking\"=>\"surface\"" }, "geometry": { "type": "Point", "coordinates": [ -1.7427849, 53.6511468 ] } },
	{ "type": "Feature", "properties": { "osm_id": "2101160576", "amenity": "parking" }, "geometry": { "type": "Point", "coordinates": [ -1.9845836, 53.6196908 ] } },
	{ "type": "Feature", "properties": { "osm_id": "2104456564", "amenity": "parking" }, "geometry": { "type": "Point", "coordinates": [ -1.8345459, 53.6962711 ] } },
	{ "type": "Feature", "properties": { "osm_id": "2117785836", "amenity": "parking" }, "geometry": { "type": "Point", "coordinates": [ -1.938706, 53.6350447 ] } },
	{ "type": "Feature", "properties": { "osm_id": "2140500236", "amenity": "parking", "other_tags": "\"school\"=>\"parking\"" }, "geometry": { "type": "Point", "coordinates": [ -1.8317237, 53.7408257 ] } },
	{ "type": "Feature", "properties": { "osm_id": "2145561747", "amenity": "parking" }, "geometry": { "type": "Point", "coordinates": [ -1.544757, 53.7983475 ] } },
	{ "type": "Feature", "properties": { "osm_id": "2145676788", "amenity": "parking", "other_tags": "\"wheelchair\"=>\"yes\"" }, "geometry": { "type": "Point", "coordinates": [ -1.5460544, 53.7979922 ] } },
	{ "type": "Feature", "properties": { "osm_id": "2156260549", "amenity": "parking" }, "geometry": { "type": "Point", "coordinates": [ -1.8142163, 53.7381907 ] } },
	{ "type": "Feature", "properties": { "osm_id": "2156263208", "amenity": "parking" }, "geometry": { "type": "Point", "coordinates": [ -1.8147554, 53.7376339 ] } },
	{ "type": "Feature", "properties": { "osm_id": "2176922694", "amenity": "parking", "other_tags": "\"parking\"=>\"surface\"" }, "geometry": { "type": "Point", "coordinates": [ -1.8783399, 53.6211971 ] } },
	{ "type": "Feature", "properties": { "osm_id": "2185726449", "amenity": "parking" }, "geometry": { "type": "Point", "coordinates": [ -1.6975108, 53.6875661 ] } },
	{ "type": "Feature", "properties": { "osm_id": "2209978860", "amenity": "parking" }, "geometry": { "type": "Point", "coordinates": [ -1.3752121, 53.6391318 ] } },
	{ "type": "Feature", "properties": { "osm_id": "2211202224", "amenity": "parking", "other_tags": "\"parking\"=>\"layby\"" }, "geometry": { "type": "Point", "coordinates": [ -1.7312885, 53.7354939 ] } },
	{ "type": "Feature", "properties": { "osm_id": "2238279527", "amenity": "parking", "other_tags": "\"parking\"=>\"layby\"" }, "geometry": { "type": "Point", "coordinates": [ -1.5687618, 53.7441402 ] } },
	{ "type": "Feature", "properties": { "osm_id": "2280546488", "amenity": "parking", "other_tags": "\"parking\"=>\"surface\"" }, "geometry": { "type": "Point", "coordinates": [ -1.8009317, 53.8467688 ] } },
	{ "type": "Feature", "properties": { "osm_id": "2280546491", "amenity": "parking", "other_tags": "\"parking\"=>\"surface\"" }, "geometry": { "type": "Point", "coordinates": [ -1.8002933, 53.8465661 ] } },
	{ "type": "Feature", "properties": { "osm_id": "2280546494", "amenity": "parking" }, "geometry": { "type": "Point", "coordinates": [ -1.799022, 53.8461785 ] } },
	{ "type": "Feature", "properties": { "osm_id": "2311682067", "amenity": "parking" }, "geometry": { "type": "Point", "coordinates": [ -1.8019737, 53.8470968 ] } },
	{ "type": "Feature", "properties": { "osm_id": "2374581810", "amenity": "parking", "other_tags": "\"fee\"=>\"no\"" }, "geometry": { "type": "Point", "coordinates": [ -1.7946364, 53.6331471 ] } },
	{ "type": "Feature", "properties": { "osm_id": "2408993698", "amenity": "parking" }, "geometry": { "type": "Point", "coordinates": [ -1.8098023, 53.5542678 ] } },
	{ "type": "Feature", "properties": { "osm_id": "2474082828", "amenity": "parking", "other_tags": "\"parking\"=>\"surface\"" }, "geometry": { "type": "Point", "coordinates": [ -1.8393427, 53.6727455 ] } },
	{ "type": "Feature", "properties": { "osm_id": "2558097124", "amenity": "parking", "other_tags": "\"parking\"=>\"surface\"" }, "geometry": { "type": "Point", "coordinates": [ -1.79198, 53.603954 ] } },
	{ "type": "Feature", "properties": { "osm_id": "2558097142", "amenity": "parking", "other_tags": "\"parking\"=>\"surface\"" }, "geometry": { "type": "Point", "coordinates": [ -1.7939221, 53.6027573 ] } },
	{ "type": "Feature", "properties": { "osm_id": "2645669463", "amenity": "parking" }, "geometry": { "type": "Point", "coordinates": [ -2.0334668, 53.8374223 ] } },
	{ "type": "Feature", "properties": { "osm_id": "2656045704", "amenity": "parking" }, "geometry": { "type": "Point", "coordinates": [ -1.5384591, 53.8868515 ] } },
	{ "type": "Feature", "properties": { "osm_id": "2656045762", "amenity": "parking" }, "geometry": { "type": "Point", "coordinates": [ -1.5411176, 53.887767 ] } },
	{ "type": "Feature", "properties": { "osm_id": "2781904245", "amenity": "parking", "other_tags": "\"access\"=>\"customers\"" }, "geometry": { "type": "Point", "coordinates": [ -1.59788, 53.6915367 ] } },
	{ "type": "Feature", "properties": { "osm_id": "2882993106", "amenity": "parking" }, "geometry": { "type": "Point", "coordinates": [ -1.3461121, 53.7426148 ] } },
	{ "type": "Feature", "properties": { "osm_id": "2909109595", "name": "Parking - Church of St John the Baptist", "amenity": "parking", "other_tags": "\"parking\"=>\"surface\"" }, "geometry": { "type": "Point", "coordinates": [ -1.5853753, 53.8574815 ] } },
	{ "type": "Feature", "properties": { "osm_id": "3036893951", "amenity": "parking", "other_tags": "\"parking\"=>\"layby\"" }, "geometry": { "type": "Point", "coordinates": [ -1.2678482, 53.7182697 ] } },
	{ "type": "Feature", "properties": { "osm_id": "3291173098", "amenity": "parking", "other_tags": "\"parking\"=>\"surface\"" }, "geometry": { "type": "Point", "coordinates": [ -1.5586836, 53.7977785 ] } },
	{ "type": "Feature", "properties": { "osm_id": "3370797544", "amenity": "parking", "other_tags": "\"parking\"=>\"layby\"" }, "geometry": { "type": "Point", "coordinates": [ -1.4707944, 53.9006343 ] } },
	{ "type": "Feature", "properties": { "osm_id": "3370797546", "amenity": "parking", "other_tags": "\"parking\"=>\"layby\"" }, "geometry": { "type": "Point", "coordinates": [ -1.47831, 53.9006153 ] } },
	{ "type": "Feature", "properties": { "osm_id": "3393775167", "name": "Rose Bowl", "amenity": "parking", "other_tags": "\"capacity\"=>\"200\",\"layer\"=>\"-1\",\"operator\"=>\"Leeds Beckett University\",\"parking\"=>\"underground\",\"park_ride\"=>\"no\"" }, "geometry": { "type": "Point", "coordinates": [ -1.5472181, 53.8030277 ] } },
	{ "type": "Feature", "properties": { "osm_id": "3520825380", "amenity": "parking", "other_tags": "\"parking\"=>\"layby\"" }, "geometry": { "type": "Point", "coordinates": [ -1.3123537, 53.6228192 ] } },
	{ "type": "Feature", "properties": { "osm_id": "3551010966", "amenity": "parking" }, "geometry": { "type": "Point", "coordinates": [ -1.847881, 53.6759375 ] } },
	{ "type": "Feature", "properties": { "osm_id": "3551010970", "amenity": "parking" }, "geometry": { "type": "Point", "coordinates": [ -1.850741, 53.6821721 ] } },
	{ "type": "Feature", "properties": { "osm_id": "3554512972", "amenity": "parking" }, "geometry": { "type": "Point", "coordinates": [ -1.8479856, 53.7415364 ] } },
	{ "type": "Feature", "properties": { "osm_id": "3613933551", "amenity": "parking" }, "geometry": { "type": "Point", "coordinates": [ -1.4381952, 53.8136338 ] } },
	{ "type": "Feature", "properties": { "osm_id": "3641444656", "amenity": "parking" }, "geometry": { "type": "Point", "coordinates": [ -1.8393189, 53.6377072 ] } },
	{ "type": "Feature", "properties": { "osm_id": "3810063360", "amenity": "parking", "other_tags": "\"access\"=>\"yes\",\"surface\"=>\"asphalt\",\"capacity\"=>\"3\",\"smoothness\"=>\"good\"" }, "geometry": { "type": "Point", "coordinates": [ -1.9680348, 53.6250037 ] } },
	{ "type": "Feature", "properties": { "osm_id": "3812756758", "amenity": "parking", "other_tags": "\"fee\"=>\"no\",\"access\"=>\"yes\",\"parking\"=>\"surface\",\"surface\"=>\"asphalt\",\"capacity\"=>\"10\",\"smoothness\"=>\"intermediate\",\"supervised\"=>\"no\"" }, "geometry": { "type": "Point", "coordinates": [ -1.9810993, 53.7938921 ] } },
	{ "type": "Feature", "properties": { "osm_id": "4172192304", "amenity": "parking", "other_tags": "\"parking\"=>\"layby\"" }, "geometry": { "type": "Point", "coordinates": [ -1.6674276, 53.6376064 ] } },
	{ "type": "Feature", "properties": { "osm_id": "4209888892", "amenity": "parking" }, "geometry": { "type": "Point", "coordinates": [ -1.6042375, 53.6291024 ] } },
	{ "type": "Feature", "properties": { "osm_id": "4243961204", "amenity": "parking" }, "geometry": { "type": "Point", "coordinates": [ -1.5613007, 53.8140977 ] } },
	{ "type": "Feature", "properties": { "osm_id": "4375392579", "name": "Coach Parking Area", "amenity": "parking" }, "geometry": { "type": "Point", "coordinates": [ -1.5564797, 53.6089542 ] } },
	{ "type": "Feature", "properties": { "osm_id": "4462989890", "amenity": "parking" }, "geometry": { "type": "Point", "coordinates": [ -2.0987789, 53.7113329 ] } },
	{ "type": "Feature", "properties": { "osm_id": "4469261674", "amenity": "parking", "other_tags": "\"access\"=>\"customers\"" }, "geometry": { "type": "Point", "coordinates": [ -1.7930208, 53.8397068 ] } }
]
}
