{
"type": "FeatureCollection",
"crs": { "type": "name", "properties": { "name": "urn:ogc:def:crs:OGC:1.3:CRS84" } },
"features": [
	{ "type": "Feature", "properties": { "osm_id": "366919959", "amenity": "waste_basket", "other_tags": "\"waste\"=>\"trash\"" }, "geometry": { "type": "Point", "coordinates": [ -1.8419878, 53.859641 ] } },
	{ "type": "Feature", "properties": { "osm_id": "496716191", "name": "Dewsbury Road Topcliffe Lane", "amenity": "waste_basket", "highway": "bus_stop", "other_tags": "\"kerb\"=>\"raised\",\"layby\"=>\"yes\",\"shelter\"=>\"no\",\"local_ref\"=>\"45011331\",\"timetable\"=>\"yes\",\"naptan:Street\"=>\"Dewsbury Road\",\"naptan:Bearing\"=>\"NE\",\"naptan:AtcoCode\"=>\"450011331\",\"naptan:Crossing\"=>\"Topcliffe Lane\",\"naptan:Landmark\"=>\"Business Park\",\"naptan:verified\"=>\"yes\",\"naptan:Indicator\"=>\"Stop 45011331\",\"naptan:CommonName\"=>\"Dewsbury Road Topcliffe Lane\",\"naptan:PlusbusZoneRef\"=>\"LEEDS\",\"naptan:ShortCommonName\"=>\"Topcliffe Lane\"" }, "geometry": { "type": "Point", "coordinates": [ -1.5749275, 53.7363936 ] } },
	{ "type": "Feature", "properties": { "osm_id": "496718858", "name": "Harrogate Road \/ Chapeltown", "amenity": "waste_basket", "highway": "bus_stop", "other_tags": "\"shelter\"=>\"no\",\"local_ref\"=>\"45013618\",\"naptan:Street\"=>\"Harrogate Road\",\"naptan:Bearing\"=>\"SE\",\"naptan:AtcoCode\"=>\"450013618\",\"naptan:Crossing\"=>\"Ingle Row\",\"naptan:Landmark\"=>\"Parade of Shops\",\"naptan:verified\"=>\"no\",\"naptan:Indicator\"=>\"Stop 45013618\",\"naptan:CommonName\"=>\"Harrogate Road Chapeltown\",\"naptan:PlusbusZoneRef\"=>\"LEEDS\",\"naptan:ShortCommonName\"=>\"Ingle Row\"" }, "geometry": { "type": "Point", "coordinates": [ -1.5374867, 53.8284302 ] } },
	{ "type": "Feature", "properties": { "osm_id": "496722322", "name": "Wakefield Road High Road", "amenity": "waste_basket", "highway": "bus_stop", "other_tags": "\"kerb\"=>\"raised\",\"shelter\"=>\"no\",\"towards\"=>\"Ossett, Wakefield\",\"local_ref\"=>\"45015295\",\"timetable\"=>\"yes\",\"naptan:Street\"=>\"Wakefield Road\",\"naptan:Bearing\"=>\"E\",\"naptan:AtcoCode\"=>\"450015295\",\"naptan:Crossing\"=>\"High Road\",\"naptan:verified\"=>\"no\",\"naptan:Indicator\"=>\"Stop 45015295\",\"naptan:CommonName\"=>\"Wakefield Road High Road\",\"naptan:PlusbusZoneRef\"=>\"LEEDS\",\"naptan:ShortCommonName\"=>\"High Road\"" }, "geometry": { "type": "Point", "coordinates": [ -1.6206011, 53.6903209 ] } },
	{ "type": "Feature", "properties": { "osm_id": "886838463", "amenity": "waste_basket" }, "geometry": { "type": "Point", "coordinates": [ -1.5069457, 53.830024 ] } },
	{ "type": "Feature", "properties": { "osm_id": "886838475", "amenity": "waste_basket" }, "geometry": { "type": "Point", "coordinates": [ -1.508669, 53.8351329 ] } },
	{ "type": "Feature", "properties": { "osm_id": "886838554", "amenity": "waste_basket" }, "geometry": { "type": "Point", "coordinates": [ -1.5079163, 53.8308358 ] } },
	{ "type": "Feature", "properties": { "osm_id": "886838614", "amenity": "waste_basket" }, "geometry": { "type": "Point", "coordinates": [ -1.506761, 53.8328544 ] } },
	{ "type": "Feature", "properties": { "osm_id": "982564498", "amenity": "waste_basket" }, "geometry": { "type": "Point", "coordinates": [ -1.6477859, 53.6899684 ] } },
	{ "type": "Feature", "properties": { "osm_id": "982564514", "amenity": "waste_basket" }, "geometry": { "type": "Point", "coordinates": [ -1.6471835, 53.6911368 ] } },
	{ "type": "Feature", "properties": { "osm_id": "982564526", "amenity": "waste_basket" }, "geometry": { "type": "Point", "coordinates": [ -1.6471433, 53.6892532 ] } },
	{ "type": "Feature", "properties": { "osm_id": "982564550", "amenity": "waste_basket" }, "geometry": { "type": "Point", "coordinates": [ -1.6488807, 53.6906322 ] } },
	{ "type": "Feature", "properties": { "osm_id": "982564561", "amenity": "waste_basket" }, "geometry": { "type": "Point", "coordinates": [ -1.649941, 53.6893953 ] } },
	{ "type": "Feature", "properties": { "osm_id": "982634249", "amenity": "waste_basket" }, "geometry": { "type": "Point", "coordinates": [ -1.650308, 53.6931763 ] } },
	{ "type": "Feature", "properties": { "osm_id": "988159081", "amenity": "waste_basket" }, "geometry": { "type": "Point", "coordinates": [ -1.4993233, 53.8390984 ] } },
	{ "type": "Feature", "properties": { "osm_id": "988159092", "amenity": "waste_basket" }, "geometry": { "type": "Point", "coordinates": [ -1.5038662, 53.8380064 ] } },
	{ "type": "Feature", "properties": { "osm_id": "988159123", "amenity": "waste_basket" }, "geometry": { "type": "Point", "coordinates": [ -1.5042301, 53.8377544 ] } },
	{ "type": "Feature", "properties": { "osm_id": "988159131", "amenity": "waste_basket" }, "geometry": { "type": "Point", "coordinates": [ -1.4973159, 53.8412834 ] } },
	{ "type": "Feature", "properties": { "osm_id": "988159134", "amenity": "waste_basket" }, "geometry": { "type": "Point", "coordinates": [ -1.4973762, 53.8400363 ] } },
	{ "type": "Feature", "properties": { "osm_id": "988159155", "amenity": "waste_basket" }, "geometry": { "type": "Point", "coordinates": [ -1.4988253, 53.8407174 ] } },
	{ "type": "Feature", "properties": { "osm_id": "988159164", "amenity": "waste_basket" }, "geometry": { "type": "Point", "coordinates": [ -1.4961708, 53.8409283 ] } },
	{ "type": "Feature", "properties": { "osm_id": "988159169", "amenity": "waste_basket" }, "geometry": { "type": "Point", "coordinates": [ -1.5035609, 53.838228 ] } },
	{ "type": "Feature", "properties": { "osm_id": "988159252", "amenity": "waste_basket" }, "geometry": { "type": "Point", "coordinates": [ -1.4962376, 53.8397804 ] } },
	{ "type": "Feature", "properties": { "osm_id": "988714549", "amenity": "waste_basket" }, "geometry": { "type": "Point", "coordinates": [ -1.498088, 53.8397438 ] } },
	{ "type": "Feature", "properties": { "osm_id": "988923258", "amenity": "waste_basket" }, "geometry": { "type": "Point", "coordinates": [ -1.5061358, 53.8399185 ] } },
	{ "type": "Feature", "properties": { "osm_id": "989067341", "amenity": "waste_basket" }, "geometry": { "type": "Point", "coordinates": [ -1.532211, 53.8429905 ] } },
	{ "type": "Feature", "properties": { "osm_id": "989067371", "amenity": "waste_basket" }, "geometry": { "type": "Point", "coordinates": [ -1.5550819, 53.8309836 ] } },
	{ "type": "Feature", "properties": { "osm_id": "989067385", "amenity": "waste_basket" }, "geometry": { "type": "Point", "coordinates": [ -1.5373125, 53.8282152 ] } },
	{ "type": "Feature", "properties": { "osm_id": "989067485", "amenity": "waste_basket" }, "geometry": { "type": "Point", "coordinates": [ -1.5319043, 53.8200154 ] } },
	{ "type": "Feature", "properties": { "osm_id": "998209971", "amenity": "waste_basket" }, "geometry": { "type": "Point", "coordinates": [ -1.6479831, 53.724697 ] } },
	{ "type": "Feature", "properties": { "osm_id": "998210019", "amenity": "waste_basket" }, "geometry": { "type": "Point", "coordinates": [ -1.6475939, 53.7243656 ] } },
	{ "type": "Feature", "properties": { "osm_id": "998210045", "amenity": "waste_basket" }, "geometry": { "type": "Point", "coordinates": [ -1.6475506, 53.7240909 ] } },
	{ "type": "Feature", "properties": { "osm_id": "998210153", "amenity": "waste_basket" }, "geometry": { "type": "Point", "coordinates": [ -1.6491604, 53.7245754 ] } },
	{ "type": "Feature", "properties": { "osm_id": "998210320", "amenity": "waste_basket" }, "geometry": { "type": "Point", "coordinates": [ -1.6485192, 53.7241179 ] } },
	{ "type": "Feature", "properties": { "osm_id": "998210337", "amenity": "waste_basket" }, "geometry": { "type": "Point", "coordinates": [ -1.6512476, 53.7257757 ] } },
	{ "type": "Feature", "properties": { "osm_id": "998210345", "amenity": "waste_basket" }, "geometry": { "type": "Point", "coordinates": [ -1.6492928, 53.7252518 ] } },
	{ "type": "Feature", "properties": { "osm_id": "998210392", "amenity": "waste_basket" }, "geometry": { "type": "Point", "coordinates": [ -1.6479516, 53.7238889 ] } },
	{ "type": "Feature", "properties": { "osm_id": "1026886589", "amenity": "waste_basket" }, "geometry": { "type": "Point", "coordinates": [ -1.779145, 53.702432 ] } },
	{ "type": "Feature", "properties": { "osm_id": "1026946910", "amenity": "waste_basket" }, "geometry": { "type": "Point", "coordinates": [ -1.7792855, 53.7015076 ] } },
	{ "type": "Feature", "properties": { "osm_id": "1026947182", "amenity": "waste_basket" }, "geometry": { "type": "Point", "coordinates": [ -1.77926, 53.7016061 ] } },
	{ "type": "Feature", "properties": { "osm_id": "1039830776", "amenity": "waste_basket" }, "geometry": { "type": "Point", "coordinates": [ -1.7780309, 53.6463726 ] } },
	{ "type": "Feature", "properties": { "osm_id": "1039830938", "amenity": "waste_basket" }, "geometry": { "type": "Point", "coordinates": [ -1.7768206, 53.6458408 ] } },
	{ "type": "Feature", "properties": { "osm_id": "1039830953", "amenity": "waste_basket" }, "geometry": { "type": "Point", "coordinates": [ -1.7769939, 53.6459894 ] } },
	{ "type": "Feature", "properties": { "osm_id": "1041331272", "amenity": "waste_basket" }, "geometry": { "type": "Point", "coordinates": [ -1.7832057, 53.6447974 ] } },
	{ "type": "Feature", "properties": { "osm_id": "1055328731", "amenity": "waste_basket" }, "geometry": { "type": "Point", "coordinates": [ -1.7804137, 53.6456223 ] } },
	{ "type": "Feature", "properties": { "osm_id": "1055328763", "amenity": "waste_basket" }, "geometry": { "type": "Point", "coordinates": [ -1.7777065, 53.6459334 ] } },
	{ "type": "Feature", "properties": { "osm_id": "1227379058", "amenity": "waste_basket" }, "geometry": { "type": "Point", "coordinates": [ -1.7368135, 53.7765497 ] } },
	{ "type": "Feature", "properties": { "osm_id": "1227379086", "amenity": "waste_basket" }, "geometry": { "type": "Point", "coordinates": [ -1.7415476, 53.7792252 ] } },
	{ "type": "Feature", "properties": { "osm_id": "1227379087", "amenity": "waste_basket" }, "geometry": { "type": "Point", "coordinates": [ -1.7393911, 53.7784058 ] } },
	{ "type": "Feature", "properties": { "osm_id": "1227379101", "amenity": "waste_basket" }, "geometry": { "type": "Point", "coordinates": [ -1.7398417, 53.7783011 ] } },
	{ "type": "Feature", "properties": { "osm_id": "1227379103", "amenity": "waste_basket" }, "geometry": { "type": "Point", "coordinates": [ -1.7412258, 53.7770284 ] } },
	{ "type": "Feature", "properties": { "osm_id": "1227379105", "amenity": "waste_basket" }, "geometry": { "type": "Point", "coordinates": [ -1.7415798, 53.7767495 ] } },
	{ "type": "Feature", "properties": { "osm_id": "1227379119", "amenity": "waste_basket" }, "geometry": { "type": "Point", "coordinates": [ -1.7347455, 53.7744876 ] } },
	{ "type": "Feature", "properties": { "osm_id": "1227379136", "amenity": "waste_basket" }, "geometry": { "type": "Point", "coordinates": [ -1.7380822, 53.7747555 ] } },
	{ "type": "Feature", "properties": { "osm_id": "1227379141", "amenity": "waste_basket" }, "geometry": { "type": "Point", "coordinates": [ -1.7420867, 53.7801777 ] } },
	{ "type": "Feature", "properties": { "osm_id": "1227379176", "amenity": "waste_basket" }, "geometry": { "type": "Point", "coordinates": [ -1.7353651, 53.7747158 ] } },
	{ "type": "Feature", "properties": { "osm_id": "1227379188", "amenity": "waste_basket" }, "geometry": { "type": "Point", "coordinates": [ -1.7391953, 53.7767208 ] } },
	{ "type": "Feature", "properties": { "osm_id": "1227379189", "amenity": "waste_basket" }, "geometry": { "type": "Point", "coordinates": [ -1.7386616, 53.7763769 ] } },
	{ "type": "Feature", "properties": { "osm_id": "1227379191", "amenity": "waste_basket" }, "geometry": { "type": "Point", "coordinates": [ -1.7378515, 53.7768002 ] } },
	{ "type": "Feature", "properties": { "osm_id": "1277447792", "amenity": "waste_basket" }, "geometry": { "type": "Point", "coordinates": [ -1.7895234, 53.6282098 ] } },
	{ "type": "Feature", "properties": { "osm_id": "1277447810", "amenity": "waste_basket" }, "geometry": { "type": "Point", "coordinates": [ -1.7875776, 53.6307304 ] } },
	{ "type": "Feature", "properties": { "osm_id": "1279689386", "amenity": "waste_basket" }, "geometry": { "type": "Point", "coordinates": [ -1.7696647, 53.6240221 ] } },
	{ "type": "Feature", "properties": { "osm_id": "1286613591", "amenity": "waste_basket" }, "geometry": { "type": "Point", "coordinates": [ -1.6549594, 53.7013541 ] } },
	{ "type": "Feature", "properties": { "osm_id": "1286794344", "amenity": "waste_basket" }, "geometry": { "type": "Point", "coordinates": [ -1.6728397, 53.7072392 ] } },
	{ "type": "Feature", "properties": { "osm_id": "1305117995", "amenity": "waste_basket" }, "geometry": { "type": "Point", "coordinates": [ -1.7820208, 53.7014556 ] } },
	{ "type": "Feature", "properties": { "osm_id": "1306007098", "amenity": "waste_basket" }, "geometry": { "type": "Point", "coordinates": [ -1.67214, 53.7095747 ] } },
	{ "type": "Feature", "properties": { "osm_id": "1306007127", "amenity": "waste_basket" }, "geometry": { "type": "Point", "coordinates": [ -1.6973485, 53.6820645 ] } },
	{ "type": "Feature", "properties": { "osm_id": "1306104469", "amenity": "waste_basket" }, "geometry": { "type": "Point", "coordinates": [ -1.6613384, 53.7301949 ] } },
	{ "type": "Feature", "properties": { "osm_id": "1308161017", "amenity": "waste_basket" }, "geometry": { "type": "Point", "coordinates": [ -1.7744081, 53.6270137 ] } },
	{ "type": "Feature", "properties": { "osm_id": "1314434815", "amenity": "waste_basket" }, "geometry": { "type": "Point", "coordinates": [ -1.6707837, 53.7387934 ] } },
	{ "type": "Feature", "properties": { "osm_id": "1324360030", "amenity": "waste_basket" }, "geometry": { "type": "Point", "coordinates": [ -1.7847205, 53.6274579 ] } },
	{ "type": "Feature", "properties": { "osm_id": "1324360118", "amenity": "waste_basket" }, "geometry": { "type": "Point", "coordinates": [ -1.7866089, 53.628478 ] } },
	{ "type": "Feature", "properties": { "osm_id": "1356937180", "amenity": "waste_basket" }, "geometry": { "type": "Point", "coordinates": [ -1.6762931, 53.7077412 ] } },
	{ "type": "Feature", "properties": { "osm_id": "1356937189", "amenity": "waste_basket" }, "geometry": { "type": "Point", "coordinates": [ -1.676243, 53.7077669 ] } },
	{ "type": "Feature", "properties": { "osm_id": "1356937193", "amenity": "waste_basket" }, "geometry": { "type": "Point", "coordinates": [ -1.6759346, 53.707841 ] } },
	{ "type": "Feature", "properties": { "osm_id": "1361028212", "amenity": "waste_basket" }, "geometry": { "type": "Point", "coordinates": [ -1.7735298, 53.6728058 ] } },
	{ "type": "Feature", "properties": { "osm_id": "1362218201", "amenity": "waste_basket" }, "geometry": { "type": "Point", "coordinates": [ -1.7575688, 53.679307 ] } },
	{ "type": "Feature", "properties": { "osm_id": "1363570004", "amenity": "waste_basket" }, "geometry": { "type": "Point", "coordinates": [ -1.6575113, 53.6797444 ] } },
	{ "type": "Feature", "properties": { "osm_id": "1363570005", "amenity": "waste_basket" }, "geometry": { "type": "Point", "coordinates": [ -1.6593799, 53.6797641 ] } },
	{ "type": "Feature", "properties": { "osm_id": "1416446551", "amenity": "waste_basket" }, "geometry": { "type": "Point", "coordinates": [ -1.6296851, 53.6902741 ] } },
	{ "type": "Feature", "properties": { "osm_id": "1417324492", "amenity": "waste_basket" }, "geometry": { "type": "Point", "coordinates": [ -1.982042, 53.8307699 ] } },
	{ "type": "Feature", "properties": { "osm_id": "1428145481", "amenity": "waste_basket" }, "geometry": { "type": "Point", "coordinates": [ -1.5434808, 53.8451778 ] } },
	{ "type": "Feature", "properties": { "osm_id": "1428534318", "amenity": "waste_basket" }, "geometry": { "type": "Point", "coordinates": [ -1.5437593, 53.8390068 ] } },
	{ "type": "Feature", "properties": { "osm_id": "1434904486", "amenity": "waste_basket" }, "geometry": { "type": "Point", "coordinates": [ -1.7724748, 53.6710716 ] } },
	{ "type": "Feature", "properties": { "osm_id": "1466049319", "amenity": "waste_basket" }, "geometry": { "type": "Point", "coordinates": [ -1.7416091, 53.6797374 ] } },
	{ "type": "Feature", "properties": { "osm_id": "1466049322", "amenity": "waste_basket" }, "geometry": { "type": "Point", "coordinates": [ -1.7411917, 53.6798089 ] } },
	{ "type": "Feature", "properties": { "osm_id": "1535922312", "amenity": "waste_basket" }, "geometry": { "type": "Point", "coordinates": [ -1.8050748, 53.6425197 ] } },
	{ "type": "Feature", "properties": { "osm_id": "1535922416", "amenity": "waste_basket" }, "geometry": { "type": "Point", "coordinates": [ -1.8115955, 53.643938 ] } },
	{ "type": "Feature", "properties": { "osm_id": "1535922428", "amenity": "waste_basket" }, "geometry": { "type": "Point", "coordinates": [ -1.8135741, 53.6440303 ] } },
	{ "type": "Feature", "properties": { "osm_id": "1535922452", "amenity": "waste_basket" }, "geometry": { "type": "Point", "coordinates": [ -1.813785, 53.6441905 ] } },
	{ "type": "Feature", "properties": { "osm_id": "1591394398", "amenity": "waste_basket" }, "geometry": { "type": "Point", "coordinates": [ -1.2944992, 53.6765514 ] } },
	{ "type": "Feature", "properties": { "osm_id": "1613532838", "amenity": "waste_basket" }, "geometry": { "type": "Point", "coordinates": [ -1.6244371, 53.6888655 ] } },
	{ "type": "Feature", "properties": { "osm_id": "1708507972", "amenity": "waste_basket" }, "geometry": { "type": "Point", "coordinates": [ -1.781031, 53.5465534 ] } },
	{ "type": "Feature", "properties": { "osm_id": "1708508010", "amenity": "waste_basket" }, "geometry": { "type": "Point", "coordinates": [ -1.7821649, 53.5462306 ] } },
	{ "type": "Feature", "properties": { "osm_id": "1710509797", "amenity": "waste_basket" }, "geometry": { "type": "Point", "coordinates": [ -1.7817766, 53.578076 ] } },
	{ "type": "Feature", "properties": { "osm_id": "1710545085", "amenity": "waste_basket" }, "geometry": { "type": "Point", "coordinates": [ -1.769696, 53.5804089 ] } },
	{ "type": "Feature", "properties": { "osm_id": "1717745721", "amenity": "waste_basket" }, "geometry": { "type": "Point", "coordinates": [ -1.6565738, 53.5728779 ] } },
	{ "type": "Feature", "properties": { "osm_id": "1717745892", "amenity": "waste_basket" }, "geometry": { "type": "Point", "coordinates": [ -1.7910822, 53.5799525 ] } },
	{ "type": "Feature", "properties": { "osm_id": "1717745944", "amenity": "waste_basket" }, "geometry": { "type": "Point", "coordinates": [ -1.7908202, 53.5800867 ] } },
	{ "type": "Feature", "properties": { "osm_id": "1717745978", "amenity": "waste_basket" }, "geometry": { "type": "Point", "coordinates": [ -1.7895067, 53.5802268 ] } },
	{ "type": "Feature", "properties": { "osm_id": "1718406370", "amenity": "waste_basket" }, "geometry": { "type": "Point", "coordinates": [ -1.7861389, 53.5698329 ] } },
	{ "type": "Feature", "properties": { "osm_id": "2099591673", "amenity": "waste_basket" }, "geometry": { "type": "Point", "coordinates": [ -1.7399511, 53.6378593 ] } },
	{ "type": "Feature", "properties": { "osm_id": "2099591708", "amenity": "waste_basket" }, "geometry": { "type": "Point", "coordinates": [ -1.7403459, 53.6379918 ] } },
	{ "type": "Feature", "properties": { "osm_id": "2099591736", "amenity": "waste_basket" }, "geometry": { "type": "Point", "coordinates": [ -1.7394608, 53.6383376 ] } },
	{ "type": "Feature", "properties": { "osm_id": "2099591767", "amenity": "waste_basket" }, "geometry": { "type": "Point", "coordinates": [ -1.7392735, 53.6386858 ] } },
	{ "type": "Feature", "properties": { "osm_id": "2101532104", "amenity": "waste_basket", "other_tags": "\"addr:city\"=>\"Leeds\",\"addr:street\"=>\"Trevelyan Square\"" }, "geometry": { "type": "Point", "coordinates": [ -1.5441943, 53.7953035 ] } },
	{ "type": "Feature", "properties": { "osm_id": "2107337308", "amenity": "waste_basket" }, "geometry": { "type": "Point", "coordinates": [ -1.7629703, 53.6440771 ] } },
	{ "type": "Feature", "properties": { "osm_id": "2107337396", "amenity": "waste_basket" }, "geometry": { "type": "Point", "coordinates": [ -1.762209, 53.6444003 ] } },
	{ "type": "Feature", "properties": { "osm_id": "2140257973", "amenity": "waste_basket" }, "geometry": { "type": "Point", "coordinates": [ -1.7250777, 53.5952798 ] } },
	{ "type": "Feature", "properties": { "osm_id": "2140284553", "amenity": "waste_basket", "other_tags": "\"material\"=>\"concrete\"" }, "geometry": { "type": "Point", "coordinates": [ -1.7046835, 53.5952045 ] } },
	{ "type": "Feature", "properties": { "osm_id": "2354678137", "amenity": "waste_basket" }, "geometry": { "type": "Point", "coordinates": [ -1.5667592, 53.8213851 ] } },
	{ "type": "Feature", "properties": { "osm_id": "2354678138", "amenity": "waste_basket" }, "geometry": { "type": "Point", "coordinates": [ -1.5641843, 53.8199063 ] } },
	{ "type": "Feature", "properties": { "osm_id": "2376472654", "amenity": "waste_basket" }, "geometry": { "type": "Point", "coordinates": [ -1.8022651, 53.6359785 ] } },
	{ "type": "Feature", "properties": { "osm_id": "2376472658", "amenity": "waste_basket" }, "geometry": { "type": "Point", "coordinates": [ -1.8032358, 53.6363513 ] } },
	{ "type": "Feature", "properties": { "osm_id": "2376485453", "amenity": "waste_basket" }, "geometry": { "type": "Point", "coordinates": [ -1.8040241, 53.6364498 ] } },
	{ "type": "Feature", "properties": { "osm_id": "2376485457", "amenity": "waste_basket" }, "geometry": { "type": "Point", "coordinates": [ -1.8070918, 53.6371966 ] } },
	{ "type": "Feature", "properties": { "osm_id": "2376589327", "amenity": "waste_basket" }, "geometry": { "type": "Point", "coordinates": [ -1.807751, 53.6382044 ] } },
	{ "type": "Feature", "properties": { "osm_id": "2376589331", "amenity": "waste_basket" }, "geometry": { "type": "Point", "coordinates": [ -1.8075645, 53.638122 ] } },
	{ "type": "Feature", "properties": { "osm_id": "2400234908", "amenity": "waste_basket" }, "geometry": { "type": "Point", "coordinates": [ -1.823095, 53.6387785 ] } },
	{ "type": "Feature", "properties": { "osm_id": "2400234915", "amenity": "waste_basket" }, "geometry": { "type": "Point", "coordinates": [ -1.8233177, 53.6387849 ] } },
	{ "type": "Feature", "properties": { "osm_id": "2415169117", "amenity": "waste_basket" }, "geometry": { "type": "Point", "coordinates": [ -1.7944352, 53.6202521 ] } },
	{ "type": "Feature", "properties": { "osm_id": "2415169137", "amenity": "waste_basket" }, "geometry": { "type": "Point", "coordinates": [ -1.7943977, 53.6201423 ] } },
	{ "type": "Feature", "properties": { "osm_id": "2415237511", "amenity": "waste_basket" }, "geometry": { "type": "Point", "coordinates": [ -1.7933543, 53.6187327 ] } },
	{ "type": "Feature", "properties": { "osm_id": "2415237513", "amenity": "waste_basket" }, "geometry": { "type": "Point", "coordinates": [ -1.792437, 53.6185434 ] } },
	{ "type": "Feature", "properties": { "osm_id": "2425838122", "amenity": "waste_basket", "other_tags": "\"material\"=>\"metal\"" }, "geometry": { "type": "Point", "coordinates": [ -1.7563503, 53.5766225 ] } },
	{ "type": "Feature", "properties": { "osm_id": "2425838126", "amenity": "waste_basket", "other_tags": "\"material\"=>\"metal\"" }, "geometry": { "type": "Point", "coordinates": [ -1.756284, 53.5763917 ] } },
	{ "type": "Feature", "properties": { "osm_id": "2425848024", "amenity": "waste_basket", "other_tags": "\"material\"=>\"metal\"" }, "geometry": { "type": "Point", "coordinates": [ -1.7554036, 53.5759446 ] } },
	{ "type": "Feature", "properties": { "osm_id": "2425848025", "amenity": "waste_basket", "other_tags": "\"material\"=>\"metal\"" }, "geometry": { "type": "Point", "coordinates": [ -1.7551166, 53.5760657 ] } },
	{ "type": "Feature", "properties": { "osm_id": "2425848027", "amenity": "waste_basket", "other_tags": "\"material\"=>\"metal\"" }, "geometry": { "type": "Point", "coordinates": [ -1.7551837, 53.5760498 ] } },
	{ "type": "Feature", "properties": { "osm_id": "2425848028", "amenity": "waste_basket", "other_tags": "\"material\"=>\"metal\"" }, "geometry": { "type": "Point", "coordinates": [ -1.7555484, 53.575999 ] } },
	{ "type": "Feature", "properties": { "osm_id": "2596692592", "amenity": "waste_basket" }, "geometry": { "type": "Point", "coordinates": [ -1.567086, 53.8284902 ] } },
	{ "type": "Feature", "properties": { "osm_id": "2596692599", "amenity": "waste_basket" }, "geometry": { "type": "Point", "coordinates": [ -1.5671034, 53.8283743 ] } },
	{ "type": "Feature", "properties": { "osm_id": "2596692604", "amenity": "waste_basket" }, "geometry": { "type": "Point", "coordinates": [ -1.5670223, 53.8284107 ] } },
	{ "type": "Feature", "properties": { "osm_id": "2808137942", "amenity": "waste_basket" }, "geometry": { "type": "Point", "coordinates": [ -1.7698775, 53.6225555 ] } },
	{ "type": "Feature", "properties": { "osm_id": "2939679190", "amenity": "waste_basket" }, "geometry": { "type": "Point", "coordinates": [ -1.6072219, 53.8215489 ] } },
	{ "type": "Feature", "properties": { "osm_id": "2978099686", "amenity": "waste_basket" }, "geometry": { "type": "Point", "coordinates": [ -1.637737, 53.7874471 ] } },
	{ "type": "Feature", "properties": { "osm_id": "3025622682", "amenity": "waste_basket" }, "geometry": { "type": "Point", "coordinates": [ -2.0100702, 53.7391704 ] } },
	{ "type": "Feature", "properties": { "osm_id": "3170308466", "amenity": "waste_basket" }, "geometry": { "type": "Point", "coordinates": [ -1.7452477, 53.6778294 ] } },
	{ "type": "Feature", "properties": { "osm_id": "3170327293", "amenity": "waste_basket" }, "geometry": { "type": "Point", "coordinates": [ -1.7419729, 53.6782677 ] } },
	{ "type": "Feature", "properties": { "osm_id": "3170327294", "amenity": "waste_basket" }, "geometry": { "type": "Point", "coordinates": [ -1.7417639, 53.6786217 ] } },
	{ "type": "Feature", "properties": { "osm_id": "3170327295", "amenity": "waste_basket" }, "geometry": { "type": "Point", "coordinates": [ -1.7418747, 53.6796089 ] } },
	{ "type": "Feature", "properties": { "osm_id": "3170327297", "amenity": "waste_basket" }, "geometry": { "type": "Point", "coordinates": [ -1.7415205, 53.6781354 ] } },
	{ "type": "Feature", "properties": { "osm_id": "3170332936", "amenity": "waste_basket" }, "geometry": { "type": "Point", "coordinates": [ -1.7433029, 53.6802433 ] } },
	{ "type": "Feature", "properties": { "osm_id": "3178793060", "amenity": "waste_basket" }, "geometry": { "type": "Point", "coordinates": [ -1.7389208, 53.6805524 ] } },
	{ "type": "Feature", "properties": { "osm_id": "3178794862", "amenity": "waste_basket" }, "geometry": { "type": "Point", "coordinates": [ -1.7486616, 53.6827637 ] } },
	{ "type": "Feature", "properties": { "osm_id": "3178794863", "amenity": "waste_basket" }, "geometry": { "type": "Point", "coordinates": [ -1.7410265, 53.6804843 ] } },
	{ "type": "Feature", "properties": { "osm_id": "3222499262", "amenity": "waste_basket" }, "geometry": { "type": "Point", "coordinates": [ -1.5655065, 53.809795 ] } },
	{ "type": "Feature", "properties": { "osm_id": "3222499263", "amenity": "waste_basket" }, "geometry": { "type": "Point", "coordinates": [ -1.5652462, 53.8108082 ] } },
	{ "type": "Feature", "properties": { "osm_id": "3222499266", "amenity": "waste_basket" }, "geometry": { "type": "Point", "coordinates": [ -1.5635164, 53.812246 ] } },
	{ "type": "Feature", "properties": { "osm_id": "3222499267", "amenity": "waste_basket", "other_tags": "\"waste\"=>\"dog_excrement\"" }, "geometry": { "type": "Point", "coordinates": [ -1.5623779, 53.8139419 ] } },
	{ "type": "Feature", "properties": { "osm_id": "3222499361", "amenity": "waste_basket" }, "geometry": { "type": "Point", "coordinates": [ -1.5637672, 53.8125079 ] } },
	{ "type": "Feature", "properties": { "osm_id": "3222499362", "amenity": "waste_basket", "other_tags": "\"waste\"=>\"dog_excrement\"" }, "geometry": { "type": "Point", "coordinates": [ -1.5633823, 53.8121599 ] } },
	{ "type": "Feature", "properties": { "osm_id": "3222499561", "amenity": "waste_basket" }, "geometry": { "type": "Point", "coordinates": [ -1.563434, 53.8124784 ] } },
	{ "type": "Feature", "properties": { "osm_id": "3222499661", "amenity": "waste_basket" }, "geometry": { "type": "Point", "coordinates": [ -1.5621573, 53.8136303 ] } },
	{ "type": "Feature", "properties": { "osm_id": "3222499861", "amenity": "waste_basket" }, "geometry": { "type": "Point", "coordinates": [ -1.5620868, 53.8139791 ] } },
	{ "type": "Feature", "properties": { "osm_id": "3223342561", "amenity": "waste_basket", "other_tags": "\"waste\"=>\"dog_excrement\"" }, "geometry": { "type": "Point", "coordinates": [ -1.5635737, 53.8125271 ] } },
	{ "type": "Feature", "properties": { "osm_id": "3225905505", "amenity": "waste_basket" }, "geometry": { "type": "Point", "coordinates": [ -1.5700683, 53.8121069 ] } },
	{ "type": "Feature", "properties": { "osm_id": "3225905509", "amenity": "waste_basket" }, "geometry": { "type": "Point", "coordinates": [ -1.5767608, 53.8123719 ] } },
	{ "type": "Feature", "properties": { "osm_id": "3225929361", "amenity": "waste_basket" }, "geometry": { "type": "Point", "coordinates": [ -1.5639693, 53.8093053 ] } },
	{ "type": "Feature", "properties": { "osm_id": "3225929363", "amenity": "waste_basket" }, "geometry": { "type": "Point", "coordinates": [ -1.5684494, 53.8125534 ] } },
	{ "type": "Feature", "properties": { "osm_id": "3225929364", "amenity": "waste_basket" }, "geometry": { "type": "Point", "coordinates": [ -1.5688897, 53.8124207 ] } },
	{ "type": "Feature", "properties": { "osm_id": "3225929365", "amenity": "waste_basket" }, "geometry": { "type": "Point", "coordinates": [ -1.5758103, 53.8114134 ] } },
	{ "type": "Feature", "properties": { "osm_id": "3225929461", "amenity": "waste_basket" }, "geometry": { "type": "Point", "coordinates": [ -1.5650361, 53.8097453 ] } },
	{ "type": "Feature", "properties": { "osm_id": "3225929462", "amenity": "waste_basket" }, "geometry": { "type": "Point", "coordinates": [ -1.5690417, 53.8123921 ] } },
	{ "type": "Feature", "properties": { "osm_id": "3225929561", "amenity": "waste_basket" }, "geometry": { "type": "Point", "coordinates": [ -1.5651184, 53.809769 ] } },
	{ "type": "Feature", "properties": { "osm_id": "3225929562", "amenity": "waste_basket" }, "geometry": { "type": "Point", "coordinates": [ -1.5659323, 53.8099977 ] } },
	{ "type": "Feature", "properties": { "osm_id": "3225929563", "amenity": "waste_basket" }, "geometry": { "type": "Point", "coordinates": [ -1.5699414, 53.8105457 ] } },
	{ "type": "Feature", "properties": { "osm_id": "3225929566", "amenity": "waste_basket" }, "geometry": { "type": "Point", "coordinates": [ -1.5693345, 53.8121836 ] } },
	{ "type": "Feature", "properties": { "osm_id": "3225929662", "amenity": "waste_basket" }, "geometry": { "type": "Point", "coordinates": [ -1.5686429, 53.8124967 ] } },
	{ "type": "Feature", "properties": { "osm_id": "3388276020", "amenity": "waste_basket" }, "geometry": { "type": "Point", "coordinates": [ -1.7325571, 53.663941 ] } },
	{ "type": "Feature", "properties": { "osm_id": "3715039712", "amenity": "waste_basket" }, "geometry": { "type": "Point", "coordinates": [ -1.6698061, 53.8661274 ] } },
	{ "type": "Feature", "properties": { "osm_id": "3715221480", "amenity": "waste_basket" }, "geometry": { "type": "Point", "coordinates": [ -1.6831657, 53.8554119 ] } },
	{ "type": "Feature", "properties": { "osm_id": "3715223365", "amenity": "waste_basket" }, "geometry": { "type": "Point", "coordinates": [ -1.6839056, 53.8548904 ] } },
	{ "type": "Feature", "properties": { "osm_id": "3716915901", "amenity": "waste_basket" }, "geometry": { "type": "Point", "coordinates": [ -1.6819567, 53.8656046 ] } },
	{ "type": "Feature", "properties": { "osm_id": "3716946390", "amenity": "waste_basket" }, "geometry": { "type": "Point", "coordinates": [ -1.6814665, 53.8660799 ] } },
	{ "type": "Feature", "properties": { "osm_id": "3718210821", "amenity": "waste_basket" }, "geometry": { "type": "Point", "coordinates": [ -1.6848169, 53.8660331 ] } },
	{ "type": "Feature", "properties": { "osm_id": "3718213594", "amenity": "waste_basket" }, "geometry": { "type": "Point", "coordinates": [ -1.6853935, 53.8660592 ] } },
	{ "type": "Feature", "properties": { "osm_id": "3736656492", "amenity": "waste_basket", "other_tags": "\"waste\"=>\"dog_excrement\"" }, "geometry": { "type": "Point", "coordinates": [ -1.6368963, 53.8264775 ] } },
	{ "type": "Feature", "properties": { "osm_id": "3887608948", "amenity": "waste_basket" }, "geometry": { "type": "Point", "coordinates": [ -1.5456312, 53.8034574 ] } },
	{ "type": "Feature", "properties": { "osm_id": "3887608949", "amenity": "waste_basket" }, "geometry": { "type": "Point", "coordinates": [ -1.5453393, 53.8032919 ] } },
	{ "type": "Feature", "properties": { "osm_id": "3887608950", "amenity": "waste_basket" }, "geometry": { "type": "Point", "coordinates": [ -1.5452319, 53.8036849 ] } },
	{ "type": "Feature", "properties": { "osm_id": "3887608951", "amenity": "waste_basket" }, "geometry": { "type": "Point", "coordinates": [ -1.5449727, 53.8035415 ] } },
	{ "type": "Feature", "properties": { "osm_id": "3925712005", "amenity": "waste_basket" }, "geometry": { "type": "Point", "coordinates": [ -1.6325053, 53.759235 ] } },
	{ "type": "Feature", "properties": { "osm_id": "3940962869", "amenity": "waste_basket" }, "geometry": { "type": "Point", "coordinates": [ -1.8005559, 53.9163473 ] } },
	{ "type": "Feature", "properties": { "osm_id": "3951353014", "amenity": "waste_basket" }, "geometry": { "type": "Point", "coordinates": [ -1.6695735, 53.5522537 ] } },
	{ "type": "Feature", "properties": { "osm_id": "3951353015", "amenity": "waste_basket" }, "geometry": { "type": "Point", "coordinates": [ -1.6684958, 53.5520203 ] } },
	{ "type": "Feature", "properties": { "osm_id": "3978166676", "amenity": "waste_basket" }, "geometry": { "type": "Point", "coordinates": [ -1.6682944, 53.5521426 ] } },
	{ "type": "Feature", "properties": { "osm_id": "4057268935", "amenity": "waste_basket" }, "geometry": { "type": "Point", "coordinates": [ -1.9483954, 53.8313401 ] } },
	{ "type": "Feature", "properties": { "osm_id": "4057277609", "amenity": "waste_basket" }, "geometry": { "type": "Point", "coordinates": [ -1.9493928, 53.8305947 ] } },
	{ "type": "Feature", "properties": { "osm_id": "4057506691", "amenity": "waste_basket" }, "geometry": { "type": "Point", "coordinates": [ -1.9352392, 53.835314 ] } },
	{ "type": "Feature", "properties": { "osm_id": "4076016240", "amenity": "waste_basket" }, "geometry": { "type": "Point", "coordinates": [ -1.5086068, 53.680427 ] } },
	{ "type": "Feature", "properties": { "osm_id": "4132940189", "amenity": "waste_basket" }, "geometry": { "type": "Point", "coordinates": [ -1.656245, 53.5621998 ] } },
	{ "type": "Feature", "properties": { "osm_id": "4132940192", "amenity": "waste_basket" }, "geometry": { "type": "Point", "coordinates": [ -1.6571918, 53.5612209 ] } },
	{ "type": "Feature", "properties": { "osm_id": "4203189935", "amenity": "waste_basket" }, "geometry": { "type": "Point", "coordinates": [ -1.5634583, 53.8357558 ] } },
	{ "type": "Feature", "properties": { "osm_id": "4203189936", "amenity": "waste_basket", "other_tags": "\"waste\"=>\"dog_excrement\"" }, "geometry": { "type": "Point", "coordinates": [ -1.5644185, 53.8360855 ] } },
	{ "type": "Feature", "properties": { "osm_id": "4203189938", "amenity": "waste_basket", "other_tags": "\"waste\"=>\"dog_excrement\"" }, "geometry": { "type": "Point", "coordinates": [ -1.5689129, 53.8373232 ] } },
	{ "type": "Feature", "properties": { "osm_id": "4203189939", "amenity": "waste_basket" }, "geometry": { "type": "Point", "coordinates": [ -1.5703292, 53.8375614 ] } },
	{ "type": "Feature", "properties": { "osm_id": "4203189941", "amenity": "waste_basket", "other_tags": "\"waste\"=>\"dog_excrement\"" }, "geometry": { "type": "Point", "coordinates": [ -1.5715093, 53.8375946 ] } },
	{ "type": "Feature", "properties": { "osm_id": "4209816017", "amenity": "waste_basket" }, "geometry": { "type": "Point", "coordinates": [ -1.5752413, 53.8330917 ] } },
	{ "type": "Feature", "properties": { "osm_id": "4209816019", "amenity": "waste_basket", "other_tags": "\"waste\"=>\"dog_excrement\"" }, "geometry": { "type": "Point", "coordinates": [ -1.5743669, 53.8312651 ] } },
	{ "type": "Feature", "properties": { "osm_id": "4209816024", "amenity": "waste_basket" }, "geometry": { "type": "Point", "coordinates": [ -1.573815, 53.8307888 ] } },
	{ "type": "Feature", "properties": { "osm_id": "4214304893", "amenity": "waste_basket", "other_tags": "\"waste\"=>\"dog_excrement\"" }, "geometry": { "type": "Point", "coordinates": [ -1.576137, 53.833915 ] } },
	{ "type": "Feature", "properties": { "osm_id": "4214304896", "amenity": "waste_basket" }, "geometry": { "type": "Point", "coordinates": [ -1.5756689, 53.8341752 ] } },
	{ "type": "Feature", "properties": { "osm_id": "4214304897", "amenity": "waste_basket", "other_tags": "\"waste\"=>\"dog_excrement\"" }, "geometry": { "type": "Point", "coordinates": [ -1.5770726, 53.8354854 ] } },
	{ "type": "Feature", "properties": { "osm_id": "4214304898", "amenity": "waste_basket", "other_tags": "\"waste\"=>\"dog_excrement\"" }, "geometry": { "type": "Point", "coordinates": [ -1.5764423, 53.8329877 ] } },
	{ "type": "Feature", "properties": { "osm_id": "4214304900", "amenity": "waste_basket", "other_tags": "\"waste\"=>\"dog_excrement\"" }, "geometry": { "type": "Point", "coordinates": [ -1.5761258, 53.8314095 ] } },
	{ "type": "Feature", "properties": { "osm_id": "4214304902", "amenity": "waste_basket" }, "geometry": { "type": "Point", "coordinates": [ -1.5747417, 53.8313826 ] } },
	{ "type": "Feature", "properties": { "osm_id": "4214304903", "amenity": "waste_basket" }, "geometry": { "type": "Point", "coordinates": [ -1.5743394, 53.830914 ] } },
	{ "type": "Feature", "properties": { "osm_id": "4214393628", "amenity": "waste_basket" }, "geometry": { "type": "Point", "coordinates": [ -1.5711727, 53.836182 ] } },
	{ "type": "Feature", "properties": { "osm_id": "4214420527", "amenity": "waste_basket" }, "geometry": { "type": "Point", "coordinates": [ -1.5662192, 53.8332217 ] } },
	{ "type": "Feature", "properties": { "osm_id": "4214420529", "amenity": "waste_basket" }, "geometry": { "type": "Point", "coordinates": [ -1.5676254, 53.8293296 ] } },
	{ "type": "Feature", "properties": { "osm_id": "4214420530", "amenity": "waste_basket" }, "geometry": { "type": "Point", "coordinates": [ -1.5670587, 53.8290033 ] } },
	{ "type": "Feature", "properties": { "osm_id": "4214420531", "amenity": "waste_basket" }, "geometry": { "type": "Point", "coordinates": [ -1.5671131, 53.82905 ] } },
	{ "type": "Feature", "properties": { "osm_id": "4214420532", "amenity": "waste_basket" }, "geometry": { "type": "Point", "coordinates": [ -1.5669783, 53.8287334 ] } },
	{ "type": "Feature", "properties": { "osm_id": "4214420533", "amenity": "waste_basket" }, "geometry": { "type": "Point", "coordinates": [ -1.5668958, 53.828657 ] } },
	{ "type": "Feature", "properties": { "osm_id": "4214420536", "amenity": "waste_basket" }, "geometry": { "type": "Point", "coordinates": [ -1.574374, 53.8317608 ] } },
	{ "type": "Feature", "properties": { "osm_id": "4214420537", "amenity": "waste_basket", "other_tags": "\"waste\"=>\"dog_excrement\"" }, "geometry": { "type": "Point", "coordinates": [ -1.5744571, 53.8325475 ] } },
	{ "type": "Feature", "properties": { "osm_id": "4361248190", "amenity": "waste_basket" }, "geometry": { "type": "Point", "coordinates": [ -1.5322227, 53.7983293 ] } },
	{ "type": "Feature", "properties": { "osm_id": "4361248191", "amenity": "waste_basket" }, "geometry": { "type": "Point", "coordinates": [ -1.5322715, 53.7981709 ] } },
	{ "type": "Feature", "properties": { "osm_id": "4361248192", "amenity": "waste_basket" }, "geometry": { "type": "Point", "coordinates": [ -1.5322756, 53.7982525 ] } },
	{ "type": "Feature", "properties": { "osm_id": "4361248194", "amenity": "waste_basket" }, "geometry": { "type": "Point", "coordinates": [ -1.5321302, 53.7986179 ] } },
	{ "type": "Feature", "properties": { "osm_id": "4362453635", "amenity": "waste_basket" }, "geometry": { "type": "Point", "coordinates": [ -1.5371581, 53.795251 ] } },
	{ "type": "Feature", "properties": { "osm_id": "4362557276", "amenity": "waste_basket" }, "geometry": { "type": "Point", "coordinates": [ -1.5393189, 53.7964889 ] } },
	{ "type": "Feature", "properties": { "osm_id": "4362565016", "amenity": "waste_basket" }, "geometry": { "type": "Point", "coordinates": [ -1.5489298, 53.8016142 ] } },
	{ "type": "Feature", "properties": { "osm_id": "4374682070", "amenity": "waste_basket" }, "geometry": { "type": "Point", "coordinates": [ -1.6736622, 53.5536129 ] } },
	{ "type": "Feature", "properties": { "osm_id": "4374682071", "amenity": "waste_basket" }, "geometry": { "type": "Point", "coordinates": [ -1.6735649, 53.5535183 ] } },
	{ "type": "Feature", "properties": { "osm_id": "4401401653", "amenity": "waste_basket" }, "geometry": { "type": "Point", "coordinates": [ -1.5682598, 53.8036982 ] } },
	{ "type": "Feature", "properties": { "osm_id": "4434225670", "amenity": "waste_basket" }, "geometry": { "type": "Point", "coordinates": [ -1.554667, 53.799251 ] } },
	{ "type": "Feature", "properties": { "osm_id": "4434225671", "amenity": "waste_basket" }, "geometry": { "type": "Point", "coordinates": [ -1.5539943, 53.7979986 ] } },
	{ "type": "Feature", "properties": { "osm_id": "4547492474", "amenity": "waste_basket" }, "geometry": { "type": "Point", "coordinates": [ -1.552555, 53.8084611 ] } },
	{ "type": "Feature", "properties": { "osm_id": "4595998251", "amenity": "waste_basket" }, "geometry": { "type": "Point", "coordinates": [ -1.6604081, 53.5600955 ] } },
	{ "type": "Feature", "properties": { "osm_id": "4598588889", "amenity": "waste_basket" }, "geometry": { "type": "Point", "coordinates": [ -1.6550033, 53.8220626 ] } },
	{ "type": "Feature", "properties": { "osm_id": "4598588895", "amenity": "waste_basket" }, "geometry": { "type": "Point", "coordinates": [ -1.6628741, 53.8238416 ] } },
	{ "type": "Feature", "properties": { "osm_id": "4598588896", "amenity": "waste_basket" }, "geometry": { "type": "Point", "coordinates": [ -1.6630078, 53.8239816 ] } },
	{ "type": "Feature", "properties": { "osm_id": "4598588897", "amenity": "waste_basket", "other_tags": "\"waste\"=>\"dog_excrement\"" }, "geometry": { "type": "Point", "coordinates": [ -1.663322, 53.825254 ] } },
	{ "type": "Feature", "properties": { "osm_id": "4598588898", "amenity": "waste_basket" }, "geometry": { "type": "Point", "coordinates": [ -1.6638698, 53.8263386 ] } },
	{ "type": "Feature", "properties": { "osm_id": "4621501498", "amenity": "waste_basket" }, "geometry": { "type": "Point", "coordinates": [ -1.5553851, 53.8001182 ] } },
	{ "type": "Feature", "properties": { "osm_id": "4634376289", "amenity": "waste_basket" }, "geometry": { "type": "Point", "coordinates": [ -1.6211396, 53.7954016 ] } },
	{ "type": "Feature", "properties": { "osm_id": "4735892634", "amenity": "waste_basket" }, "geometry": { "type": "Point", "coordinates": [ -1.6097491, 53.7853886 ] } },
	{ "type": "Feature", "properties": { "osm_id": "4735892637", "amenity": "waste_basket" }, "geometry": { "type": "Point", "coordinates": [ -1.6098167, 53.7855169 ] } },
	{ "type": "Feature", "properties": { "osm_id": "4740732703", "amenity": "waste_basket" }, "geometry": { "type": "Point", "coordinates": [ -1.5577073, 53.7990433 ] } },
	{ "type": "Feature", "properties": { "osm_id": "4760764309", "amenity": "waste_basket" }, "geometry": { "type": "Point", "coordinates": [ -1.6629681, 53.5725243 ] } },
	{ "type": "Feature", "properties": { "osm_id": "4760764310", "amenity": "waste_basket" }, "geometry": { "type": "Point", "coordinates": [ -1.6631396, 53.5730068 ] } },
	{ "type": "Feature", "properties": { "osm_id": "4760764311", "amenity": "waste_basket" }, "geometry": { "type": "Point", "coordinates": [ -1.6630157, 53.5726999 ] } },
	{ "type": "Feature", "properties": { "osm_id": "4760764315", "amenity": "waste_basket" }, "geometry": { "type": "Point", "coordinates": [ -1.6623808, 53.5733394 ] } },
	{ "type": "Feature", "properties": { "osm_id": "4760764316", "amenity": "waste_basket" }, "geometry": { "type": "Point", "coordinates": [ -1.6620737, 53.5733763 ] } },
	{ "type": "Feature", "properties": { "osm_id": "4760764317", "amenity": "waste_basket" }, "geometry": { "type": "Point", "coordinates": [ -1.661899, 53.573123 ] } },
	{ "type": "Feature", "properties": { "osm_id": "4790824188", "amenity": "waste_basket" }, "geometry": { "type": "Point", "coordinates": [ -1.7891793, 53.6497588 ] } },
	{ "type": "Feature", "properties": { "osm_id": "4876651870", "amenity": "waste_basket" }, "geometry": { "type": "Point", "coordinates": [ -1.6659054, 53.5807249 ] } },
	{ "type": "Feature", "properties": { "osm_id": "4903543133", "amenity": "waste_basket" }, "geometry": { "type": "Point", "coordinates": [ -1.4870413, 53.741125 ] } },
	{ "type": "Feature", "properties": { "osm_id": "4903543134", "amenity": "waste_basket" }, "geometry": { "type": "Point", "coordinates": [ -1.4867046, 53.7409108 ] } },
	{ "type": "Feature", "properties": { "osm_id": "4903543135", "amenity": "waste_basket" }, "geometry": { "type": "Point", "coordinates": [ -1.4907852, 53.7400742 ] } },
	{ "type": "Feature", "properties": { "osm_id": "4903543136", "amenity": "waste_basket" }, "geometry": { "type": "Point", "coordinates": [ -1.4900325, 53.7406097 ] } },
	{ "type": "Feature", "properties": { "osm_id": "4903543137", "amenity": "waste_basket" }, "geometry": { "type": "Point", "coordinates": [ -1.4901788, 53.7409548 ] } },
	{ "type": "Feature", "properties": { "osm_id": "4909235621", "amenity": "waste_basket" }, "geometry": { "type": "Point", "coordinates": [ -1.6137807, 53.804175 ] } },
	{ "type": "Feature", "properties": { "osm_id": "4909506259", "amenity": "waste_basket" }, "geometry": { "type": "Point", "coordinates": [ -1.5957747, 53.8015162 ] } },
	{ "type": "Feature", "properties": { "osm_id": "5194913959", "amenity": "waste_basket" }, "geometry": { "type": "Point", "coordinates": [ -1.6015793, 53.7456972 ] } },
	{ "type": "Feature", "properties": { "osm_id": "5218896691", "amenity": "waste_basket" }, "geometry": { "type": "Point", "coordinates": [ -1.6029753, 53.7451428 ] } },
	{ "type": "Feature", "properties": { "osm_id": "5240245014", "amenity": "waste_basket" }, "geometry": { "type": "Point", "coordinates": [ -1.682705, 53.5521649 ] } },
	{ "type": "Feature", "properties": { "osm_id": "5240245166", "amenity": "waste_basket", "other_tags": "\"waste\"=>\"dog_excrement\"" }, "geometry": { "type": "Point", "coordinates": [ -1.6742507, 53.5521934 ] } },
	{ "type": "Feature", "properties": { "osm_id": "5250551716", "amenity": "waste_basket" }, "geometry": { "type": "Point", "coordinates": [ -1.465182, 53.6486134 ] } },
	{ "type": "Feature", "properties": { "osm_id": "5251665206", "amenity": "waste_basket", "other_tags": "\"waste\"=>\"dog_excrement\"" }, "geometry": { "type": "Point", "coordinates": [ -1.4687848, 53.6510445 ] } },
	{ "type": "Feature", "properties": { "osm_id": "5251722436", "amenity": "waste_basket" }, "geometry": { "type": "Point", "coordinates": [ -1.4667595, 53.650541 ] } },
	{ "type": "Feature", "properties": { "osm_id": "5251722437", "amenity": "waste_basket" }, "geometry": { "type": "Point", "coordinates": [ -1.4652409, 53.6483512 ] } },
	{ "type": "Feature", "properties": { "osm_id": "5254862000", "amenity": "waste_basket" }, "geometry": { "type": "Point", "coordinates": [ -1.6420405, 53.5641722 ] } },
	{ "type": "Feature", "properties": { "osm_id": "5256721691", "amenity": "waste_basket" }, "geometry": { "type": "Point", "coordinates": [ -1.7048031, 53.5888765 ] } },
	{ "type": "Feature", "properties": { "osm_id": "5347940275", "amenity": "waste_basket" }, "geometry": { "type": "Point", "coordinates": [ -1.6737012, 53.5522155 ] } },
	{ "type": "Feature", "properties": { "osm_id": "5474949833", "amenity": "waste_basket" }, "geometry": { "type": "Point", "coordinates": [ -1.5453645, 53.7527001 ] } },
	{ "type": "Feature", "properties": { "osm_id": "5475771241", "amenity": "waste_basket" }, "geometry": { "type": "Point", "coordinates": [ -1.7072006, 53.8720085 ] } },
	{ "type": "Feature", "properties": { "osm_id": "5475771243", "amenity": "waste_basket" }, "geometry": { "type": "Point", "coordinates": [ -1.7128506, 53.8742311 ] } },
	{ "type": "Feature", "properties": { "osm_id": "5506378769", "amenity": "waste_basket" }, "geometry": { "type": "Point", "coordinates": [ -1.5342276, 53.7984465 ] } },
	{ "type": "Feature", "properties": { "osm_id": "5506378771", "amenity": "waste_basket" }, "geometry": { "type": "Point", "coordinates": [ -1.5338735, 53.7983823 ] } },
	{ "type": "Feature", "properties": { "osm_id": "5506378794", "amenity": "waste_basket" }, "geometry": { "type": "Point", "coordinates": [ -1.5332348, 53.7973114 ] } },
	{ "type": "Feature", "properties": { "osm_id": "5512423009", "amenity": "waste_basket" }, "geometry": { "type": "Point", "coordinates": [ -1.5497214, 53.8033675 ] } },
	{ "type": "Feature", "properties": { "osm_id": "5536419730", "amenity": "waste_basket" }, "geometry": { "type": "Point", "coordinates": [ -1.7664775, 53.819187 ] } },
	{ "type": "Feature", "properties": { "osm_id": "5599316990", "amenity": "waste_basket" }, "geometry": { "type": "Point", "coordinates": [ -1.6762411, 53.5575748 ] } },
	{ "type": "Feature", "properties": { "osm_id": "5599316991", "amenity": "waste_basket" }, "geometry": { "type": "Point", "coordinates": [ -1.679031, 53.5592157 ] } },
	{ "type": "Feature", "properties": { "osm_id": "5602347323", "amenity": "waste_basket", "other_tags": "\"waste\"=>\"trash\"" }, "geometry": { "type": "Point", "coordinates": [ -1.6640378, 53.8303715 ] } },
	{ "type": "Feature", "properties": { "osm_id": "5602347324", "amenity": "waste_basket", "other_tags": "\"waste\"=>\"trash\"" }, "geometry": { "type": "Point", "coordinates": [ -1.664658, 53.8291732 ] } },
	{ "type": "Feature", "properties": { "osm_id": "5602347325", "amenity": "waste_basket", "other_tags": "\"waste\"=>\"trash\"" }, "geometry": { "type": "Point", "coordinates": [ -1.666313, 53.8319901 ] } },
	{ "type": "Feature", "properties": { "osm_id": "5602347640", "amenity": "waste_basket", "other_tags": "\"waste\"=>\"trash\"" }, "geometry": { "type": "Point", "coordinates": [ -1.6683836, 53.8352323 ] } },
	{ "type": "Feature", "properties": { "osm_id": "5639896436", "amenity": "waste_basket" }, "geometry": { "type": "Point", "coordinates": [ -1.4745107, 53.7500567 ] } },
	{ "type": "Feature", "properties": { "osm_id": "5713710064", "amenity": "waste_basket" }, "geometry": { "type": "Point", "coordinates": [ -1.6614373, 53.8285495 ] } },
	{ "type": "Feature", "properties": { "osm_id": "6013114339", "amenity": "waste_basket" }, "geometry": { "type": "Point", "coordinates": [ -1.8877146, 53.6230354 ] } },
	{ "type": "Feature", "properties": { "osm_id": "6183459986", "amenity": "waste_basket" }, "geometry": { "type": "Point", "coordinates": [ -1.5431916, 53.7978446 ] } },
	{ "type": "Feature", "properties": { "osm_id": "6185928523", "amenity": "waste_basket" }, "geometry": { "type": "Point", "coordinates": [ -1.4601195, 53.8197763 ] } },
	{ "type": "Feature", "properties": { "osm_id": "6185928549", "amenity": "waste_basket" }, "geometry": { "type": "Point", "coordinates": [ -1.4589155, 53.8196011 ] } },
	{ "type": "Feature", "properties": { "osm_id": "6185928550", "amenity": "waste_basket" }, "geometry": { "type": "Point", "coordinates": [ -1.4589355, 53.8187737 ] } },
	{ "type": "Feature", "properties": { "osm_id": "6185928551", "amenity": "waste_basket" }, "geometry": { "type": "Point", "coordinates": [ -1.4599484, 53.8190164 ] } },
	{ "type": "Feature", "properties": { "osm_id": "6236602285", "amenity": "waste_basket" }, "geometry": { "type": "Point", "coordinates": [ -1.881803, 53.622275 ] } },
	{ "type": "Feature", "properties": { "osm_id": "6271564594", "amenity": "waste_basket" }, "geometry": { "type": "Point", "coordinates": [ -1.8560457, 53.6281782 ] } },
	{ "type": "Feature", "properties": { "osm_id": "6296175762", "amenity": "waste_basket" }, "geometry": { "type": "Point", "coordinates": [ -1.8795867, 53.6230286 ] } },
	{ "type": "Feature", "properties": { "osm_id": "6296175763", "amenity": "waste_basket" }, "geometry": { "type": "Point", "coordinates": [ -1.8800206, 53.6228135 ] } },
	{ "type": "Feature", "properties": { "osm_id": "6296616448", "amenity": "waste_basket" }, "geometry": { "type": "Point", "coordinates": [ -1.8824274, 53.6260798 ] } },
	{ "type": "Feature", "properties": { "osm_id": "6301475226", "amenity": "waste_basket" }, "geometry": { "type": "Point", "coordinates": [ -1.874848, 53.6221335 ] } },
	{ "type": "Feature", "properties": { "osm_id": "6365315189", "amenity": "waste_basket" }, "geometry": { "type": "Point", "coordinates": [ -1.9541556, 53.6064218 ] } },
	{ "type": "Feature", "properties": { "osm_id": "6393478352", "amenity": "waste_basket", "other_tags": "\"waste\"=>\"trash\"" }, "geometry": { "type": "Point", "coordinates": [ -1.8382171, 53.8520338 ] } },
	{ "type": "Feature", "properties": { "osm_id": "6393478371", "amenity": "waste_basket", "other_tags": "\"waste\"=>\"trash\"" }, "geometry": { "type": "Point", "coordinates": [ -1.8380535, 53.8548792 ] } },
	{ "type": "Feature", "properties": { "osm_id": "6393478373", "amenity": "waste_basket", "other_tags": "\"waste\"=>\"trash\"" }, "geometry": { "type": "Point", "coordinates": [ -1.8382573, 53.8563497 ] } },
	{ "type": "Feature", "properties": { "osm_id": "6393478377", "amenity": "waste_basket", "other_tags": "\"waste\"=>\"trash\"" }, "geometry": { "type": "Point", "coordinates": [ -1.8395609, 53.8576809 ] } },
	{ "type": "Feature", "properties": { "osm_id": "6415978049", "amenity": "waste_basket", "other_tags": "\"waste\"=>\"trash\"" }, "geometry": { "type": "Point", "coordinates": [ -1.8320802, 53.8542733 ] } },
	{ "type": "Feature", "properties": { "osm_id": "6484408043", "amenity": "waste_basket" }, "geometry": { "type": "Point", "coordinates": [ -1.4418951, 53.8244364 ] } },
	{ "type": "Feature", "properties": { "osm_id": "6509647594", "amenity": "waste_basket", "other_tags": "\"waste\"=>\"trash\"" }, "geometry": { "type": "Point", "coordinates": [ -1.8190312, 53.8301528 ] } },
	{ "type": "Feature", "properties": { "osm_id": "6509647596", "amenity": "waste_basket", "other_tags": "\"waste\"=>\"trash\"" }, "geometry": { "type": "Point", "coordinates": [ -1.8207585, 53.8304354 ] } },
	{ "type": "Feature", "properties": { "osm_id": "6551246567", "amenity": "waste_basket", "other_tags": "\"waste\"=>\"trash\"" }, "geometry": { "type": "Point", "coordinates": [ -1.4516359, 53.8933125 ] } },
	{ "type": "Feature", "properties": { "osm_id": "6551246571", "amenity": "waste_basket", "other_tags": "\"waste\"=>\"trash\"" }, "geometry": { "type": "Point", "coordinates": [ -1.4541619, 53.8950951 ] } },
	{ "type": "Feature", "properties": { "osm_id": "6553354482", "amenity": "waste_basket", "other_tags": "\"waste\"=>\"trash\"" }, "geometry": { "type": "Point", "coordinates": [ -1.4537298, 53.8951803 ] } },
	{ "type": "Feature", "properties": { "osm_id": "6553400803", "amenity": "waste_basket", "other_tags": "\"waste\"=>\"trash\"" }, "geometry": { "type": "Point", "coordinates": [ -1.4524282, 53.8945564 ] } },
	{ "type": "Feature", "properties": { "osm_id": "6586129872", "amenity": "waste_basket", "other_tags": "\"waste\"=>\"trash\"" }, "geometry": { "type": "Point", "coordinates": [ -1.8399404, 53.8481672 ] } },
	{ "type": "Feature", "properties": { "osm_id": "6653424132", "amenity": "waste_basket" }, "geometry": { "type": "Point", "coordinates": [ -1.5579657, 53.7970988 ] } },
	{ "type": "Feature", "properties": { "osm_id": "6659202104", "amenity": "waste_basket", "other_tags": "\"material\"=>\"metal\"" }, "geometry": { "type": "Point", "coordinates": [ -1.5602456, 53.7880705 ] } },
	{ "type": "Feature", "properties": { "osm_id": "6693574670", "amenity": "waste_basket", "other_tags": "\"material\"=>\"metal\"" }, "geometry": { "type": "Point", "coordinates": [ -1.5478991, 53.7964377 ] } },
	{ "type": "Feature", "properties": { "osm_id": "6693574671", "amenity": "waste_basket", "other_tags": "\"material\"=>\"metal\"" }, "geometry": { "type": "Point", "coordinates": [ -1.5477827, 53.7964358 ] } },
	{ "type": "Feature", "properties": { "osm_id": "6693574672", "amenity": "waste_basket", "other_tags": "\"material\"=>\"metal\"" }, "geometry": { "type": "Point", "coordinates": [ -1.5476801, 53.7964865 ] } },
	{ "type": "Feature", "properties": { "osm_id": "6693574673", "amenity": "waste_basket", "other_tags": "\"material\"=>\"metal\"" }, "geometry": { "type": "Point", "coordinates": [ -1.5476761, 53.7965716 ] } },
	{ "type": "Feature", "properties": { "osm_id": "6769497923", "amenity": "waste_basket" }, "geometry": { "type": "Point", "coordinates": [ -1.4177757, 53.788785 ] } },
	{ "type": "Feature", "properties": { "osm_id": "6872262615", "amenity": "waste_basket" }, "geometry": { "type": "Point", "coordinates": [ -1.7429013, 53.8267592 ] } },
	{ "type": "Feature", "properties": { "osm_id": "6872262628", "amenity": "waste_basket" }, "geometry": { "type": "Point", "coordinates": [ -1.7416167, 53.82886 ] } },
	{ "type": "Feature", "properties": { "osm_id": "6872262749", "amenity": "waste_basket" }, "geometry": { "type": "Point", "coordinates": [ -1.7340566, 53.824406 ] } }
]
}
