{
"type": "FeatureCollection",
"crs": { "type": "name", "properties": { "name": "urn:ogc:def:crs:OGC:1.3:CRS84" } },
"features": [
	{ "type": "Feature", "properties": { "osm_id": "27476331", "amenity": "toilets" }, "geometry": { "type": "Point", "coordinates": [ -1.386277, 53.9279274 ] } },
	{ "type": "Feature", "properties": { "osm_id": "29563630", "amenity": "toilets" }, "geometry": { "type": "Point", "coordinates": [ -1.3199988, 53.9114072 ] } },
	{ "type": "Feature", "properties": { "osm_id": "300357440", "amenity": "toilets" }, "geometry": { "type": "Point", "coordinates": [ -1.6461311, 53.8229313 ] } },
	{ "type": "Feature", "properties": { "osm_id": "304470493", "amenity": "toilets" }, "geometry": { "type": "Point", "coordinates": [ -1.6262531, 53.8107359 ] } },
	{ "type": "Feature", "properties": { "osm_id": "317592549", "amenity": "toilets", "other_tags": "\"fee\"=>\"yes\"" }, "geometry": { "type": "Point", "coordinates": [ -1.7529064, 53.7928521 ] } },
	{ "type": "Feature", "properties": { "osm_id": "330030525", "amenity": "toilets", "other_tags": "\"fee\"=>\"20p piece\"" }, "geometry": { "type": "Point", "coordinates": [ -2.0128589, 53.740993 ] } },
	{ "type": "Feature", "properties": { "osm_id": "330030526", "amenity": "toilets", "other_tags": "\"fee\"=>\"20p piece\",\"unisex\"=>\"yes\",\"wheelchair\"=>\"yes\"" }, "geometry": { "type": "Point", "coordinates": [ -2.0124668, 53.7429958 ] } },
	{ "type": "Feature", "properties": { "osm_id": "330057249", "amenity": "toilets", "other_tags": "\"fee\"=>\"20p piece\"" }, "geometry": { "type": "Point", "coordinates": [ -1.9826638, 53.7306211 ] } },
	{ "type": "Feature", "properties": { "osm_id": "332484030", "amenity": "toilets" }, "geometry": { "type": "Point", "coordinates": [ -1.5414896, 53.7873719 ] } },
	{ "type": "Feature", "properties": { "osm_id": "333123005", "amenity": "toilets", "other_tags": "\"building\"=>\"yes\"" }, "geometry": { "type": "Point", "coordinates": [ -1.7678558, 53.8099177 ] } },
	{ "type": "Feature", "properties": { "osm_id": "342579657", "amenity": "toilets", "other_tags": "\"fee\"=>\"yes\",\"male\"=>\"yes\",\"toilets:wheelchair\"=>\"yes\",\"wheelchair\"=>\"yes\"" }, "geometry": { "type": "Point", "coordinates": [ -1.5359695, 53.7969782 ] } },
	{ "type": "Feature", "properties": { "osm_id": "343620493", "amenity": "toilets", "other_tags": "\"access\"=>\"yes\",\"charge\"=>\"honesty\",\"fee\"=>\"yes\",\"toilets:disposal\"=>\"flush\"" }, "geometry": { "type": "Point", "coordinates": [ -1.7859184, 53.5706619 ] } },
	{ "type": "Feature", "properties": { "osm_id": "345024395", "amenity": "toilets", "other_tags": "\"access\"=>\"yes\",\"changing_table\"=>\"yes\",\"fee\"=>\"yes\",\"female\"=>\"yes\",\"layer\"=>\"1\",\"level\"=>\"0\",\"male\"=>\"yes\",\"toilets:disposal\"=>\"flush\"" }, "geometry": { "type": "Point", "coordinates": [ -1.5472404, 53.7948656 ] } },
	{ "type": "Feature", "properties": { "osm_id": "360912574", "amenity": "toilets" }, "geometry": { "type": "Point", "coordinates": [ -1.4977764, 53.6381205 ] } },
	{ "type": "Feature", "properties": { "osm_id": "361229182", "amenity": "toilets", "other_tags": "\"fee\"=>\"no\"" }, "geometry": { "type": "Point", "coordinates": [ -1.8372206, 53.7306963 ] } },
	{ "type": "Feature", "properties": { "osm_id": "364836776", "amenity": "toilets" }, "geometry": { "type": "Point", "coordinates": [ -1.3198077, 53.8191094 ] } },
	{ "type": "Feature", "properties": { "osm_id": "366699700", "amenity": "toilets" }, "geometry": { "type": "Point", "coordinates": [ -1.8099819, 53.6266799 ] } },
	{ "type": "Feature", "properties": { "osm_id": "413990424", "amenity": "toilets" }, "geometry": { "type": "Point", "coordinates": [ -1.9080944, 53.8650398 ] } },
	{ "type": "Feature", "properties": { "osm_id": "459188008", "amenity": "toilets", "other_tags": "\"fee\"=>\"yes\",\"female\"=>\"yes\",\"toilets:wheelchair\"=>\"yes\",\"wheelchair\"=>\"yes\"" }, "geometry": { "type": "Point", "coordinates": [ -1.5359705, 53.7970519 ] } },
	{ "type": "Feature", "properties": { "osm_id": "668752873", "amenity": "toilets" }, "geometry": { "type": "Point", "coordinates": [ -1.8386834, 53.5490949 ] } },
	{ "type": "Feature", "properties": { "osm_id": "747723191", "amenity": "toilets" }, "geometry": { "type": "Point", "coordinates": [ -1.7386113, 53.8893942 ] } },
	{ "type": "Feature", "properties": { "osm_id": "768678147", "amenity": "toilets" }, "geometry": { "type": "Point", "coordinates": [ -1.2666329, 53.6974113 ] } },
	{ "type": "Feature", "properties": { "osm_id": "769077461", "amenity": "toilets" }, "geometry": { "type": "Point", "coordinates": [ -1.2375284, 53.6264221 ] } },
	{ "type": "Feature", "properties": { "osm_id": "843387782", "name": "Hartshead Moor Services", "amenity": "toilets", "other_tags": "\"description\"=>\"Highway information\",\"fee\"=>\"no\",\"tourism\"=>\"information\",\"wheelchair\"=>\"yes\"" }, "geometry": { "type": "Point", "coordinates": [ -1.7442023, 53.7135526 ] } },
	{ "type": "Feature", "properties": { "osm_id": "1127109435", "amenity": "toilets" }, "geometry": { "type": "Point", "coordinates": [ -1.6279616, 53.6906029 ] } },
	{ "type": "Feature", "properties": { "osm_id": "1154173071", "amenity": "toilets", "other_tags": "\"access\"=>\"customers\",\"changing_table\"=>\"no\",\"male\"=>\"yes\",\"toilets:disposal\"=>\"flush\",\"wheelchair\"=>\"yes\"" }, "geometry": { "type": "Point", "coordinates": [ -2.0084704, 53.7376414 ] } },
	{ "type": "Feature", "properties": { "osm_id": "1235927405", "amenity": "toilets" }, "geometry": { "type": "Point", "coordinates": [ -1.8617688, 53.7224957 ] } },
	{ "type": "Feature", "properties": { "osm_id": "1242480588", "amenity": "toilets" }, "geometry": { "type": "Point", "coordinates": [ -1.8586193, 53.7245941 ] } },
	{ "type": "Feature", "properties": { "osm_id": "1273177124", "amenity": "toilets", "other_tags": "\"fee\"=>\"no\",\"operator\"=>\"National Trust\",\"wheelchair\"=>\"yes\"" }, "geometry": { "type": "Point", "coordinates": [ -1.390275, 53.6524027 ] } },
	{ "type": "Feature", "properties": { "osm_id": "1348746533", "amenity": "toilets", "other_tags": "\"designation\"=>\"Male\",\"fee\"=>\"no\",\"wheelchair\"=>\"yes\"" }, "geometry": { "type": "Point", "coordinates": [ -1.9584444, 53.8319871 ] } },
	{ "type": "Feature", "properties": { "osm_id": "1348746540", "amenity": "toilets", "other_tags": "\"designation\"=>\"Female\",\"fee\"=>\"no\",\"wheelchair\"=>\"yes\"" }, "geometry": { "type": "Point", "coordinates": [ -1.9578972, 53.8320014 ] } },
	{ "type": "Feature", "properties": { "osm_id": "1411526409", "amenity": "toilets" }, "geometry": { "type": "Point", "coordinates": [ -2.1014686, 53.7178068 ] } },
	{ "type": "Feature", "properties": { "osm_id": "1562986911", "amenity": "toilets" }, "geometry": { "type": "Point", "coordinates": [ -1.5389966, 53.7972449 ] } },
	{ "type": "Feature", "properties": { "osm_id": "1634552632", "amenity": "toilets" }, "geometry": { "type": "Point", "coordinates": [ -1.8665494, 53.7074226 ] } },
	{ "type": "Feature", "properties": { "osm_id": "1637789257", "amenity": "toilets" }, "geometry": { "type": "Point", "coordinates": [ -1.590855, 53.7972897 ] } },
	{ "type": "Feature", "properties": { "osm_id": "1710509860", "amenity": "toilets" }, "geometry": { "type": "Point", "coordinates": [ -1.7819858, 53.5784948 ] } },
	{ "type": "Feature", "properties": { "osm_id": "1716696188", "amenity": "toilets" }, "geometry": { "type": "Point", "coordinates": [ -1.4335414, 53.6337303 ] } },
	{ "type": "Feature", "properties": { "osm_id": "2117006517", "amenity": "toilets" }, "geometry": { "type": "Point", "coordinates": [ -1.529874, 53.7794307 ] } },
	{ "type": "Feature", "properties": { "osm_id": "2316549967", "amenity": "toilets", "other_tags": "\"fee\"=>\"yes\",\"male\"=>\"yes\",\"female\"=>\"yes\",\"wheelchair\"=>\"yes\"" }, "geometry": { "type": "Point", "coordinates": [ -1.9384754, 53.7280896 ] } },
	{ "type": "Feature", "properties": { "osm_id": "2316867481", "amenity": "toilets" }, "geometry": { "type": "Point", "coordinates": [ -1.749868, 53.913529 ] } },
	{ "type": "Feature", "properties": { "osm_id": "2333236449", "amenity": "toilets", "other_tags": "\"fee\"=>\"yes\",\"male\"=>\"yes\",\"female\"=>\"yes\",\"wheelchair\"=>\"yes\",\"opening_hours\"=>\"Mo-Su 09:00-18:00\"" }, "geometry": { "type": "Point", "coordinates": [ -1.858886, 53.722007 ] } },
	{ "type": "Feature", "properties": { "osm_id": "2398185080", "amenity": "toilets" }, "geometry": { "type": "Point", "coordinates": [ -1.784256, 53.6487346 ] } },
	{ "type": "Feature", "properties": { "osm_id": "2398185092", "amenity": "toilets" }, "geometry": { "type": "Point", "coordinates": [ -1.7846533, 53.6489499 ] } },
	{ "type": "Feature", "properties": { "osm_id": "2408717775", "amenity": "toilets", "other_tags": "\"fee\"=>\"Â£0.30\",\"wheelchair\"=>\"no\"" }, "geometry": { "type": "Point", "coordinates": [ -1.5360983, 53.7974754 ] } },
	{ "type": "Feature", "properties": { "osm_id": "2425838123", "amenity": "toilets" }, "geometry": { "type": "Point", "coordinates": [ -1.7562755, 53.5766303 ] } },
	{ "type": "Feature", "properties": { "osm_id": "2526325272", "amenity": "toilets" }, "geometry": { "type": "Point", "coordinates": [ -1.3885739, 53.6517912 ] } },
	{ "type": "Feature", "properties": { "osm_id": "3061311434", "amenity": "toilets", "other_tags": "\"fee\"=>\"yes\",\"male\"=>\"yes\",\"diaper\"=>\"yes\",\"female\"=>\"yes\",\"wheelchair\"=>\"yes\"" }, "geometry": { "type": "Point", "coordinates": [ -1.870202, 53.709276 ] } },
	{ "type": "Feature", "properties": { "osm_id": "4051026382", "amenity": "toilets" }, "geometry": { "type": "Point", "coordinates": [ -1.5500521, 53.6217139 ] } },
	{ "type": "Feature", "properties": { "osm_id": "4162183286", "amenity": "toilets" }, "geometry": { "type": "Point", "coordinates": [ -1.5537616, 53.8200504 ] } },
	{ "type": "Feature", "properties": { "osm_id": "4211554351", "amenity": "toilets" }, "geometry": { "type": "Point", "coordinates": [ -1.5456659, 53.6222922 ] } },
	{ "type": "Feature", "properties": { "osm_id": "4325290419", "amenity": "toilets", "other_tags": "\"female\"=>\"yes\"" }, "geometry": { "type": "Point", "coordinates": [ -1.4579742, 53.7850726 ] } },
	{ "type": "Feature", "properties": { "osm_id": "4345687923", "amenity": "toilets", "other_tags": "\"fee\"=>\"no\"" }, "geometry": { "type": "Point", "coordinates": [ -1.9011999, 53.773496 ] } },
	{ "type": "Feature", "properties": { "osm_id": "4362557270", "amenity": "toilets", "other_tags": "\"level\"=>\"-1\"" }, "geometry": { "type": "Point", "coordinates": [ -1.5404146, 53.7960286 ] } },
	{ "type": "Feature", "properties": { "osm_id": "4375281731", "amenity": "toilets", "other_tags": "\"access\"=>\"yes\",\"disabled\"=>\"yes\"" }, "geometry": { "type": "Point", "coordinates": [ -1.556544, 53.6084422 ] } },
	{ "type": "Feature", "properties": { "osm_id": "4375336072", "amenity": "toilets", "other_tags": "\"diaper\"=>\"yes\",\"disabled\"=>\"yes\"" }, "geometry": { "type": "Point", "coordinates": [ -1.5695288, 53.6139437 ] } },
	{ "type": "Feature", "properties": { "osm_id": "4375336695", "amenity": "toilets" }, "geometry": { "type": "Point", "coordinates": [ -1.5715042, 53.6148454 ] } },
	{ "type": "Feature", "properties": { "osm_id": "4375356242", "amenity": "toilets", "other_tags": "\"access\"=>\"yes\",\"diaper\"=>\"yes\",\"disabled\"=>\"yes\"" }, "geometry": { "type": "Point", "coordinates": [ -1.5757789, 53.6131274 ] } },
	{ "type": "Feature", "properties": { "osm_id": "4485179449", "amenity": "toilets" }, "geometry": { "type": "Point", "coordinates": [ -1.5045288, 53.8403722 ] } },
	{ "type": "Feature", "properties": { "osm_id": "4492760741", "amenity": "toilets" }, "geometry": { "type": "Point", "coordinates": [ -1.4498706, 53.8064408 ] } },
	{ "type": "Feature", "properties": { "osm_id": "4569592178", "amenity": "toilets" }, "geometry": { "type": "Point", "coordinates": [ -1.5747929, 53.75718 ] } }
]
}
