{
"type": "FeatureCollection",
"crs": { "type": "name", "properties": { "name": "urn:ogc:def:crs:OGC:1.3:CRS84" } },
"features": [
	{ "type": "Feature", "properties": { "osm_id": "36558551", "amenity": "parking", "other_tags": "\"access\"=>\"yes\",\"parking\"=>\"surface\"" }, "geometry": { "type": "Point", "coordinates": [ -1.8580793, 53.7192814 ] } },
	{ "type": "Feature", "properties": { "osm_id": "36558553", "amenity": "parking", "other_tags": "\"access\"=>\"yes\",\"parking\"=>\"surface\"" }, "geometry": { "type": "Point", "coordinates": [ -1.8574945, 53.7193554 ] } },
	{ "type": "Feature", "properties": { "osm_id": "245978742", "amenity": "parking" }, "geometry": { "type": "Point", "coordinates": [ -1.9139593, 53.7066906 ] } },
	{ "type": "Feature", "properties": { "osm_id": "360042028", "name": "Mill Lane Car Park", "amenity": "parking", "other_tags": "\"parking\"=>\"surface\",\"capacity:disabled\"=>\"yes\"" }, "geometry": { "type": "Point", "coordinates": [ -1.7776006, 53.7017346 ] } },
	{ "type": "Feature", "properties": { "osm_id": "361229181", "amenity": "parking", "other_tags": "\"fee\"=>\"no\",\"parking\"=>\"surface\"" }, "geometry": { "type": "Point", "coordinates": [ -1.837806, 53.7310639 ] } },
	{ "type": "Feature", "properties": { "osm_id": "361229560", "amenity": "parking", "other_tags": "\"parking\"=>\"surface\"" }, "geometry": { "type": "Point", "coordinates": [ -1.8403032, 53.7287169 ] } },
	{ "type": "Feature", "properties": { "osm_id": "375724235", "amenity": "parking", "other_tags": "\"description\"=>\"Layby\"" }, "geometry": { "type": "Point", "coordinates": [ -2.0553339, 53.7771742 ] } },
	{ "type": "Feature", "properties": { "osm_id": "375724965", "amenity": "parking", "other_tags": "\"description\"=>\"Layby\"" }, "geometry": { "type": "Point", "coordinates": [ -2.0665156, 53.7793176 ] } },
	{ "type": "Feature", "properties": { "osm_id": "375725761", "amenity": "parking" }, "geometry": { "type": "Point", "coordinates": [ -2.1141318, 53.7963417 ] } },
	{ "type": "Feature", "properties": { "osm_id": "375762644", "amenity": "parking" }, "geometry": { "type": "Point", "coordinates": [ -2.0175086, 53.6625366 ] } },
	{ "type": "Feature", "properties": { "osm_id": "377021221", "amenity": "parking", "other_tags": "\"parking\"=>\"surface\"" }, "geometry": { "type": "Point", "coordinates": [ -1.7756732, 53.702434 ] } },
	{ "type": "Feature", "properties": { "osm_id": "411852416", "amenity": "parking" }, "geometry": { "type": "Point", "coordinates": [ -2.0017139, 53.7771434 ] } },
	{ "type": "Feature", "properties": { "osm_id": "467734828", "amenity": "parking" }, "geometry": { "type": "Point", "coordinates": [ -1.9858024, 53.6619886 ] } },
	{ "type": "Feature", "properties": { "osm_id": "497059264", "amenity": "parking", "other_tags": "\"description\"=>\"layby\"" }, "geometry": { "type": "Point", "coordinates": [ -2.0322455, 53.6675276 ] } },
	{ "type": "Feature", "properties": { "osm_id": "497059268", "amenity": "parking", "other_tags": "\"description\"=>\"layby\"" }, "geometry": { "type": "Point", "coordinates": [ -2.0311834, 53.6689958 ] } },
	{ "type": "Feature", "properties": { "osm_id": "497059274", "amenity": "parking", "other_tags": "\"description\"=>\"layby\"" }, "geometry": { "type": "Point", "coordinates": [ -2.0241952, 53.6760694 ] } },
	{ "type": "Feature", "properties": { "osm_id": "497059276", "amenity": "parking", "other_tags": "\"description\"=>\"layby\"" }, "geometry": { "type": "Point", "coordinates": [ -2.0159881, 53.6803533 ] } },
	{ "type": "Feature", "properties": { "osm_id": "497059281", "amenity": "parking", "other_tags": "\"description\"=>\"layby\"" }, "geometry": { "type": "Point", "coordinates": [ -2.013499, 53.6823512 ] } },
	{ "type": "Feature", "properties": { "osm_id": "538618317", "amenity": "parking" }, "geometry": { "type": "Point", "coordinates": [ -2.081654, 53.7870322 ] } },
	{ "type": "Feature", "properties": { "osm_id": "571799461", "amenity": "parking" }, "geometry": { "type": "Point", "coordinates": [ -1.8420154, 53.7283429 ] } },
	{ "type": "Feature", "properties": { "osm_id": "571822227", "name": "Akroyd Place Car Park", "amenity": "parking" }, "geometry": { "type": "Point", "coordinates": [ -1.8610272, 53.7267931 ] } },
	{ "type": "Feature", "properties": { "osm_id": "627835500", "amenity": "parking" }, "geometry": { "type": "Point", "coordinates": [ -1.8542244, 53.7024388 ] } },
	{ "type": "Feature", "properties": { "osm_id": "732774684", "name": "Cow Green", "amenity": "parking" }, "geometry": { "type": "Point", "coordinates": [ -1.8639478, 53.7229579 ] } },
	{ "type": "Feature", "properties": { "osm_id": "957179952", "amenity": "parking" }, "geometry": { "type": "Point", "coordinates": [ -1.8669811, 53.7090453 ] } },
	{ "type": "Feature", "properties": { "osm_id": "1025480730", "amenity": "parking" }, "geometry": { "type": "Point", "coordinates": [ -1.7801023, 53.7008439 ] } },
	{ "type": "Feature", "properties": { "osm_id": "1166053841", "amenity": "parking", "other_tags": "\"parking\"=>\"surface\"" }, "geometry": { "type": "Point", "coordinates": [ -1.7560752, 53.7215056 ] } },
	{ "type": "Feature", "properties": { "osm_id": "1235988169", "name": "Bull Green Car Park", "amenity": "parking", "other_tags": "\"capacity\"=>\"40\"" }, "geometry": { "type": "Point", "coordinates": [ -1.8635873, 53.7216044 ] } },
	{ "type": "Feature", "properties": { "osm_id": "1295087596", "amenity": "parking", "other_tags": "\"parking\"=>\"layby\"" }, "geometry": { "type": "Point", "coordinates": [ -1.7609989, 53.7219478 ] } },
	{ "type": "Feature", "properties": { "osm_id": "1363626806", "amenity": "parking" }, "geometry": { "type": "Point", "coordinates": [ -1.8132203, 53.6976128 ] } },
	{ "type": "Feature", "properties": { "osm_id": "1401189936", "amenity": "parking" }, "geometry": { "type": "Point", "coordinates": [ -2.0714899, 53.7180571 ] } },
	{ "type": "Feature", "properties": { "osm_id": "1413797390", "name": "Fielden Square", "amenity": "parking" }, "geometry": { "type": "Point", "coordinates": [ -2.099082, 53.71199 ] } },
	{ "type": "Feature", "properties": { "osm_id": "1425519635", "amenity": "parking" }, "geometry": { "type": "Point", "coordinates": [ -2.1103638, 53.7418551 ] } },
	{ "type": "Feature", "properties": { "osm_id": "1535334468", "amenity": "parking" }, "geometry": { "type": "Point", "coordinates": [ -2.1045409, 53.7069286 ] } },
	{ "type": "Feature", "properties": { "osm_id": "1535360873", "amenity": "parking" }, "geometry": { "type": "Point", "coordinates": [ -2.1035901, 53.7076708 ] } },
	{ "type": "Feature", "properties": { "osm_id": "1642472594", "amenity": "parking" }, "geometry": { "type": "Point", "coordinates": [ -1.9647181, 53.6652827 ] } },
	{ "type": "Feature", "properties": { "osm_id": "2104456564", "amenity": "parking" }, "geometry": { "type": "Point", "coordinates": [ -1.8345459, 53.6962711 ] } },
	{ "type": "Feature", "properties": { "osm_id": "2140500236", "amenity": "parking", "other_tags": "\"school\"=>\"parking\"" }, "geometry": { "type": "Point", "coordinates": [ -1.8317237, 53.7408257 ] } },
	{ "type": "Feature", "properties": { "osm_id": "2156260549", "amenity": "parking" }, "geometry": { "type": "Point", "coordinates": [ -1.8142163, 53.7381907 ] } },
	{ "type": "Feature", "properties": { "osm_id": "2156263208", "amenity": "parking" }, "geometry": { "type": "Point", "coordinates": [ -1.8147554, 53.7376339 ] } },
	{ "type": "Feature", "properties": { "osm_id": "2474082828", "amenity": "parking", "other_tags": "\"parking\"=>\"surface\"" }, "geometry": { "type": "Point", "coordinates": [ -1.8393427, 53.6727455 ] } },
	{ "type": "Feature", "properties": { "osm_id": "3551010966", "amenity": "parking" }, "geometry": { "type": "Point", "coordinates": [ -1.847881, 53.6759375 ] } },
	{ "type": "Feature", "properties": { "osm_id": "3551010970", "amenity": "parking" }, "geometry": { "type": "Point", "coordinates": [ -1.850741, 53.6821721 ] } },
	{ "type": "Feature", "properties": { "osm_id": "3554512972", "amenity": "parking" }, "geometry": { "type": "Point", "coordinates": [ -1.8479856, 53.7415364 ] } },
	{ "type": "Feature", "properties": { "osm_id": "4462989890", "amenity": "parking" }, "geometry": { "type": "Point", "coordinates": [ -2.0987789, 53.7113329 ] } },
	{ "type": "Feature", "properties": { "osm_id": "5239889558", "amenity": "parking", "other_tags": "\"parking\"=>\"layby\"" }, "geometry": { "type": "Point", "coordinates": [ -1.9393204, 53.7423424 ] } },
	{ "type": "Feature", "properties": { "osm_id": "5493018773", "name": "Resident Parking", "amenity": "parking", "other_tags": "\"fee\"=>\"no\",\"access\"=>\"Residents_Only\",\"parking\"=>\"surface\",\"surface\"=>\"concrete\",\"capacity\"=>\"5\",\"operator\"=>\"Resident Block\",\"park_ride\"=>\"no\",\"supervised\"=>\"no\"" }, "geometry": { "type": "Point", "coordinates": [ -1.7736209, 53.7239104 ] } },
	{ "type": "Feature", "properties": { "osm_id": "6616807452", "amenity": "parking" }, "geometry": { "type": "Point", "coordinates": [ -1.940309, 53.6745676 ] } },
	{ "type": "Feature", "properties": { "osm_id": "7728205976", "amenity": "parking", "other_tags": "\"addr:street\"=>\"Maltings Road\"" }, "geometry": { "type": "Point", "coordinates": [ -1.9024881, 53.7378058 ] } }
]
}
