{
"type": "FeatureCollection",
"crs": { "type": "name", "properties": { "name": "urn:ogc:def:crs:OGC:1.3:CRS84" } },
"features": [
	{ "type": "Feature", "properties": { "osm_id": "376054065", "amenity": "bench" }, "geometry": { "type": "Point", "coordinates": [ -1.7755506, 53.706423 ] } },
	{ "type": "Feature", "properties": { "osm_id": "376054326", "amenity": "bench" }, "geometry": { "type": "Point", "coordinates": [ -1.7749029, 53.7044699 ] } },
	{ "type": "Feature", "properties": { "osm_id": "376986016", "amenity": "bench", "other_tags": "\"backrest\"=>\"yes\"" }, "geometry": { "type": "Point", "coordinates": [ -1.7820655, 53.7010955 ] } },
	{ "type": "Feature", "properties": { "osm_id": "425820760", "amenity": "bench", "other_tags": "\"backrest\"=>\"yes\"" }, "geometry": { "type": "Point", "coordinates": [ -1.7793488, 53.7005949 ] } },
	{ "type": "Feature", "properties": { "osm_id": "425820761", "amenity": "bench", "other_tags": "\"backrest\"=>\"yes\"" }, "geometry": { "type": "Point", "coordinates": [ -1.779913, 53.7006685 ] } },
	{ "type": "Feature", "properties": { "osm_id": "425820762", "amenity": "bench", "other_tags": "\"backrest\"=>\"yes\"" }, "geometry": { "type": "Point", "coordinates": [ -1.7802525, 53.70069 ] } },
	{ "type": "Feature", "properties": { "osm_id": "495677843", "amenity": "bench" }, "geometry": { "type": "Point", "coordinates": [ -2.0528447, 53.7021652 ] } },
	{ "type": "Feature", "properties": { "osm_id": "495797022", "amenity": "bench" }, "geometry": { "type": "Point", "coordinates": [ -2.028383, 53.7409206 ] } },
	{ "type": "Feature", "properties": { "osm_id": "538608739", "amenity": "bench" }, "geometry": { "type": "Point", "coordinates": [ -2.0556782, 53.7775083 ] } },
	{ "type": "Feature", "properties": { "osm_id": "643011216", "amenity": "bench", "other_tags": "\"tourism\"=>\"viewpoint\"" }, "geometry": { "type": "Point", "coordinates": [ -2.0278243, 53.752137 ] } },
	{ "type": "Feature", "properties": { "osm_id": "971867446", "amenity": "bench" }, "geometry": { "type": "Point", "coordinates": [ -2.017463, 53.7462608 ] } },
	{ "type": "Feature", "properties": { "osm_id": "1025480772", "amenity": "bench", "other_tags": "\"backrest\"=>\"yes\"" }, "geometry": { "type": "Point", "coordinates": [ -1.7790739, 53.70056 ] } },
	{ "type": "Feature", "properties": { "osm_id": "1156650369", "amenity": "bench", "other_tags": "\"backrest\"=>\"yes\",\"material\"=>\"wood\",\"seats\"=>\"3\"" }, "geometry": { "type": "Point", "coordinates": [ -2.0088779, 53.7378603 ] } },
	{ "type": "Feature", "properties": { "osm_id": "1156650429", "amenity": "bench" }, "geometry": { "type": "Point", "coordinates": [ -2.0087435, 53.7378903 ] } },
	{ "type": "Feature", "properties": { "osm_id": "1156650431", "amenity": "bench" }, "geometry": { "type": "Point", "coordinates": [ -2.008805, 53.7379099 ] } },
	{ "type": "Feature", "properties": { "osm_id": "1273001589", "amenity": "bench" }, "geometry": { "type": "Point", "coordinates": [ -2.0735108, 53.7891239 ] } },
	{ "type": "Feature", "properties": { "osm_id": "1277605575", "amenity": "bench" }, "geometry": { "type": "Point", "coordinates": [ -1.8597137, 53.676428 ] } },
	{ "type": "Feature", "properties": { "osm_id": "1588969586", "amenity": "bench", "other_tags": "\"backrest\"=>\"yes\"" }, "geometry": { "type": "Point", "coordinates": [ -1.797991, 53.7255996 ] } },
	{ "type": "Feature", "properties": { "osm_id": "2623561458", "amenity": "bench" }, "geometry": { "type": "Point", "coordinates": [ -1.9822349, 53.7308922 ] } },
	{ "type": "Feature", "properties": { "osm_id": "3527148244", "amenity": "bench" }, "geometry": { "type": "Point", "coordinates": [ -2.0972506, 53.713247 ] } },
	{ "type": "Feature", "properties": { "osm_id": "4008951392", "amenity": "bench" }, "geometry": { "type": "Point", "coordinates": [ -2.012776, 53.7786921 ] } },
	{ "type": "Feature", "properties": { "osm_id": "4593011925", "amenity": "bench" }, "geometry": { "type": "Point", "coordinates": [ -1.884009, 53.6723484 ] } },
	{ "type": "Feature", "properties": { "osm_id": "4593011926", "amenity": "bench" }, "geometry": { "type": "Point", "coordinates": [ -1.8830086, 53.6724962 ] } },
	{ "type": "Feature", "properties": { "osm_id": "4593011927", "amenity": "bench" }, "geometry": { "type": "Point", "coordinates": [ -1.8833854, 53.6728735 ] } },
	{ "type": "Feature", "properties": { "osm_id": "4593011928", "amenity": "bench" }, "geometry": { "type": "Point", "coordinates": [ -1.8825459, 53.6729736 ] } },
	{ "type": "Feature", "properties": { "osm_id": "4593011929", "amenity": "bench" }, "geometry": { "type": "Point", "coordinates": [ -1.8829402, 53.6765529 ] } },
	{ "type": "Feature", "properties": { "osm_id": "4593011930", "amenity": "bench" }, "geometry": { "type": "Point", "coordinates": [ -1.883136, 53.6770963 ] } },
	{ "type": "Feature", "properties": { "osm_id": "4593011931", "amenity": "bench" }, "geometry": { "type": "Point", "coordinates": [ -1.8829911, 53.6771201 ] } },
	{ "type": "Feature", "properties": { "osm_id": "4593011932", "amenity": "bench" }, "geometry": { "type": "Point", "coordinates": [ -1.8786218, 53.672657 ] } },
	{ "type": "Feature", "properties": { "osm_id": "4593011933", "amenity": "bench" }, "geometry": { "type": "Point", "coordinates": [ -1.8830367, 53.6717474 ] } },
	{ "type": "Feature", "properties": { "osm_id": "4593011935", "amenity": "bench" }, "geometry": { "type": "Point", "coordinates": [ -1.886132, 53.6701782 ] } },
	{ "type": "Feature", "properties": { "osm_id": "4593011937", "amenity": "bench" }, "geometry": { "type": "Point", "coordinates": [ -1.8817358, 53.6673989 ] } },
	{ "type": "Feature", "properties": { "osm_id": "4593011938", "amenity": "bench" }, "geometry": { "type": "Point", "coordinates": [ -1.8817358, 53.6673989 ] } },
	{ "type": "Feature", "properties": { "osm_id": "4593020294", "amenity": "bench" }, "geometry": { "type": "Point", "coordinates": [ -1.8829858, 53.6717787 ] } },
	{ "type": "Feature", "properties": { "osm_id": "5215137167", "amenity": "bench" }, "geometry": { "type": "Point", "coordinates": [ -1.7938357, 53.7478755 ] } },
	{ "type": "Feature", "properties": { "osm_id": "5260765644", "amenity": "bench" }, "geometry": { "type": "Point", "coordinates": [ -1.908618, 53.7036174 ] } },
	{ "type": "Feature", "properties": { "osm_id": "6426482160", "amenity": "bench", "other_tags": "\"backrest\"=>\"yes\"" }, "geometry": { "type": "Point", "coordinates": [ -1.8958937, 53.6948173 ] } },
	{ "type": "Feature", "properties": { "osm_id": "6432272832", "amenity": "bench", "other_tags": "\"backrest\"=>\"yes\"" }, "geometry": { "type": "Point", "coordinates": [ -1.9915383, 53.7341363 ] } },
	{ "type": "Feature", "properties": { "osm_id": "7099827215", "amenity": "bench", "other_tags": "\"access\"=>\"yes\",\"backrest\"=>\"yes\",\"colour\"=>\"brown\",\"material\"=>\"wood\",\"seats\"=>\"4\"" }, "geometry": { "type": "Point", "coordinates": [ -2.0436339, 53.7565865 ] } },
	{ "type": "Feature", "properties": { "osm_id": "7241022365", "amenity": "bench", "other_tags": "\"backrest\"=>\"yes\"" }, "geometry": { "type": "Point", "coordinates": [ -2.0100042, 53.7398079 ] } }
]
}
